{"type":"FeatureCollection","crs":{"type":"name","properties":{"name":"EPSG:4326"}},"features":[{"type":"Feature","id":11848,"geometry":{"type":"LineString","coordinates":[[-80.1937780155431,25.7596512130336],[-80.1950380271237,25.7596063228512]]},"properties":{"FID":11848,"St_SegID":10817,"L_Add_From":2,"L_Add_To":64,"R_Add_From":1,"R_Add_To":65,"Prefix_Dir":"SW","St_BName":"14","MD_St_BNam":"14TH","St_Type1":" ","St_Type2":"TER","St_Name":"14TH","St_Type":"TER","ARPS_St_Ty":"TER","St_Label":"SW 14TH TER","Suffix_Dir":" ","Ramp":" ","L_Zip":"33130","R_Zip":"33130","Shield_Typ":" ","Shield_Num":" ","In_Miami":1,"Jurisd_Cod":"M","Rd_Class":4,"Rd_Status":2,"One_Way":" ","Speed_Limi":30,"F_ZLev":0,"T_ZLev":0,"ZLevel":0,"FT_Cost":415.04389327,"TF_Cost":415.04389327,"Alias01":" ","Alias02":" ","Alias03":" ","STC_ID":0,"MD_StreetI":0,"MD_Stree_1":908532,"MD_RdClass":"5","Date_In":1196380800000,"Date_Mod":1196380800000,"Edited_By":"SYSTEM","From_ST":"S MIAMI AVE","To_ST":"SW 1ST AVE","Shape_Leng":415.043931817,"Shape__Length":140.37354875404179}},{"type":"Feature","id":11842,"geometry":{"type":"LineString","coordinates":[[-80.1922299349238,25.7603344967335],[-80.1924518409372,25.7594409780147]]},"properties":{"FID":11842,"St_SegID":10811,"L_Add_From":1401,"L_Add_To":1431,"R_Add_From":1400,"R_Add_To":1428,"Prefix_Dir":" ","St_BName":"BRICKELL","MD_St_BNam":"BRICKELL","St_Type1":" ","St_Type2":"AVE","St_Name":"BRICKELL","St_Type":"AVE","ARPS_St_Ty":"AV","St_Label":"BRICKELL AVE","Suffix_Dir":" ","Ramp":" ","L_Zip":"33131","R_Zip":"33131","Shield_Typ":"US","Shield_Num":"1","In_Miami":1,"Jurisd_Cod":"M","Rd_Class":2,"Rd_Status":2,"One_Way":" ","Speed_Limi":40,"F_ZLev":0,"T_ZLev":0,"ZLevel":0,"FT_Cost":332.88148953,"TF_Cost":332.88148953,"Alias01":"US HWY 1","Alias02":" ","Alias03":" ","STC_ID":0,"MD_StreetI":0,"MD_Stree_1":900188,"MD_RdClass":"2","Date_In":1196380800000,"Date_Mod":1513209600000,"Edited_By":"Ykebede","From_ST":"SE 14TH ST","To_ST":"SE 14TH TER","Shape_Leng":332.881542982,"Shape__Length":113.17024246047106}},{"type":"Feature","id":11851,"geometry":{"type":"LineString","coordinates":[[-80.1937780155431,25.7596512130336],[-80.1939721789815,25.7589311369774],[-80.1939869360072,25.7588837993472],[-80.194006845995,25.7588380351365],[-80.1940317093816,25.7587943030394],[-80.1940612769569,25.7587530413815],[-80.1940952523615,25.7587146637269]]},"properties":{"FID":11851,"St_SegID":10820,"L_Add_From":1451,"L_Add_To":1499,"R_Add_From":1450,"R_Add_To":1498,"Prefix_Dir":"S","St_BName":"MIAMI","MD_St_BNam":"MIAMI","St_Type1":" ","St_Type2":"AVE","St_Name":"MIAMI","St_Type":"AVE","ARPS_St_Ty":"AV","St_Label":"S MIAMI AVE","Suffix_Dir":" ","Ramp":" ","L_Zip":"33130","R_Zip":"33130","Shield_Typ":" ","Shield_Num":" ","In_Miami":1,"Jurisd_Cod":"C","Rd_Class":2,"Rd_Status":2,"One_Way":" ","Speed_Limi":40,"F_ZLev":0,"T_ZLev":0,"ZLevel":0,"FT_Cost":358.84690255,"TF_Cost":358.84690255,"Alias01":" ","Alias02":" ","Alias03":" ","STC_ID":0,"MD_StreetI":0,"MD_Stree_1":908537,"MD_RdClass":"2","Date_In":1196380800000,"Date_Mod":1196380800000,"Edited_By":"SYSTEM","From_ST":"SW 14TH TER","To_ST":"SE 15TH RD & SW 15TH RD","Shape_Leng":358.846778395,"Shape__Length":121.95172936709203}},{"type":"Feature","id":16136,"geometry":{"type":"LineString","coordinates":[[-80.1940952523615,25.7587146637269],[-80.1941477809027,25.7586621905426],[-80.1942042720318,25.7586132091233],[-80.1942644434225,25.7585679642602],[-80.1962943148886,25.7571707931046]]},"properties":{"FID":16136,"St_SegID":16476,"L_Add_From":1501,"L_Add_To":1699,"R_Add_From":1500,"R_Add_To":1698,"Prefix_Dir":"S","St_BName":"MIAMI","MD_St_BNam":"MIAMI","St_Type1":" ","St_Type2":"AVE","St_Name":"MIAMI","St_Type":"AVE","ARPS_St_Ty":"AV","St_Label":"S MIAMI AVE","Suffix_Dir":" ","Ramp":" ","L_Zip":"33129","R_Zip":"33129","Shield_Typ":" ","Shield_Num":" ","In_Miami":1,"Jurisd_Cod":"C","Rd_Class":2,"Rd_Status":2,"One_Way":" ","Speed_Limi":40,"F_ZLev":0,"T_ZLev":0,"ZLevel":0,"FT_Cost":916.46285218,"TF_Cost":916.46285218,"Alias01":" ","Alias02":" ","Alias03":" ","STC_ID":1,"MD_StreetI":0,"MD_Stree_1":908512,"MD_RdClass":"2","Date_In":1196380800000,"Date_Mod":1196380800000,"Edited_By":"SYSTEM","From_ST":"SE 15TH RD & SW 15TH RD","To_ST":"SW 17TH RD","Shape_Leng":916.462828649,"Shape__Length":310.58543667068795}},{"type":"Feature","id":3021,"geometry":{"type":"LineString","coordinates":[[-80.1900834919255,25.7599134538953],[-80.1893762550017,25.7597575949364]]},"properties":{"FID":3021,"St_SegID":3824,"L_Add_From":201,"L_Add_To":299,"R_Add_From":200,"R_Add_To":298,"Prefix_Dir":"SE","St_BName":"14","MD_St_BNam":"14TH","St_Type1":" ","St_Type2":"ST","St_Name":"14TH","St_Type":"ST","ARPS_St_Ty":"ST","St_Label":"SE 14TH ST","Suffix_Dir":" ","Ramp":" ","L_Zip":"33131","R_Zip":"33131","Shield_Typ":" ","Shield_Num":" ","In_Miami":1,"Jurisd_Cod":"M","Rd_Class":4,"Rd_Status":2,"One_Way":" ","Speed_Limi":30,"F_ZLev":0,"T_ZLev":0,"ZLevel":0,"FT_Cost":239.57561384,"TF_Cost":239.57561384,"Alias01":" ","Alias02":" ","Alias03":" ","STC_ID":0,"MD_StreetI":0,"MD_Stree_1":904421,"MD_RdClass":"5","Date_In":1196380800000,"Date_Mod":1196380800000,"Edited_By":"SYSTEM","From_ST":"BRICKELL BAY DR","To_ST":"BRICKELL BAY DR","Shape_Leng":239.57558596,"Shape__Length":81.0519566100745}},{"type":"Feature","id":11840,"geometry":{"type":"LineString","coordinates":[[-80.1924518409372,25.7594409780147],[-80.1908284689098,25.7590900385553],[-80.190777628468,25.7590521232544],[-80.1907318506411,25.7590092434546],[-80.1906917230816,25.7589619496118],[-80.1906577609066,25.7589108488449],[-80.1906304000853,25.7588565971423],[-80.1906099918429,25.7587998909403],[-80.1905967981524,25.7587414581831],[-80.1905909883717,25.7586820489776],[-80.1905926370702,25.7586224259645],[-80.1906017230726,25.7585633545279]]},"properties":{"FID":11840,"St_SegID":10809,"L_Add_From":101,"L_Add_To":199,"R_Add_From":100,"R_Add_To":198,"Prefix_Dir":"SE","St_BName":"14","MD_St_BNam":"14TH","St_Type1":" ","St_Type2":"TER","St_Name":"14TH","St_Type":"TER","ARPS_St_Ty":"TER","St_Label":"SE 14TH TER","Suffix_Dir":" ","Ramp":" ","L_Zip":"33131","R_Zip":"33131","Shield_Typ":" ","Shield_Num":" ","In_Miami":1,"Jurisd_Cod":"M","Rd_Class":4,"Rd_Status":2,"One_Way":" ","Speed_Limi":30,"F_ZLev":0,"T_ZLev":0,"ZLevel":0,"FT_Cost":766.23454415,"TF_Cost":766.23454415,"Alias01":" ","Alias02":" ","Alias03":" ","STC_ID":0,"MD_StreetI":0,"MD_Stree_1":900194,"MD_RdClass":"5","Date_In":1196380800000,"Date_Mod":1196380800000,"Edited_By":"SYSTEM","From_ST":"BRICKELL AVE","To_ST":"SE 14TH LN","Shape_Leng":766.234610528,"Shape__Length":259.48196163666671}},{"type":"Feature","id":9550,"geometry":{"type":"LineString","coordinates":[[-80.1893762550017,25.7597575949364],[-80.1893052833539,25.7596597060211],[-80.1892410083193,25.7595580944119],[-80.1891836672043,25.7594531352921],[-80.1891334717118,25.759345216204],[-80.1890906071591,25.7592347356176],[-80.189055231794,25.7591221014601],[-80.1890274762108,25.7590077296088],[-80.1890074428688,25.758892042356],[-80.1889952057137,25.7587754668494],[-80.1889908099052,25.7586584335153],[-80.1889942716506,25.7585413744693],[-80.1890055781453,25.7584247219202],[-80.1890246876204,25.7583089065753],[-80.1890515294971,25.758194356049],[-80.1890860046481,25.758081493285],[-80.1891279857631,25.7579707349938],[-80.1891773178201,25.7578624901151],[-80.1892338186571,25.7577571583074],[-80.1892972796457,25.7576551284727],[-80.1893674664612,25.7575567773208],[-80.189444119948,25.757462467978],[-80.1895269570768,25.7573725486473],[-80.1896156719893,25.7572873513223],[-80.1897099371279,25.7572071905617],[-80.1898094044452,25.7571323623283],[-80.1899137066885,25.7570631428957],[-80.1900224587565,25.7569997878293],[-80.1901352591205,25.7569425310421],[-80.1902516913067,25.7568915839315],[-80.1903713254345,25.7568471345987],[-80.1904937198026,25.7568093471546],[-80.1906184225201,25.7567783611136],[-80.1907449731748,25.7567542908791]]},"properties":{"FID":9550,"St_SegID":10081,"L_Add_From":1401,"L_Add_To":1599,"R_Add_From":1400,"R_Add_To":1598,"Prefix_Dir":" ","St_BName":"BRICKELL BAY","MD_St_BNam":"BRICKELL BAY","St_Type1":" ","St_Type2":"DR","St_Name":"BRICKELL BAY","St_Type":"DR","ARPS_St_Ty":"DR","St_Label":"BRICKELL BAY DR","Suffix_Dir":" ","Ramp":" ","L_Zip":"33131","R_Zip":"33131","Shield_Typ":" ","Shield_Num":" ","In_Miami":1,"Jurisd_Cod":"M","Rd_Class":4,"Rd_Status":2,"One_Way":" ","Speed_Limi":30,"F_ZLev":0,"T_ZLev":0,"ZLevel":0,"FT_Cost":1404.79779498,"TF_Cost":1404.79779498,"Alias01":" ","Alias02":" ","Alias03":" ","STC_ID":0,"MD_StreetI":0,"MD_Stree_1":907776,"MD_RdClass":"5","Date_In":1196380800000,"Date_Mod":1196380800000,"Edited_By":"SYSTEM","From_ST":"SE 14TH ST","To_ST":"SE 15TH RD","Shape_Leng":1404.79766593,"Shape__Length":476.7537650171293}},{"type":"Feature","id":11849,"geometry":{"type":"LineString","coordinates":[[-80.1935297547152,25.7606010442767],[-80.1937780155431,25.7596512130336]]},"properties":{"FID":11849,"St_SegID":10818,"L_Add_From":1401,"L_Add_To":1449,"R_Add_From":1400,"R_Add_To":1448,"Prefix_Dir":"S","St_BName":"MIAMI","MD_St_BNam":"MIAMI","St_Type1":" ","St_Type2":"AVE","St_Name":"MIAMI","St_Type":"AVE","ARPS_St_Ty":"AV","St_Label":"S MIAMI AVE","Suffix_Dir":" ","Ramp":" ","L_Zip":"33130","R_Zip":"33130","Shield_Typ":" ","Shield_Num":" ","In_Miami":1,"Jurisd_Cod":"C","Rd_Class":2,"Rd_Status":2,"One_Way":" ","Speed_Limi":40,"F_ZLev":0,"T_ZLev":0,"ZLevel":0,"FT_Cost":354.7762097,"TF_Cost":354.7762097,"Alias01":" ","Alias02":" ","Alias03":" ","STC_ID":0,"MD_StreetI":0,"MD_Stree_1":908533,"MD_RdClass":"2","Date_In":1196380800000,"Date_Mod":1196380800000,"Edited_By":"SYSTEM","From_ST":"SE 14TH ST & SW 14TH ST","To_ST":"SW 14TH TER","Shape_Leng":354.776267129,"Shape__Length":120.61088487769173}},{"type":"Feature","id":11844,"geometry":{"type":"LineString","coordinates":[[-80.1922299349238,25.7603344967335],[-80.1919469095948,25.7603026844659],[-80.1900834919255,25.7599134538953]]},"properties":{"FID":11844,"St_SegID":10813,"L_Add_From":101,"L_Add_To":199,"R_Add_From":100,"R_Add_To":198,"Prefix_Dir":"SE","St_BName":"14","MD_St_BNam":"14TH","St_Type1":" ","St_Type2":"ST","St_Name":"14TH","St_Type":"ST","ARPS_St_Ty":"ST","St_Label":"SE 14TH ST","Suffix_Dir":" ","Ramp":" ","L_Zip":"33131","R_Zip":"33131","Shield_Typ":" ","Shield_Num":" ","In_Miami":1,"Jurisd_Cod":"M","Rd_Class":4,"Rd_Status":2,"One_Way":" ","Speed_Limi":30,"F_ZLev":0,"T_ZLev":0,"ZLevel":0,"FT_Cost":723.30288954,"TF_Cost":723.30288954,"Alias01":" ","Alias02":" ","Alias03":" ","STC_ID":0,"MD_StreetI":0,"MD_Stree_1":904420,"MD_RdClass":"5","Date_In":1196380800000,"Date_Mod":1196380800000,"Edited_By":"SYSTEM","From_ST":"BRICKELL AVE","To_ST":"BRICKELL BAY DR","Shape_Leng":723.302873952,"Shape__Length":244.69133995770329}},{"type":"Feature","id":9551,"geometry":{"type":"LineString","coordinates":[[-80.1928593238404,25.7579916815266],[-80.1907449731748,25.7567542908791]]},"properties":{"FID":9551,"St_SegID":10082,"L_Add_From":101,"L_Add_To":299,"R_Add_From":100,"R_Add_To":298,"Prefix_Dir":"SE","St_BName":"15","MD_St_BNam":"15TH","St_Type1":" ","St_Type2":"RD","St_Name":"15TH","St_Type":"RD","ARPS_St_Ty":"RD","St_Label":"SE 15TH RD","Suffix_Dir":" ","Ramp":" ","L_Zip":"33129","R_Zip":"33129","Shield_Typ":" ","Shield_Num":" ","In_Miami":1,"Jurisd_Cod":"M","Rd_Class":4,"Rd_Status":2,"One_Way":" ","Speed_Limi":30,"F_ZLev":0,"T_ZLev":0,"ZLevel":0,"FT_Cost":828.61840731,"TF_Cost":828.61840731,"Alias01":" ","Alias02":" ","Alias03":" ","STC_ID":0,"MD_StreetI":0,"MD_Stree_1":908508,"MD_RdClass":"5","Date_In":1196380800000,"Date_Mod":1196380800000,"Edited_By":"SYSTEM","From_ST":"BRICKELL AVE","To_ST":"BRICKELL BAY DR","Shape_Leng":828.618582405,"Shape__Length":280.69456985604887}},{"type":"Feature","id":11838,"geometry":{"type":"LineString","coordinates":[[-80.1926991714753,25.7585203559395],[-80.1927892518521,25.7581843377765],[-80.1928072057637,25.7581185756726],[-80.1928306079018,25.7580542337334],[-80.1928593238404,25.7579916815266]]},"properties":{"FID":11838,"St_SegID":10807,"L_Add_From":1443,"L_Add_To":1499,"R_Add_From":1460,"R_Add_To":1498,"Prefix_Dir":" ","St_BName":"BRICKELL","MD_St_BNam":"BRICKELL","St_Type1":" ","St_Type2":"AVE","St_Name":"BRICKELL","St_Type":"AVE","ARPS_St_Ty":"AV","St_Label":"BRICKELL AVE","Suffix_Dir":" ","Ramp":" ","L_Zip":"33131","R_Zip":"33131","Shield_Typ":"US","Shield_Num":"1","In_Miami":1,"Jurisd_Cod":"M","Rd_Class":2,"Rd_Status":2,"One_Way":" ","Speed_Limi":40,"F_ZLev":0,"T_ZLev":0,"ZLevel":0,"FT_Cost":199.56583605,"TF_Cost":199.56583605,"Alias01":"US HWY 1","Alias02":" ","Alias03":" ","STC_ID":0,"MD_StreetI":0,"MD_Stree_1":908509,"MD_RdClass":"2","Date_In":1196380800000,"Date_Mod":1513209600000,"Edited_By":"Ykebede","From_ST":"SE 14TH LN","To_ST":"SE 15TH RD","Shape_Leng":199.565794966,"Shape__Length":67.830822736242482}},{"type":"Feature","id":11520,"geometry":{"type":"LineString","coordinates":[[-80.1940952523615,25.7587146637269],[-80.1950951911317,25.7592838216477]]},"properties":{"FID":11520,"St_SegID":11675,"L_Add_From":2,"L_Add_To":98,"R_Add_From":1,"R_Add_To":99,"Prefix_Dir":"SW","St_BName":"15","MD_St_BNam":"15TH","St_Type1":" ","St_Type2":"RD","St_Name":"15TH","St_Type":"RD","ARPS_St_Ty":"RD","St_Label":"SW 15TH RD","Suffix_Dir":" ","Ramp":" ","L_Zip":"33129","R_Zip":"33129","Shield_Typ":" ","Shield_Num":" ","In_Miami":1,"Jurisd_Cod":"M","Rd_Class":3,"Rd_Status":2,"One_Way":" ","Speed_Limi":35,"F_ZLev":0,"T_ZLev":0,"ZLevel":0,"FT_Cost":388.74043982,"TF_Cost":388.74043982,"Alias01":"BROADWAY RD","Alias02":" ","Alias03":" ","STC_ID":0,"MD_StreetI":0,"MD_Stree_1":908513,"MD_RdClass":"4","Date_In":1196380800000,"Date_Mod":1233532800000,"Edited_By":"ykebede","From_ST":"SE 15TH RD & S MIAMI AVE","To_ST":"SW 1ST AVE","Shape_Leng":388.740425616,"Shape__Length":131.67948073630112}},{"type":"Feature","id":11839,"geometry":{"type":"LineString","coordinates":[[-80.1924518409372,25.7594409780147],[-80.1926991714753,25.7585203559395]]},"properties":{"FID":11839,"St_SegID":10808,"L_Add_From":1433,"L_Add_To":1441,"R_Add_From":1430,"R_Add_To":1458,"Prefix_Dir":" ","St_BName":"BRICKELL","MD_St_BNam":"BRICKELL","St_Type1":" ","St_Type2":"AVE","St_Name":"BRICKELL","St_Type":"AVE","ARPS_St_Ty":"AV","St_Label":"BRICKELL AVE","Suffix_Dir":" ","Ramp":" ","L_Zip":"33131","R_Zip":"33131","Shield_Typ":"US","Shield_Num":"1","In_Miami":1,"Jurisd_Cod":"M","Rd_Class":2,"Rd_Status":2,"One_Way":" ","Speed_Limi":40,"F_ZLev":0,"T_ZLev":0,"ZLevel":0,"FT_Cost":344.38142098,"TF_Cost":344.38142098,"Alias01":"US HWY 1","Alias02":" ","Alias03":" ","STC_ID":0,"MD_StreetI":0,"MD_Stree_1":904451,"MD_RdClass":"2","Date_In":1196380800000,"Date_Mod":1513209600000,"Edited_By":"Ykebede","From_ST":"SE 14TH TER","To_ST":"SE 14TH LN","Shape_Leng":344.381342409,"Shape__Length":117.07405754229814}},{"type":"Feature","id":9549,"geometry":{"type":"LineString","coordinates":[[-80.1928593238404,25.7579916815266],[-80.2030036014697,25.7509692878159]]},"properties":{"FID":9549,"St_SegID":10080,"L_Add_From":1501,"L_Add_To":2499,"R_Add_From":1500,"R_Add_To":2498,"Prefix_Dir":" ","St_BName":"BRICKELL","MD_St_BNam":"BRICKELL","St_Type1":" ","St_Type2":"AVE","St_Name":"BRICKELL","St_Type":"AVE","ARPS_St_Ty":"AV","St_Label":"BRICKELL AVE","Suffix_Dir":" ","Ramp":" ","L_Zip":"33129","R_Zip":"33129","Shield_Typ":"US","Shield_Num":"1","In_Miami":1,"Jurisd_Cod":"M","Rd_Class":2,"Rd_Status":2,"One_Way":" ","Speed_Limi":45,"F_ZLev":0,"T_ZLev":0,"ZLevel":0,"FT_Cost":4202.88563313,"TF_Cost":4202.88563313,"Alias01":"US HWY 1","Alias02":" ","Alias03":" ","STC_ID":0,"MD_StreetI":0,"MD_Stree_1":904182,"MD_RdClass":"2","Date_In":1196380800000,"Date_Mod":1513209600000,"Edited_By":"Ykebede","From_ST":"SE 15TH RD","To_ST":"SE 25TH RD","Shape_Leng":4202.88584615,"Shape__Length":1424.2722929601525}},{"type":"Feature","id":11850,"geometry":{"type":"LineString","coordinates":[[-80.1940952523615,25.7587146637269],[-80.1928593238404,25.7579916815266]]},"properties":{"FID":11850,"St_SegID":10819,"L_Add_From":1,"L_Add_To":99,"R_Add_From":2,"R_Add_To":98,"Prefix_Dir":"SE","St_BName":"15","MD_St_BNam":"15TH","St_Type1":" ","St_Type2":"RD","St_Name":"15TH","St_Type":"RD","ARPS_St_Ty":"RD","St_Label":"SE 15TH RD","Suffix_Dir":" ","Ramp":" ","L_Zip":"33129","R_Zip":"33129","Shield_Typ":" ","Shield_Num":" ","In_Miami":1,"Jurisd_Cod":"M","Rd_Class":3,"Rd_Status":2,"One_Way":" ","Speed_Limi":35,"F_ZLev":0,"T_ZLev":0,"ZLevel":0,"FT_Cost":484.29589509,"TF_Cost":484.29589509,"Alias01":" ","Alias02":" ","Alias03":" ","STC_ID":0,"MD_StreetI":0,"MD_Stree_1":908511,"MD_RdClass":"4","Date_In":1196380800000,"Date_Mod":1196380800000,"Edited_By":"SYSTEM","From_ST":"SW 15TH RD & S MIAMI AVE","To_ST":"BRICKELL AVE","Shape_Leng":484.295869348,"Shape__Length":164.05647358393821}},{"type":"Feature","id":9552,"geometry":{"type":"LineString","coordinates":[[-80.1926991714753,25.7585203559395],[-80.1910580323014,25.758148097543],[-80.1909973955174,25.7581616734059],[-80.1909387515303,25.758181147232],[-80.1908827976384,25.7582062874708],[-80.1908301991546,25.7582367951957],[-80.1907815814963,25.7582723076589],[-80.190737522749,25.7583124026039],[-80.1906985467924,25.7583566032866],[-80.1906651170716,25.7584043841435],[-80.1906376310861,25.7584551770409],[-80.1906164156634,25.7585083780299],[-80.1906017230726,25.7585633545279]]},"properties":{"FID":9552,"St_SegID":10083,"L_Add_From":101,"L_Add_To":199,"R_Add_From":100,"R_Add_To":198,"Prefix_Dir":"SE","St_BName":"14","MD_St_BNam":"14TH","St_Type1":" ","St_Type2":"LN","St_Name":"14TH","St_Type":"LN","ARPS_St_Ty":"LN","St_Label":"SE 14TH LN","Suffix_Dir":" ","Ramp":" ","L_Zip":"33131","R_Zip":"33131","Shield_Typ":" ","Shield_Num":" ","In_Miami":1,"Jurisd_Cod":"M","Rd_Class":4,"Rd_Status":2,"One_Way":" ","Speed_Limi":30,"F_ZLev":0,"T_ZLev":0,"ZLevel":0,"FT_Cost":783.12742788,"TF_Cost":783.12742788,"Alias01":" ","Alias02":" ","Alias03":" ","STC_ID":0,"MD_StreetI":0,"MD_Stree_1":904450,"MD_RdClass":"5","Date_In":1196380800000,"Date_Mod":1196380800000,"Edited_By":"SYSTEM","From_ST":"BRICKELL AVE","To_ST":"SE 14TH TER","Shape_Leng":783.127585124,"Shape__Length":265.09225164167935}},{"type":"Feature","id":5261,"geometry":{"type":"LineString","coordinates":[[-80.1899105939002,25.7606551680705],[-80.1900834919255,25.7599134538953]]},"properties":{"FID":5261,"St_SegID":4487,"L_Add_From":1301,"L_Add_To":1399,"R_Add_From":1300,"R_Add_To":1398,"Prefix_Dir":" ","St_BName":"BRICKELL BAY","MD_St_BNam":"BRICKELL BAY","St_Type1":" ","St_Type2":"DR","St_Name":"BRICKELL BAY","St_Type":"DR","ARPS_St_Ty":"DR","St_Label":"BRICKELL BAY DR","Suffix_Dir":" ","Ramp":" ","L_Zip":"33131","R_Zip":"33131","Shield_Typ":" ","Shield_Num":" ","In_Miami":1,"Jurisd_Cod":"M","Rd_Class":4,"Rd_Status":2,"One_Way":" ","Speed_Limi":30,"F_ZLev":0,"T_ZLev":0,"ZLevel":0,"FT_Cost":275.53379174,"TF_Cost":275.53379174,"Alias01":"S BAYSHORE DR","Alias02":" ","Alias03":" ","STC_ID":0,"MD_StreetI":0,"MD_Stree_1":907775,"MD_RdClass":"5","Date_In":1196380800000,"Date_Mod":1196380800000,"Edited_By":"SYSTEM","From_ST":"SE 13TH ST","To_ST":"SE 14TH ST","Shape_Leng":275.534012048,"Shape__Length":93.676766501342328}}]}