{"type":"FeatureCollection","name":"city-shoreline","features":[{"type":"Feature","id":43,"geometry":{"type":"LineString","coordinates":[[-80.1974566562267,25.7685574105249],[-80.1975528774419,25.768623970501]]},"properties":{"FID":43,"FID_1":189,"EditBy":" ","EditDate":null,"ModifyBy":" ","ModifyDate":null,"SHAPE_Leng":13.506492859868807,"Shape__Length":13.506488864326563}},{"type":"Feature","id":44,"geometry":{"type":"LineString","coordinates":[[-80.188222559107,25.7655645626832],[-80.188199729326,25.7657098258612]]},"properties":{"FID":44,"FID_1":190,"EditBy":" ","EditDate":null,"ModifyBy":" ","ModifyDate":null,"SHAPE_Leng":18.134758548794228,"Shape__Length":18.134753175398288}},{"type":"Feature","id":141,"geometry":{"type":"LineString","coordinates":[[-80.1936425597495,25.7698284878878],[-80.1935202757181,25.7698821448011],[-80.193412467135,25.769929524045]]},"properties":{"FID":141,"FID_1":601,"EditBy":" ","EditDate":null,"ModifyBy":" ","ModifyDate":null,"SHAPE_Leng":28.49652504299264,"Shape__Length":28.49651662410288}},{"type":"Feature","id":142,"geometry":{"type":"LineString","coordinates":[[-80.1933810036613,25.7694707437521],[-80.1933888369684,25.7694645162387],[-80.1934392908325,25.7694168221156],[-80.1936202150746,25.7692284108879]]},"properties":{"FID":142,"FID_1":602,"EditBy":" ","EditDate":null,"ModifyBy":" ","ModifyDate":null,"SHAPE_Leng":40.09643085734259,"Shape__Length":40.096418992240324}},{"type":"Feature","id":143,"geometry":{"type":"LineString","coordinates":[[-80.1975588925518,25.768970840429],[-80.1975463601589,25.7689712845595],[-80.1975347727935,25.768971739207],[-80.1974842470652,25.7689735222013],[-80.197473615507,25.7689735480885]]},"properties":{"FID":143,"FID_1":603,"EditBy":" ","EditDate":null,"ModifyBy":" ","ModifyDate":null,"SHAPE_Leng":9.499624446225349,"Shape__Length":9.499621640025447}},{"type":"Feature","id":144,"geometry":{"type":"LineString","coordinates":[[-80.1990940437139,25.770591292938],[-80.1989754508633,25.7704354535759],[-80.1989102736189,25.7703559057618],[-80.1988396022798,25.7702754680243],[-80.1986811008868,25.770094817022],[-80.1986765823624,25.7700894616151],[-80.1986070941024,25.7700866706539],[-80.1984505824732,25.7700902827195],[-80.1983128411363,25.7700991531151],[-80.1982655358673,25.7701022425852],[-80.1982662356551,25.7700818718147],[-80.1982676298409,25.7700438823935],[-80.1982649887954,25.7700136825746],[-80.1982595270414,25.7699504628276],[-80.1982693950319,25.7699511205243],[-80.1983734154193,25.769958311503],[-80.1984620252132,25.7699412639782],[-80.1984793348453,25.7699380013828],[-80.1984806589617,25.7699377522185],[-80.198386516448,25.7698463525794],[-80.1983342237351,25.7697993842593],[-80.1983112915495,25.7697930604945],[-80.1983037043809,25.7697910461445],[-80.1982636817526,25.7697553136729],[-80.1981879888322,25.7696879259396],[-80.1980317080732,25.769544254841],[-80.1980208258849,25.7695527935988],[-80.1979788233688,25.7695854034776],[-80.1979698527949,25.769592400322],[-80.1979289605961,25.7696297524132],[-80.1979226589161,25.7696354759252],[-80.1978820622645,25.7696005151709],[-80.197937170299,25.7695386599502],[-80.1979824094441,25.7695046901668],[-80.197984313872,25.7695032388606],[-80.1979820501182,25.7695011638323],[-80.1977647602957,25.7693085800169],[-80.1976243105418,25.7691841654217],[-80.1976037292468,25.7691659140213],[-80.197603575635,25.7691615236859],[-80.1976029710695,25.7691376239817],[-80.1975866127566,25.7689726274695],[-80.1975790184014,25.76897155476],[-80.1975704853071,25.7689703865906],[-80.1975588925518,25.768970840429]]},"properties":{"FID":144,"FID_1":604,"EditBy":" ","EditDate":null,"ModifyBy":" ","ModifyDate":null,"SHAPE_Leng":363.2547415035656,"Shape__Length":363.2546340885871}},{"type":"Feature","id":145,"geometry":{"type":"LineString","coordinates":[[-80.197473615507,25.7689735480885],[-80.1973632754732,25.7689734582896],[-80.1973599696719,25.7690693897008],[-80.1972884413393,25.7690315075486],[-80.1972863608417,25.7690303830649],[-80.1972211584437,25.7689831636374],[-80.1972024393556,25.7689712837445],[-80.1971878417366,25.7689683633211],[-80.1971764591871,25.7689656354352],[-80.1971231855135,25.7689531310061],[-80.196968134545,25.7689374060178],[-80.1966559790598,25.7689011992209],[-80.196500570562,25.7688831475932],[-80.19650058763,25.7688806543104],[-80.1965006253593,25.7688749857726],[-80.1963850553358,25.7688629942276],[-80.1963783170751,25.7688484252657],[-80.1963783530078,25.7688431854871],[-80.1962030665948,25.7688433327188],[-80.1959669723398,25.7688493394085],[-80.1958903254064,25.7688950833036],[-80.1958889428995,25.7689026408132],[-80.1958812632035,25.7689430065789],[-80.195783602886,25.7689507274981],[-80.1956954027239,25.7689637326844],[-80.1956469287471,25.7689708630467],[-80.1956357069958,25.7689725190316],[-80.1954841801156,25.769026106759],[-80.1953841545344,25.7690467875487],[-80.1951772141935,25.7691219928194],[-80.1951743773147,25.7691210301326],[-80.1951319409135,25.7691056611199],[-80.1951113757876,25.7691133715132],[-80.1950162406333,25.7691410491588],[-80.1948617304491,25.7691858488604],[-80.1946077642154,25.7692516763513],[-80.1945472653935,25.769267332531],[-80.1945266903861,25.7692768485558],[-80.1944469245033,25.7693061546387],[-80.1942217690282,25.7694079937473],[-80.1942089599541,25.7694207392028],[-80.1942057071553,25.7694238149387],[-80.194118692768,25.7694859226199],[-80.193853986276,25.7697349128328],[-80.1937742886643,25.7698097018562],[-80.1937656917893,25.7698179962844],[-80.1936897194915,25.769818863505],[-80.193663699797,25.7698192315885],[-80.1936547525794,25.7698231405589],[-80.1936425597495,25.7698284878878]]},"properties":{"FID":145,"FID_1":605,"EditBy":" ","EditDate":null,"ModifyBy":" ","ModifyDate":null,"SHAPE_Leng":484.6168926865188,"Shape__Length":484.61674947853305}},{"type":"Feature","id":146,"geometry":{"type":"LineString","coordinates":[[-80.1975528774419,25.768623970501],[-80.1975942691024,25.7686525745495],[-80.1976105807064,25.7686564455365],[-80.1976276424035,25.7686604079386],[-80.1976281140192,25.7686470839778],[-80.1976302843497,25.7685778834921],[-80.1977183883918,25.7685800928295],[-80.1977192390958,25.7685946294649],[-80.1977246846794,25.768688974766],[-80.1977436624825,25.7686906234745],[-80.197880126415,25.7687021264114],[-80.1978799638225,25.768585108534],[-80.1978889299049,25.7685787960309],[-80.1978988113701,25.7685779037215],[-80.1979214264507,25.7685759637778],[-80.1979314291883,25.7685842704273],[-80.19795315314,25.768602280031],[-80.1979567302285,25.7686909381728],[-80.19802278962,25.7686949167543],[-80.1980243715517,25.7687428991664],[-80.1980278291639,25.7688497026779],[-80.1980474510585,25.7688685576276],[-80.1981693443192,25.7689851221982],[-80.1982735120283,25.769084657611],[-80.1983204346144,25.7691101955123],[-80.1984685892172,25.7691906235241],[-80.1986032385513,25.7693028767283],[-80.1987430801458,25.7694337339027],[-80.1987606305259,25.7694501682967],[-80.1987713923396,25.7694599383265],[-80.1989661946427,25.7696358933757],[-80.1989029182297,25.7696977881855],[-80.1989002457425,25.7697006098956],[-80.1988973720326,25.7697036063445],[-80.1990976576498,25.7699114006781],[-80.199160084254,25.7699760579948],[-80.1992982864238,25.7700964980805],[-80.19930753817,25.7701046290763]]},"properties":{"FID":146,"FID_1":606,"EditBy":" ","EditDate":null,"ModifyBy":" ","ModifyDate":null,"SHAPE_Leng":344.32944768166817,"Shape__Length":344.32934586382163}},{"type":"Feature","id":147,"geometry":{"type":"LineString","coordinates":[[-80.1936202150746,25.7692284108879],[-80.1936835202337,25.7691624757863],[-80.1937686517528,25.7690980340268],[-80.1938038127017,25.7690664999585],[-80.1941791835202,25.7687683456574],[-80.1943937873886,25.7685978386458],[-80.1944514430441,25.7685519902769],[-80.1944757748048,25.7685491944273],[-80.1945666196062,25.7685388645071],[-80.1950680401854,25.7685275435873],[-80.195067887472,25.7685220376385],[-80.1950675739602,25.7685126631252],[-80.1951750762169,25.7685104206217],[-80.1951744177517,25.7685230577699],[-80.1951744051753,25.7685249459399],[-80.1951903556567,25.7685256368129],[-80.195253186504,25.7685290806611],[-80.1953080861282,25.7685269724484],[-80.1953297984023,25.7685179838215],[-80.1953796971072,25.7684971104005],[-80.1954878039306,25.7684605612761],[-80.1955907696965,25.7684553692122],[-80.195606914214,25.7684545990588],[-80.1956128080588,25.7684535190639],[-80.1956299227567,25.7684504303594],[-80.1956749867298,25.7684423372736],[-80.1957466641837,25.7684294946358],[-80.1958558301196,25.768434224774],[-80.1959002544922,25.7684361048562],[-80.1960073821515,25.7684325687841],[-80.1960801654312,25.7684259165002],[-80.1961630502633,25.7684129670747],[-80.1961961289173,25.7684077288954],[-80.1962151192968,25.7684079238612],[-80.1964528592649,25.7684101833614],[-80.1965273214963,25.7683519517767],[-80.196783326908,25.7681519209971],[-80.1968058827003,25.7681299497155],[-80.1968174197599,25.7681368932528],[-80.1968122400753,25.7681441749461],[-80.1967710307709,25.7682012942766],[-80.1967633151429,25.7682182765248],[-80.1967780475089,25.768230819053],[-80.1967976280808,25.7682556889149],[-80.1969082474915,25.7682141741562],[-80.1967438729083,25.7683420578849],[-80.1967163826716,25.7683634903426],[-80.1967014939982,25.7683751025215],[-80.1967012846907,25.7683780229593],[-80.196700675633,25.7683843807764],[-80.1967046875074,25.7684086462938],[-80.1967105328431,25.7684148681998],[-80.1967201951193,25.7684183613984],[-80.1967846950358,25.768427918751],[-80.196859636966,25.7684389929501],[-80.1968490125925,25.7685215579422],[-80.1970734781589,25.7685503132986],[-80.1970953440467,25.7684617052092],[-80.1971552984892,25.7684698597784],[-80.1973731066429,25.7684995187832],[-80.1974224510862,25.7685336635965],[-80.1974373810816,25.7685439781483],[-80.1974566562267,25.7685574105249]]},"properties":{"FID":147,"FID_1":607,"EditBy":" ","EditDate":null,"ModifyBy":" ","ModifyDate":null,"SHAPE_Leng":581.0617775980912,"Shape__Length":581.061605858374}},{"type":"Feature","id":167,"geometry":{"type":"LineString","coordinates":[[-80.193412467135,25.769929524045],[-80.1933766576031,25.76994523191],[-80.1933766486199,25.769946518989],[-80.1933726807613,25.7699996370741],[-80.1933724346228,25.7700088375405],[-80.193367130069,25.7701749109731],[-80.1933659613605,25.7702074082344],[-80.1932891554255,25.7702479094625],[-80.1932830558664,25.7702512254418],[-80.1927409631692,25.7706021872302],[-80.1926756053616,25.7706061236788],[-80.1925487776534,25.7706293225169],[-80.1925069512077,25.7706370036878],[-80.1924489568882,25.7706475995772],[-80.1924358855064,25.770642542705],[-80.1923909428062,25.7706330017104],[-80.1923569442777,25.7706338446568],[-80.1922641680989,25.7706482896253],[-80.1920104390206,25.7707065492032],[-80.1919927502994,25.7707106652405],[-80.1919081101608,25.7706737422412],[-80.1917212184179,25.7705922279776],[-80.1917024714819,25.770584043623],[-80.1916851259176,25.7705659760743],[-80.1916450422037,25.7705397039409],[-80.1916212233813,25.7705240988927],[-80.1915033276206,25.7704910257286],[-80.1913003434613,25.7704586903356],[-80.1912515865156,25.7704509420069],[-80.1912393703301,25.7704317815175],[-80.1912373212736,25.7704260984923],[-80.1912233282213,25.7703890467793],[-80.1911296510333,25.7703693572108],[-80.1906671239035,25.7702721235872],[-80.1905082101808,25.7702386547643],[-80.1902444756718,25.7702031432732],[-80.1902306236542,25.7702016887393],[-80.1902125935735,25.7701997819894],[-80.1901816681808,25.7701948796117],[-80.1901838304259,25.7701568044754],[-80.1901830075697,25.7701386624364],[-80.1902114850541,25.770138902702],[-80.1902189563421,25.7700462630623],[-80.1901655479208,25.7700527583147],[-80.1901442794144,25.7700524654657],[-80.1901357265572,25.7700528489192],[-80.1901269877486,25.770053228328],[-80.1900434031293,25.7700571526598],[-80.1899923177508,25.770057899342],[-80.1898732272304,25.7700597268123],[-80.1898506265229,25.7700600317952],[-80.1898504441649,25.7700598562478]]},"properties":{"FID":167,"FID_1":628,"EditBy":" ","EditDate":null,"ModifyBy":" ","ModifyDate":null,"SHAPE_Leng":486.48537989213065,"Shape__Length":486.4852361335676}},{"type":"Feature","id":168,"geometry":{"type":"LineString","coordinates":[[-80.1898334480517,25.7697378614802],[-80.1899129857617,25.7697420034401],[-80.18997814055,25.769739525547],[-80.1901107300503,25.769734595648],[-80.1901156725795,25.769734357809],[-80.190227177728,25.7697301697407],[-80.1902261725151,25.7696541583017],[-80.1906152399343,25.7697457352598],[-80.1906268039435,25.7697486394845],[-80.1911362276082,25.7698751940432],[-80.19133302058,25.7699237511628],[-80.1913374573581,25.7699131964656],[-80.1913431760322,25.7698829618277],[-80.191387018299,25.7697742767596],[-80.1914112269913,25.7697331378956],[-80.1914324451919,25.7697408231706],[-80.1914538520387,25.7697485909606],[-80.1914605858077,25.7697635885693],[-80.1914648087849,25.7698411669239],[-80.1914678459868,25.7698970711668],[-80.1914587200033,25.7699544509532],[-80.1918448562203,25.7700592527884],[-80.1918469367179,25.7700598676087],[-80.1918478871352,25.7700597009601],[-80.1922543342584,25.7699967846103],[-80.1922672690964,25.7699935907792],[-80.1922689435555,25.7699989308199],[-80.1922854941103,25.7700512107847],[-80.1922893047626,25.7700500288735],[-80.1924133261348,25.7700198476648],[-80.1924051433844,25.7699659861408],[-80.1924040555251,25.7699584125193],[-80.1927379637112,25.7698668907485],[-80.1927408167597,25.7698654475364],[-80.1927422971833,25.7698435307731],[-80.192791018197,25.769827982263],[-80.1928332884106,25.7698112761065],[-80.1929635863104,25.7697519021267],[-80.1929693013906,25.7697492689094],[-80.1930228822889,25.769717237494],[-80.1931373527768,25.7696398038673],[-80.1931761213588,25.7696075159763],[-80.1931892978437,25.7695965899306],[-80.1932976319415,25.7695279773182],[-80.1933018261744,25.7695252454006],[-80.1933474057808,25.7694971277598],[-80.1933533229819,25.7694926047643],[-80.1933628693757,25.7694851751109],[-80.1933810036613,25.7694707437521]]},"properties":{"FID":168,"FID_1":629,"EditBy":" ","EditDate":null,"ModifyBy":" ","ModifyDate":null,"SHAPE_Leng":486.61554051364095,"Shape__Length":486.6153967000935}},{"type":"Feature","id":214,"geometry":{"type":"LineString","coordinates":[[-80.1862859679764,25.7664821354779],[-80.1862700812761,25.7664443034678],[-80.186182640195,25.766234803357],[-80.186120077946,25.766135230768],[-80.1861021897995,25.7661126030126],[-80.1860336492655,25.7659434513046],[-80.1859702219399,25.765804758325],[-80.1859125653891,25.7657103767523],[-80.1858949296693,25.765678634678],[-80.1858465365429,25.7655909224386],[-80.1858228416889,25.7655288038183],[-80.1858151754689,25.7655114822119],[-80.185799286972,25.7654748496474],[-80.1856846422176,25.7652438735481],[-80.1856210055846,25.7651081035055],[-80.1853950003158,25.7646386037847],[-80.1852734520109,25.7643896198634],[-80.1852261701006,25.7642782737724],[-80.1851879737477,25.7641988763538],[-80.1851684336001,25.7641676419363],[-80.1851523717284,25.7641281765974],[-80.1851319602154,25.7640868788268],[-80.1850998598277,25.7640314968976],[-80.1850740584244,25.7639999703814],[-80.1850246133701,25.7639549883084],[-80.1849621005273,25.7639053754105],[-80.1849200548932,25.7638885454485],[-80.1848526516231,25.7638598820023],[-80.1848359573368,25.763857554462],[-80.1847422316396,25.7638445600392],[-80.1847407116906,25.7638442954908],[-80.1847245770545,25.7638437688208],[-80.1847221066882,25.7638438448683],[-80.1846915352315,25.763843758303],[-80.1846697007867,25.763843725942],[-80.1846539200867,25.7638460381106],[-80.1846510670382,25.7638465429368],[-80.1845847076091,25.7638586377305],[-80.1845400272166,25.7638667295108],[-80.1844948725134,25.7638886570852],[-80.1844514317952,25.7639102481049],[-80.184435607976,25.7639188479442],[-80.1843763263705,25.7639515289459],[-80.1843579782859,25.763969398483],[-80.1843068902106,25.7640537075837],[-80.1842707384196,25.7641195427788],[-80.1842520885002,25.7641802188546],[-80.1841244819445,25.7645967560419],[-80.1839825805012,25.7650474294926],[-80.1839463819964,25.7651759322901],[-80.1838563717232,25.7654816840899],[-80.183820372645,25.7655809530397],[-80.1836692877264,25.7660694055459],[-80.1835654631645,25.7663948477006],[-80.1835467512611,25.766464990324],[-80.1835313559371,25.7665227625156],[-80.1833785471519,25.767013613861],[-80.1832646982916,25.7673882692911],[-80.1832224280756,25.7675154444263],[-80.1832216492365,25.7675174207923],[-80.1832065422719,25.7675612697357],[-80.1831265293482,25.7677917551195],[-80.1831108366821,25.7678371499399],[-80.1830839932301,25.7679591778104],[-80.1830027226644,25.7682351387978],[-80.1829732642175,25.7683492325362],[-80.1829137858769,25.7685764836896],[-80.1828794226307,25.7686584013987],[-80.18286969837,25.768692219336],[-80.1828015629678,25.7689073836431],[-80.1827714855823,25.7690013581816],[-80.1827546682253,25.7690722006511],[-80.1827399511289,25.7691412406703],[-80.1827413830421,25.7691825140306],[-80.1827537977541,25.7692552396969],[-80.1827693026705,25.7692918646228],[-80.182804677416,25.7693680680224],[-80.1828325170959,25.7694068326619],[-80.1828747136462,25.7694569335008],[-80.1829010055298,25.7694723874104],[-80.1829161133916,25.7694847672015],[-80.1830330317848,25.7695487872773],[-80.1830975119383,25.7695625568845],[-80.1831143921758,25.7695647168546],[-80.1831762528427,25.7695726286549],[-80.1832734792738,25.7695734392519],[-80.1835281596666,25.7695710818963],[-80.1836586542962,25.7695672578624],[-80.1841141691814,25.7695492662111],[-80.1841774231352,25.7695466904277],[-80.1843523762735,25.7695398505252],[-80.1849957387106,25.7695184336614],[-80.1851807332141,25.7695144858531],[-80.1853038185414,25.7695108753874],[-80.1856582550206,25.7695006491047],[-80.1860320160522,25.7694963752811],[-80.186151518001,25.7694888768667],[-80.186172414605,25.7694875315367],[-80.1862047009451,25.7694876302326],[-80.1865573506755,25.7694880517164],[-80.1866749886207,25.7694764145698],[-80.1867078615605,25.7694731560068],[-80.1870210608886,25.7694672561351],[-80.1871502709279,25.7694564578971],[-80.1872338869884,25.7694478989091],[-80.1872681244689,25.7694397476448],[-80.1873045448552,25.7694176803334],[-80.1873324105874,25.7693980666498],[-80.187359889146,25.7693786147588],[-80.1873719409406,25.769364752908],[-80.1874048686784,25.7693268465826],[-80.1874054400068,25.7693260804794],[-80.1874069788205,25.7693235904418],[-80.18743656303,25.7692736359732],[-80.1874425754528,25.7692551791063],[-80.1874472224368,25.7692417945389],[-80.1874514085853,25.7692131857794],[-80.1874519978807,25.7691829307385],[-80.1874525215988,25.7691607444587],[-80.1874525566332,25.7691556794336],[-80.1874507168842,25.7691474990252],[-80.1874398248156,25.7691008346059],[-80.1873070152359,25.7687488749347],[-80.1871501451881,25.7683312650356],[-80.1871131480865,25.7682147346109],[-80.1870879234021,25.7681544917867],[-80.1870776080511,25.768135868094],[-80.1870023373408,25.7679779342739],[-80.1867287689888,25.7674084359101],[-80.1867067099663,25.7673573278202],[-80.186577911362,25.7670574064176],[-80.1865320200423,25.7669919797749],[-80.1865162240715,25.7669695390608],[-80.1863050221353,25.7665281529193],[-80.1862859679764,25.7664821354779]]},"properties":{"FID":214,"FID_1":1322,"EditBy":" ","EditDate":null,"ModifyBy":" ","ModifyDate":null,"SHAPE_Leng":2025.18183118,"Shape__Length":2025.1812318945072}},{"type":"Feature","id":221,"geometry":{"type":"LineString","coordinates":[[-80.188222559107,25.7655645626832],[-80.1882283074256,25.7655286566219],[-80.1882309385908,25.7655050255849],[-80.188255645852,25.7652794739365],[-80.1882696038734,25.7651535924351],[-80.1882809954062,25.7651533998915],[-80.1882847979737,25.765153331126],[-80.1882842508999,25.7651491186238],[-80.1883788264221,25.7642829895675],[-80.1884384718558,25.7637505199975],[-80.1887339204777,25.7638102909778],[-80.1887674824274,25.7637058396001],[-80.1888258558371,25.7636390139381],[-80.1888679293232,25.7634564613521],[-80.1888764363694,25.7633216948784],[-80.188866517176,25.7632727224609],[-80.1888485293168,25.763236424949],[-80.1888425016232,25.7632291704612],[-80.1885548872068,25.7631614481295],[-80.1886729384005,25.7620541147739],[-80.1887076969114,25.761689415434],[-80.1887097315953,25.7616696491842],[-80.1887107233352,25.761663383237],[-80.1887246023041,25.7615773071306],[-80.1887284830259,25.7615374412691],[-80.1888170299519,25.7608587074701],[-80.188917337603,25.760880244838],[-80.1888975944338,25.7609626735061],[-80.1890067693523,25.7609924266147],[-80.1890701796183,25.7607431858661],[-80.1889431641634,25.7607122199471],[-80.1889268399811,25.7607945775366],[-80.1889264438242,25.7607964658294],[-80.1889173456897,25.7607943534331],[-80.1887933530649,25.7607653761414],[-80.1888380577319,25.7598318225835],[-80.1888468728993,25.7597359225412],[-80.1890194724514,25.7597660295107],[-80.1891121983239,25.7597852022408],[-80.1891281883314,25.7597784985015],[-80.1891501934566,25.7597548007877],[-80.1891647722115,25.759733304479],[-80.1891709130938,25.7596958513787],[-80.1891714404052,25.7596731552456],[-80.1891701342552,25.7596698883224],[-80.1891611376306,25.7596528069565],[-80.1891069602541,25.7595501099758],[-80.1890519654113,25.7594271123125],[-80.1890236172859,25.7593505206611],[-80.1890053473561,25.7593012399765],[-80.1889674806858,25.7591730973178],[-80.1889383573157,25.7590431042257],[-80.1889179817373,25.7589117016261],[-80.1889063521539,25.7587794056891],[-80.1889040273175,25.7586467253052],[-80.1889104323065,25.7585140989798],[-80.1889257602584,25.7583822103633],[-80.1889793474492,25.7581531168933],[-80.1890604158929,25.7579308004502],[-80.1891680160704,25.75771791721],[-80.1893009675958,25.7575171290294],[-80.1894573750244,25.7573307385569],[-80.1896354992182,25.7571610654409],[-80.1898332444082,25.7570102448702],[-80.1900140024604,25.7569006823207],[-80.1900481321433,25.7568799791873],[-80.1902774836481,25.7567719796312],[-80.1905186497914,25.7566875132588],[-80.1905936034004,25.7566662591155],[-80.1907328952298,25.7566232750867],[-80.1907580255927,25.7566129287554],[-80.1907934713071,25.7565943793051],[-80.1908101844587,25.7565658395047],[-80.1908153713298,25.7565570134032],[-80.1908198530238,25.7565398417834],[-80.1908198458384,25.7564858503561],[-80.1908286870558,25.7564412764433],[-80.1908294578101,25.7564400774062],[-80.1908471061076,25.7564136055442],[-80.1908971009323,25.7563778641931],[-80.1913965964285,25.7560837557355],[-80.1914068884238,25.7560776254173],[-80.1915957402868,25.7563147658384],[-80.1916055265304,25.7563268581644],[-80.1916314195627,25.7563163362395],[-80.1916527455614,25.7563077738758],[-80.1916558043241,25.7563052981284],[-80.1917372626323,25.7562776360985],[-80.1918865059958,25.7562227521523],[-80.192113601831,25.7561391519019],[-80.1921262339365,25.7561523761331],[-80.192404210335,25.7560422343089],[-80.1923997205567,25.7560322325901],[-80.1927234894622,25.7558901873866],[-80.1927690169661,25.7558695463757],[-80.1928702849173,25.7558318517643],[-80.1929460811461,25.7557989961957],[-80.1930549596221,25.7557598759781],[-80.1931396150334,25.7557363578863],[-80.1932250483855,25.7557106083698],[-80.1932579518682,25.7557027102107],[-80.1932731962742,25.7556957400563],[-80.1932978172926,25.7556768822061],[-80.1933298574955,25.7556276161792],[-80.1933593078557,25.7555967460175],[-80.1933980360134,25.755570652614],[-80.1934273704906,25.7555563676242],[-80.1934479544812,25.755544615031],[-80.1934692113101,25.7555190305227],[-80.1935505851776,25.7554465691008],[-80.1935767297383,25.7554273673547],[-80.1935792135794,25.7554253163528],[-80.1936069041404,25.7554025142242],[-80.1936356008143,25.7553697499614],[-80.193639115023,25.7553566097871],[-80.1936295731213,25.7553354071848],[-80.1936029470646,25.755312560539],[-80.1935669749383,25.7552973167635],[-80.1935358384415,25.7552965408603],[-80.1934558686418,25.755301082195],[-80.193416721871,25.7552499705109],[-80.1934769458089,25.7552168599223],[-80.1935335028247,25.7551927575702],[-80.193589198356,25.7551842930242],[-80.1937132781146,25.7553402600145],[-80.1937259030336,25.755354511859],[-80.1937383357132,25.7553685946053],[-80.1939422469366,25.75525984528],[-80.1940220227008,25.755228214493],[-80.1940847214972,25.7551662279952],[-80.1941173312312,25.755146546422],[-80.1941752366179,25.7551194407659],[-80.194207382821,25.7551111914286],[-80.1942485957181,25.7550814999568],[-80.1942714488523,25.7550719965485],[-80.1942805523767,25.755073253044],[-80.1943118272133,25.7551093693914],[-80.1943220374617,25.7551167287462],[-80.1943875542716,25.7550865680121],[-80.1944247750567,25.7550584882142],[-80.1944517056431,25.7550347410139],[-80.1944941213842,25.7549970598908],[-80.1945704916369,25.7549341994692],[-80.1947092148341,25.7548339434443],[-80.1947473087812,25.7548166138057],[-80.1947987373165,25.7547930833904],[-80.1949204257669,25.7546555918163],[-80.1949530588577,25.7546036626854],[-80.1949633625317,25.7545686441061],[-80.1948216281893,25.7543552402587],[-80.1947308417809,25.7542454568027],[-80.1946501434496,25.7541607531847],[-80.1949063725407,25.7540088713326],[-80.195467244513,25.7536763157351],[-80.196189965006,25.7532485270887],[-80.1972336822053,25.7526359305465],[-80.1972455435571,25.7526226703241],[-80.1973468788834,25.752519367728],[-80.1976151157539,25.7522455402085],[-80.1976170201817,25.7522440919277],[-80.197648336341,25.7522753869277],[-80.1979287983687,25.7525565374922],[-80.197970478388,25.7525982891292],[-80.1979851694314,25.7526167696225],[-80.1980012187279,25.7526014696745],[-80.198026035579,25.7525815724574],[-80.198123315911,25.7524875363773],[-80.1981903805184,25.7524257385863],[-80.1983885038991,25.7522724175612],[-80.1983909751637,25.7522721667417],[-80.1983676225671,25.7522436704022],[-80.1980956496174,25.7519140808542],[-80.1980459566286,25.7518484654377],[-80.1980275124252,25.7518242839181],[-80.1980269545716,25.7518235144655],[-80.1983669982551,25.7514598929873],[-80.1984057901933,25.7514225343703],[-80.1984233738119,25.7514053474446],[-80.1984258360933,25.7514064818045],[-80.198439780637,25.7514221217294],[-80.1986406780063,25.7516477118421],[-80.198656620403,25.751648489387],[-80.198697244903,25.7516505137547],[-80.198735425088,25.7516487515367],[-80.1987698287567,25.7516433459432],[-80.1988764964797,25.7515933840367],[-80.1988900260024,25.7515855446677],[-80.1989384415893,25.7515576994904],[-80.1990677423612,25.7514177445036],[-80.1990700384544,25.7514149264045],[-80.199116943076,25.7513573192009],[-80.1991279411474,25.7513312459021],[-80.1991296766921,25.7513275588257],[-80.1989028045447,25.7510676896313],[-80.1988815549036,25.7510364469049],[-80.198852789061,25.7509945862992],[-80.1988488373733,25.7509886312937],[-80.1993277264259,25.7504770361553],[-80.1997336444493,25.7500569443753],[-80.2001242641675,25.749653871614],[-80.2006487058746,25.7492272077122],[-80.2012399462876,25.7487489738824],[-80.2016368003107,25.7484055176334],[-80.2017388569833,25.7483345455115],[-80.2017900753135,25.7482851340338],[-80.2022941836589,25.7479158653625],[-80.2026317264192,25.7482075440365],[-80.202774576475,25.7481416118268],[-80.2036749145077,25.7477482833545],[-80.2036773992471,25.7477456318483],[-80.2046861180891,25.747328738616],[-80.2057229371226,25.7469398390686],[-80.2057345694039,25.7469331944799]]},"properties":{"FID":221,"FID_1":1332,"EditBy":" ","EditDate":null,"ModifyBy":" ","ModifyDate":null,"SHAPE_Leng":3948.38068969,"Shape__Length":3948.3795215800337}},{"type":"Feature","id":242,"geometry":{"type":"LineString","coordinates":[[-80.188199729326,25.7657098258612],[-80.1881969634137,25.7657263983011],[-80.1883980916538,25.765778167243],[-80.1884217892038,25.76578431405],[-80.1884086666168,25.7658431309955],[-80.1883886773084,25.7659619329982],[-80.1883468230124,25.7660851601181],[-80.1883308527673,25.7661153374752],[-80.1883289339664,25.7661188509663],[-80.1882904034375,25.7661713365074],[-80.1882886759776,25.766173736003],[-80.1882562306359,25.7661701149159],[-80.1882296917154,25.7661627465379],[-80.1882209771615,25.7661602887938],[-80.1882191535816,25.7661763595905],[-80.1881843339863,25.7664939420342],[-80.1881695477182,25.7666298706718],[-80.188164077877,25.7666797938937],[-80.1881264591311,25.7670455053257],[-80.1881279665036,25.767047576352],[-80.1881455869526,25.7670535265074],[-80.1881651001513,25.7670599968461],[-80.1881946798681,25.7670669509633],[-80.1881861288068,25.7670954453628],[-80.1881737913478,25.7671221219458],[-80.1881616793653,25.7671718362401],[-80.1881495673828,25.767221632222],[-80.188148174096,25.7672307325885],[-80.1881400120046,25.7672866671845],[-80.1881281371768,25.7673577857351],[-80.1881211967928,25.7674564520354],[-80.1881121435731,25.7675024868965],[-80.1880994755336,25.7675507278586],[-80.1881016296927,25.7675688856641],[-80.1881111653049,25.7676462324641],[-80.1881174544078,25.76767128528],[-80.1881175217811,25.767689769899],[-80.1880926186902,25.767776559147],[-80.1880823455584,25.7678358232854],[-80.188071621471,25.7679600888195],[-80.1880707689686,25.7680291246318],[-80.1880847126128,25.7681011625566],[-80.1879474114335,25.768882792299],[-80.1879711979152,25.7689591925435],[-80.1880470462379,25.7693111718145],[-80.1882728475928,25.7696176564179],[-80.1884529597513,25.769745651088],[-80.1884642964867,25.769753710109],[-80.1884919286564,25.7697683954527],[-80.1885055605867,25.7697737120435],[-80.1885542887863,25.7697856751811],[-80.1885656767258,25.7697861670386],[-80.188620354466,25.7697887986383],[-80.1886739344653,25.7697844520115],[-80.188697139739,25.7697794226084],[-80.1890942614552,25.7696636750848],[-80.1892568609653,25.7696587379024],[-80.1892686387735,25.7696581101365],[-80.189832860556,25.7696283260437],[-80.1898294577364,25.7697376673259],[-80.1898319272043,25.7697377708749],[-80.1898334480517,25.7697378614802]]},"properties":{"FID":242,"FID_1":1389,"EditBy":" ","EditDate":null,"ModifyBy":" ","ModifyDate":null,"SHAPE_Leng":728.7840569946246,"Shape__Length":728.783841300955}},{"type":"Feature","id":243,"geometry":{"type":"LineString","coordinates":[[-80.1898504441649,25.7700598562478],[-80.1898334480517,25.7697378614802]]},"properties":{"FID":243,"FID_1":1390,"EditBy":" ","EditDate":null,"ModifyBy":" ","ModifyDate":null,"SHAPE_Leng":39.847742116883765,"Shape__Length":39.84773031035841}},{"type":"Feature","id":244,"geometry":{"type":"LineString","coordinates":[[-80.1898504441649,25.7700598562478],[-80.1898435172551,25.7701845740963],[-80.1897024692209,25.7701763063873],[-80.1891058461148,25.7701671399002],[-80.18906151876,25.7701784105154],[-80.1890575194615,25.7701794217319],[-80.1889810485984,25.7701987731781],[-80.1888279847012,25.7702540640485],[-80.1884169633561,25.7704025775917],[-80.1877147612804,25.7706430870584],[-80.1875040390333,25.770715513316],[-80.187416093094,25.7707458011324],[-80.1874094662235,25.770771294182],[-80.1872737990953,25.7708088894002],[-80.1870839950118,25.770877208424],[-80.1870689572183,25.7708826293215],[-80.1866826790623,25.7710217281239],[-80.1864999240568,25.7710875190033],[-80.1852359220522,25.7715278712951],[-80.1850883890806,25.7715792356455],[-80.1850721717994,25.7715902335064],[-80.1850212319472,25.7716245958489],[-80.1849915803644,25.7716564148016],[-80.1849854556524,25.7716629981437],[-80.1849643425532,25.771722809627],[-80.1849621506636,25.7717662994555],[-80.1849636912734,25.7717913263237],[-80.1849645096379,25.7718104178317],[-80.1849831864961,25.7722447091686],[-80.1849955724523,25.7727677842543],[-80.1849957341489,25.7727719099279],[-80.1849977652384,25.7728079488935],[-80.1850156255311,25.7731126625625],[-80.1850172478871,25.7731525674111],[-80.1850595818782,25.7732667251843],[-80.1851787397677,25.7734772596654],[-80.1852030688322,25.7735296707658],[-80.18521492569,25.7736286983898],[-80.1852125954595,25.7736920545076],[-80.1851937308415,25.7738121413533],[-80.1851802812679,25.7738629691937],[-80.1851311209762,25.7739701628628],[-80.185092099967,25.7740389007217],[-80.1850528373108,25.7741155427566],[-80.185033658284,25.7741706319947],[-80.1850200362322,25.7743012427332],[-80.1850187049275,25.7743854927232],[-80.1850272011878,25.774531871155],[-80.185027848872,25.7745755516736],[-80.185034707506,25.7746282090162],[-80.185051306567,25.7748119481257],[-80.1850498351253,25.7748884634671],[-80.1850547704662,25.7749717172344],[-80.1850511987634,25.7750783072425],[-80.1850495117267,25.7751302322716],[-80.1850540922339,25.7751816711057],[-80.1850676837369,25.7753334110063],[-80.1850607604221,25.7753742995852],[-80.1850462777866,25.775409121927],[-80.1849740379845,25.7755583190474],[-80.1849502200593,25.7755977352845],[-80.1848563910514,25.7757934127717],[-80.1848209965399,25.7758594153757],[-80.1848085342152,25.7758763706421],[-80.184806041391,25.7758796217494],[-80.1847394358211,25.7760109610727],[-80.1846714836769,25.7761445345224],[-80.1846027571852,25.7762798227569],[-80.184460685964,25.7765594870892],[-80.1843655040941,25.7767315980939],[-80.1843597297249,25.7767420543042],[-80.1843172573893,25.7768155850737],[-80.1842427412569,25.7769642481515],[-80.1842175174685,25.7770143166771],[-80.1841474408091,25.777153555522],[-80.1840903573791,25.77725279853],[-80.1840819087261,25.7772661587349],[-80.1840427915968,25.7773476214924],[-80.1839129024263,25.7775960564693],[-80.1837418282054,25.7779228397516],[-80.1836706187708,25.7780591411523],[-80.1833007743776,25.7787631142242],[-80.1836771045821,25.7791369924138],[-80.1836789955351,25.7791388990199],[-80.1836801480733,25.7791370094011],[-80.1837011066619,25.7790989557394],[-80.1838417845963,25.7788299451324],[-80.1838516004849,25.7788110877214],[-80.1839505130574,25.7786219787535],[-80.1841323679573,25.7782741000069],[-80.1843854269018,25.7777897447688],[-80.1843936985868,25.7777741463371],[-80.1845659019825,25.7777821578982],[-80.1846086752528,25.7777483530679],[-80.18474676424,25.7776335718858],[-80.184765680958,25.7776178585668],[-80.1847672071959,25.7775881217615],[-80.1847692014561,25.777547206442],[-80.1847768443235,25.7774009150498],[-80.1847777255709,25.7773838977139],[-80.1847962012166,25.7773477201945],[-80.1848031362089,25.7773341682836],[-80.1848586035681,25.7773324169631],[-80.184896328307,25.7773426045583],[-80.1848945810842,25.7773477501264],[-80.1848920577172,25.777355475354],[-80.1848899251172,25.7773619993285],[-80.185066475458,25.7774286708527]]},"properties":{"FID":244,"FID_1":1391,"EditBy":" ","EditDate":null,"ModifyBy":" ","ModifyDate":null,"SHAPE_Leng":1893.95339684,"Shape__Length":1893.9528363502397}}]}
