{"type":"FeatureCollection","name":"city-boundary","features":[{"type":"Feature","id":1,"geometry":{"type":"Polygon","coordinates":[[[-80.1633831197077,25.7372059113197],[-80.1634939057482,25.7371560885022],[-80.1637517604523,25.7373820807312],[-80.1646845530565,25.7381996005944],[-80.1646881229983,25.7382027288916],[-80.1669258179798,25.7401638230436],[-80.1678362570852,25.7392005753511],[-80.1738083086276,25.7444338956672],[-80.1737982718996,25.7439085206926],[-80.1737989944495,25.7433648021137],[-80.1739081591798,25.7291434278613],[-80.1739140173812,25.7291434971821],[-80.1856639490027,25.7292819146141],[-80.1856649782392,25.7292782862798],[-80.1869031571193,25.7249119214635],[-80.1911642934175,25.7098825987196],[-80.1911691929634,25.7098825518862],[-80.222227670901,25.7095795773722],[-80.2222713563527,25.7095791460782],[-80.2243049187249,25.7096300409444],[-80.2302716120123,25.7097792068541],[-80.2309266006193,25.7097791966395],[-80.2310062202402,25.7097791951134],[-80.2321718295844,25.709779168472],[-80.2322526997087,25.7097760586635],[-80.2376179749712,25.7095696922186],[-80.247623347987,25.7094248977573],[-80.2476238841866,25.70942487525],[-80.2484484527357,25.7093894067063],[-80.2484497820832,25.7094131744195],[-80.2484544789097,25.7094971122087],[-80.2511971914593,25.7093899933596],[-80.2537100271037,25.7092656031241],[-80.2570382197369,25.7091007850201],[-80.260450503477,25.7090055158172],[-80.2610046410855,25.7089900369234],[-80.2610034787207,25.7090423983553],[-80.2610058341756,25.7091730704412],[-80.2610114226466,25.709483015033],[-80.2610144620646,25.709563446331],[-80.2610208850936,25.7097334348263],[-80.2610338243019,25.7102906390609],[-80.261036178312,25.7103920268],[-80.2610383307047,25.7104742733682],[-80.2610562953139,25.7111607829565],[-80.2610782279807,25.7119122657825],[-80.261105052889,25.7126707383076],[-80.2611344440571,25.7133827084567],[-80.2611597301817,25.7141445255359],[-80.2611852020917,25.7149069464606],[-80.2612048429178,25.7153843154692],[-80.261211088086,25.7156331706856],[-80.2612532815196,25.7164851800734],[-80.2612634311375,25.7170855378707],[-80.2612751869944,25.7173335607209],[-80.2613058251733,25.7182125091824],[-80.2613420107156,25.7190539112883],[-80.2613697713082,25.7199379170421],[-80.2614142322552,25.7207919151659],[-80.2614487043491,25.721480609781],[-80.261460767444,25.7217711080633],[-80.2614800659812,25.7222118492445],[-80.2614993850315,25.7226801028424],[-80.2615171654403,25.7229055442659],[-80.2615515618825,25.7236067916634],[-80.2615908170632,25.724351053045],[-80.2616119738358,25.7247737086607],[-80.2616217196951,25.7248544084689],[-80.2612335977214,25.7248727891713],[-80.2585564723637,25.7249995447815],[-80.2585779100404,25.7256403300705],[-80.2585831405583,25.7258904155569],[-80.258587976832,25.7260130084826],[-80.2586925832001,25.7274477789952],[-80.2586443896669,25.7274430791495],[-80.2586446429215,25.7274494857451],[-80.2586086948764,25.7274507353687],[-80.2577725640723,25.7274797923347],[-80.2576823754665,25.7274829264017],[-80.2561950292003,25.7275327319782],[-80.2556724828499,25.7275502263872],[-80.2556913019365,25.7281865661687],[-80.2557226350986,25.7287948554503],[-80.2557437631956,25.7293958694364],[-80.255770184908,25.7299589895083],[-80.2557756080725,25.7300745780329],[-80.2557824483377,25.7301623184929],[-80.2558178016638,25.7306157725738],[-80.2558421481761,25.7309132975381],[-80.2558654360205,25.7312894864748],[-80.255865557711,25.7313198838431],[-80.255910673506,25.7322205392501],[-80.2568979902443,25.7322099181665],[-80.2578711509496,25.7321815693965],[-80.2579178552245,25.7321802086778],[-80.2579712491365,25.7330900515645],[-80.2580303123826,25.7349217881998],[-80.2580535317116,25.7355045919595],[-80.2581042286192,25.7367770728905],[-80.2581654295228,25.7385404987514],[-80.2581684873249,25.7386286106269],[-80.2581637641466,25.7386950902722],[-80.2571904215706,25.7387043992781],[-80.2562474735964,25.7387346489073],[-80.2561774349691,25.738736895458],[-80.2561884755841,25.7390505567363],[-80.2562207574723,25.7398120634013],[-80.2562438195569,25.7405172229429],[-80.2563262415975,25.7420665322691],[-80.2563291493753,25.7421333784335],[-80.256340981914,25.7424053938687],[-80.2543510431806,25.7424975908775],[-80.2543161218282,25.7424992083904],[-80.2543215654632,25.7425516096166],[-80.2543319552806,25.7429858558909],[-80.254368750967,25.7438134170141],[-80.2543850487634,25.7442137317116],[-80.2543991858673,25.7445648556012],[-80.2544150887751,25.7450286199442],[-80.2544317746844,25.7453669453656],[-80.2544480136021,25.745807239467],[-80.254462483597,25.7461354084944],[-80.2544810273346,25.7465715016275],[-80.2545014497894,25.7470716581184],[-80.2545115510598,25.7473393607057],[-80.2545401024844,25.7480582032169],[-80.2545726018327,25.74890517337],[-80.2546158225186,25.7498595852047],[-80.2546315853935,25.7503277390459],[-80.2546736500368,25.7515770468475],[-80.2547060304221,25.7524432751652],[-80.2547381370204,25.7533229155206],[-80.2547291178977,25.7535595127168],[-80.2547108899337,25.7540376878965],[-80.254758361054,25.7552240919713],[-80.2548003974622,25.7560340532089],[-80.2547969840605,25.7565809450712],[-80.2548116233147,25.7567301927584],[-80.2548319334175,25.7572487460181],[-80.2549023282657,25.7580484508189],[-80.254912233769,25.7583477072069],[-80.2549304434145,25.7588377056819],[-80.2549404021232,25.7591284502256],[-80.2549514096466,25.7596162634595],[-80.2549686474348,25.759896899327],[-80.2549777530928,25.7603243455154],[-80.254994508638,25.760651923524],[-80.2550054736754,25.7610248684564],[-80.255020478947,25.7614198445048],[-80.2550462724815,25.7621856152695],[-80.2550768851816,25.7630010198911],[-80.2551404223585,25.7646872116348],[-80.2551700832016,25.7655637419133],[-80.2551823504861,25.7660932604279],[-80.2552210941001,25.7669143803453],[-80.2552519791715,25.7674731408951],[-80.255255110582,25.767671337538],[-80.2552854170606,25.7682012912181],[-80.255311261486,25.7688680145834],[-80.2553198469587,25.7691658881325],[-80.2553340730353,25.769533862137],[-80.2553567870391,25.7698977950205],[-80.2553648039783,25.7700262464836],[-80.2551934375257,25.7700675842407],[-80.2546754988806,25.7700743799262],[-80.2544109464701,25.7700778504755],[-80.2544482727538,25.771033777601],[-80.2544611999606,25.7714021131868],[-80.2542102801455,25.7714134268531],[-80.2541706278955,25.7714152149113],[-80.2541911728262,25.7717830443225],[-80.2541950415553,25.7718523061788],[-80.2545598704671,25.7718354100086],[-80.2546814528637,25.7718352528346],[-80.2548336479652,25.7718342142527],[-80.2548323520478,25.7717949365534],[-80.2548179558417,25.7713586657089],[-80.2554464491583,25.7713427732011],[-80.2554387074024,25.7709954293298],[-80.255405672309,25.7706281083761],[-80.2555256908897,25.7706251478431],[-80.2566628137357,25.7705970970199],[-80.2575629514613,25.7705737283129],[-80.2584564715036,25.7705505216054],[-80.2584559977463,25.770481903553],[-80.258455959446,25.7704763565171],[-80.2584586015156,25.7704763113062],[-80.2584588621751,25.7702832627145],[-80.2584529461649,25.7701460175363],[-80.2583800611342,25.7681446697181],[-80.2585094480644,25.7681411983771],[-80.2588746667512,25.7681313998018],[-80.259363738794,25.7681282179553],[-80.2593598859603,25.7680575273237],[-80.2593466501314,25.7678147131338],[-80.2592650601091,25.7659035829798],[-80.2592082949403,25.7645739224329],[-80.259610381323,25.7645530198768],[-80.2608520277503,25.7645101505835],[-80.2613097900543,25.7644937306247],[-80.2615735829998,25.7644903400497],[-80.2633087346415,25.7644240732107],[-80.2653158145314,25.7643589859932],[-80.2670047420142,25.764304908357],[-80.2673784196016,25.7642816838795],[-80.2675810219396,25.7642851966051],[-80.2692415018147,25.7642247593814],[-80.2694419943193,25.7642316123105],[-80.2698206712529,25.7642291272337],[-80.2706478850196,25.7641968195533],[-80.2708281450417,25.7641895544717],[-80.2714638595163,25.7641702974504],[-80.2725982672979,25.7641173329399],[-80.2733150943599,25.7640939164973],[-80.2735131529148,25.7640951632873],[-80.2740617346461,25.7640705585496],[-80.2748084567536,25.7640336987656],[-80.2756149122055,25.7640107165784],[-80.2762869239296,25.7639869766953],[-80.2770484563455,25.7639502647843],[-80.2777652816315,25.763926739726],[-80.2782878712125,25.7639293317101],[-80.2792586931738,25.7638893463599],[-80.2796617859737,25.7638685575726],[-80.2806649373908,25.7638207279243],[-80.2808598448389,25.7638090518914],[-80.2817507919581,25.7637882583818],[-80.2822797988762,25.7637656761684],[-80.2830734054248,25.7637317563825],[-80.2837972442046,25.7637101280967],[-80.285623318246,25.7636473088715],[-80.2858246331026,25.7636439115765],[-80.2867208530038,25.7635984382639],[-80.2878521092227,25.7635627931101],[-80.2899629053161,25.7634889310958],[-80.2905294002323,25.7634849873599],[-80.2912704761031,25.763470455676],[-80.2919047268219,25.7634407837652],[-80.2926504037,25.7634188737054],[-80.2932239948064,25.76340300268],[-80.2933286640048,25.7633972346274],[-80.2938893569544,25.7633788042976],[-80.2941081091296,25.7633808112539],[-80.2942604797706,25.7633689109597],[-80.2949900298338,25.7633443308945],[-80.295878427994,25.7633115034214],[-80.2969019770923,25.7633057741626],[-80.2978815725845,25.7632576252147],[-80.2980418440046,25.7632583981764],[-80.2996355131568,25.7632205919777],[-80.2998997528687,25.7632053551391],[-80.3008888204174,25.7631933425997],[-80.3019025154898,25.7631590869343],[-80.3028704060703,25.7631313116499],[-80.3039009909209,25.7630987567576],[-80.3058681885422,25.7630285336655],[-80.3066709362254,25.7630211825253],[-80.3074340067563,25.7629792457051],[-80.3085466165071,25.762948338013],[-80.3098141176109,25.7628960590083],[-80.3102108062146,25.7628979393074],[-80.3110274381134,25.7628538299993],[-80.3118602829043,25.7628301704441],[-80.3138227861689,25.7627826883678],[-80.314685417469,25.7627637954502],[-80.3157318424749,25.7627166152654],[-80.3166110437422,25.7626890184958],[-80.3174885858355,25.7626527258718],[-80.3182438252054,25.7626177462955],[-80.3190692579222,25.7624948761593],[-80.3195780369111,25.7624864231802],[-80.3197159253006,25.7624841321597],[-80.3197599859396,25.7624834001885],[-80.3197879597554,25.7624810539864],[-80.3198145419837,25.7627299091764],[-80.3195731463037,25.7627370286995],[-80.3192263773291,25.7627472558052],[-80.3188278473472,25.7627722927661],[-80.3186027003276,25.7628377006405],[-80.3184543169835,25.7629394596495],[-80.3183619081125,25.7630672707327],[-80.3183477264963,25.7630886471896],[-80.3182919562419,25.7631727068935],[-80.3180471707286,25.7640048378233],[-80.3180266691116,25.7640354198237],[-80.3178015281366,25.7647128320963],[-80.3175481551312,25.7654202488998],[-80.3174796701279,25.7655803109613],[-80.3171816417079,25.766276847158],[-80.3170882447808,25.7664426567594],[-80.317015513461,25.7665717795905],[-80.3169575204864,25.7666410443962],[-80.3169068888793,25.7667278139387],[-80.3167813868011,25.7669078855248],[-80.3164392893932,25.76739872734],[-80.3158586742605,25.7681118934016],[-80.3154332254697,25.768509031305],[-80.3147246278256,25.7690857789693],[-80.3140816525941,25.7694925326156],[-80.3133976543962,25.7698778013284],[-80.3133385140393,25.7699413850315],[-80.3131364813906,25.7703236043658],[-80.312807024613,25.7706515889685],[-80.3127054922614,25.7707526693545],[-80.3125603428958,25.7708971730953],[-80.3125472657775,25.7709043750763],[-80.3125172256218,25.7708969694233],[-80.3125012488621,25.7708978769541],[-80.312477027012,25.7709122151117],[-80.3124419306716,25.7709120493087],[-80.3124139067195,25.7709028369961],[-80.3121572899615,25.7709363138201],[-80.3120459266972,25.7708825689769],[-80.3117178706193,25.7706947536981],[-80.3116004469444,25.7706729107545],[-80.3114887166899,25.7706830255483],[-80.3101214972916,25.7713195900432],[-80.3099402206639,25.7714039702169],[-80.3096018922085,25.7715614513526],[-80.3096401238201,25.7741151552777],[-80.309625901987,25.7742604719446],[-80.3095979499732,25.7744663013161],[-80.3095434470019,25.7746356570886],[-80.3094752827449,25.7748534102852],[-80.3084562948007,25.7775151619576],[-80.3083755185456,25.7775995860752],[-80.3083413535655,25.7772856105597],[-80.3083413081358,25.7772851924101],[-80.3083333164782,25.7773056503232],[-80.3082750643464,25.7727107419211],[-80.3082709152198,25.7725153926963],[-80.3082629511747,25.7721404753095],[-80.3079869323235,25.7722577073687],[-80.3015464273568,25.7752054349941],[-80.3014924526107,25.7752081673453],[-80.3013711099458,25.7752444758035],[-80.2993470210482,25.7761940814579],[-80.2990596242626,25.7763183896359],[-80.2984624976661,25.7765819909222],[-80.2980409676944,25.7767778796259],[-80.296627073088,25.7774942259925],[-80.2962599146213,25.7776926297896],[-80.2959737331445,25.7779100472998],[-80.2959386580336,25.777925714808],[-80.2959012737206,25.777928413407],[-80.2958217484795,25.777931627484],[-80.2957660357831,25.7779414360838],[-80.2957007153481,25.7779627161366],[-80.295288829682,25.7782109237868],[-80.2945072938334,25.7786207411302],[-80.293551217936,25.7791616544323],[-80.2924713856652,25.7797755445587],[-80.2908922400207,25.7804631179873],[-80.2904401118678,25.7806156986038],[-80.2896602829985,25.7807336904766],[-80.289222634434,25.7808076763955],[-80.288872225849,25.7808211893395],[-80.2887795307423,25.780856260501],[-80.2886982842048,25.7808628869324],[-80.2885832322236,25.7808755998606],[-80.2883949972222,25.7808408168867],[-80.2882722234092,25.7808343373211],[-80.2878971179652,25.78084120898],[-80.2849639230363,25.7802501915478],[-80.2832457065279,25.7802619397945],[-80.2800948801948,25.7802867888226],[-80.2793448007184,25.7803436829057],[-80.2784642056677,25.7805817479243],[-80.2778007916967,25.7809689653693],[-80.2767717116841,25.7815026577995],[-80.2762670920551,25.7819243996379],[-80.2758520850879,25.7822659131798],[-80.2745475547,25.7835940760481],[-80.2743204295856,25.7838823504172],[-80.2734744751539,25.7848266806662],[-80.2732968184564,25.7851758157244],[-80.2730108264739,25.7853463768063],[-80.2726015922317,25.7857005908717],[-80.2723006803579,25.7860921993913],[-80.2711477206081,25.787425247334],[-80.2701549505787,25.7884793238431],[-80.2699879523878,25.7886816814938],[-80.2699392109331,25.7887392259696],[-80.2686992094994,25.7901101765287],[-80.2669348701727,25.7917370774134],[-80.2669180952455,25.7917905899722],[-80.2669012171646,25.7918440117427],[-80.266877233884,25.7918995378991],[-80.2668046303818,25.7919737847095],[-80.2667597520785,25.7920030645485],[-80.2665869596557,25.7920873392502],[-80.2665336180449,25.7921300638512],[-80.2665097008437,25.7921291173085],[-80.2664617061017,25.7921733726735],[-80.2660036905827,25.792595695603],[-80.2654540488239,25.7931408780507],[-80.2651139597403,25.7933666522849],[-80.2650152655027,25.793425498778],[-80.2648804537035,25.7935332852615],[-80.264688090507,25.7935729875005],[-80.2646637112917,25.7935883800194],[-80.2646302182848,25.7935790983563],[-80.2645595763358,25.7936091137767],[-80.264482356288,25.7936178356127],[-80.2644536705674,25.7936450257097],[-80.2644015468166,25.7936645050121],[-80.2643495730095,25.793659686427],[-80.2643472924174,25.7936571393279],[-80.263859091757,25.7936627145615],[-80.2584380643085,25.7938383789478],[-80.25612404316,25.7938890863605],[-80.2538175160625,25.7939072880216],[-80.2516304099911,25.7939699998557],[-80.2500710853732,25.7940077082234],[-80.2479769582568,25.7940612067855],[-80.2450206622212,25.7941442494354],[-80.2438724368626,25.7941730204266],[-80.2429430195377,25.7942037798876],[-80.2426895248702,25.7942114018484],[-80.2418806762669,25.7942357162869],[-80.2407147841496,25.7942707574037],[-80.240255981065,25.7942698995679],[-80.2398420949186,25.794274412961],[-80.239818881866,25.7942746662348],[-80.2398439524026,25.7952281206725],[-80.2398535471376,25.7955865189454],[-80.2398675766216,25.7961105493482],[-80.2398925146415,25.796854394066],[-80.2398998139033,25.7970721233725],[-80.2399001720982,25.7972568821775],[-80.2399004344119,25.7973917923391],[-80.2399144447941,25.7977564121098],[-80.2399139721791,25.7979199397571],[-80.2399460169062,25.7989117767058],[-80.2399838301811,25.7998331410399],[-80.2400024603079,25.8006648166784],[-80.2400246522036,25.8016825665843],[-80.2400575538883,25.8025997788828],[-80.2400761000531,25.8035341106759],[-80.2401085609236,25.8044609499439],[-80.2401363310484,25.8053489017787],[-80.2401484999339,25.8057939866231],[-80.2401547926122,25.806093167577],[-80.2401594320407,25.8063136935755],[-80.240176945399,25.8072313403027],[-80.2402150297625,25.8081403251586],[-80.2402267642401,25.8085902430759],[-80.2402291267549,25.8086224331678],[-80.2405048422177,25.8086102843724],[-80.2422272771208,25.8085343788219],[-80.2442774968697,25.8084702026881],[-80.2463059067842,25.8084137637901],[-80.2463058320135,25.8084255809356],[-80.2483516975377,25.8083613255925],[-80.2503931107689,25.808312775179],[-80.2522344599906,25.808243470389],[-80.2542601173802,25.8081975232161],[-80.2543585576097,25.8081952894736],[-80.2543585621467,25.8081945646657],[-80.2543586809005,25.8081755932914],[-80.256482777278,25.8081273821947],[-80.2564848282715,25.8080977107006],[-80.2564760928758,25.8076493762677],[-80.2564458484096,25.8068039190904],[-80.2565899050626,25.806801613809],[-80.257820759334,25.8067819084766],[-80.2584542951889,25.8073202384738],[-80.2585041441773,25.8085441015514],[-80.2585031946667,25.8089353270423],[-80.2585030038203,25.8090142036303],[-80.2575057246874,25.8090390989948],[-80.256515408555,25.809065007012],[-80.2565126284992,25.8090082573648],[-80.2565123737823,25.809003053163],[-80.2545625117035,25.8090581036923],[-80.2545555333072,25.8090797469514],[-80.2524393755974,25.809137013184],[-80.2524326893501,25.8091122036661],[-80.2503917988933,25.8091698270761],[-80.2483789436733,25.8092306646469],[-80.2473845583421,25.8092502953474],[-80.2473809412999,25.8092812466482],[-80.2463523419194,25.8093006931493],[-80.2463520088167,25.8093533395556],[-80.2443189370755,25.8093691848617],[-80.244315671922,25.8093396719093],[-80.2433438268262,25.8093655861022],[-80.2433465989986,25.8094677997492],[-80.2423544029058,25.8095124478608],[-80.2422979776942,25.8095149863112],[-80.2422976536101,25.8095137299353],[-80.2422899638086,25.8094839754437],[-80.2402503758338,25.8095507540435],[-80.2402524620006,25.8096167352728],[-80.2402670946051,25.8100147404823],[-80.2403032470173,25.8109587937626],[-80.2395064577205,25.8109798197876],[-80.2382637211523,25.8110126048292],[-80.2372741147435,25.8110471372136],[-80.2362163367092,25.8110770062672],[-80.2351847604989,25.8111092413325],[-80.2341513120076,25.8111369883717],[-80.2331864982995,25.8111640854572],[-80.233161557849,25.8111647861423],[-80.2331275202803,25.8111658450269],[-80.2321316909698,25.8111968361201],[-80.2309584589078,25.8112186624603],[-80.2297224900416,25.8112767737619],[-80.2290510150804,25.8112931610433],[-80.2280557498427,25.8113208947721],[-80.2280600520399,25.8113956552531],[-80.2280885325883,25.8118905851795],[-80.2280997839104,25.8121125506391],[-80.2281017696657,25.8121337472854],[-80.2281057169411,25.8121758795833],[-80.2281223678801,25.8123536113531],[-80.2281274982185,25.8124564739137],[-80.2281281664931,25.8126724888562],[-80.2281416450724,25.8129384170529],[-80.2281464754815,25.8130337065842],[-80.2281283394948,25.8131938730931],[-80.2281633766456,25.8139434391627],[-80.2282062619847,25.8143662704173],[-80.2282383752543,25.814682900947],[-80.2282660868313,25.8153428273367],[-80.2282701396362,25.8154393285771],[-80.2282718115777,25.8154657173938],[-80.2283175357495,25.8161875843893],[-80.2283495148393,25.8169108252856],[-80.228381322472,25.8176607186362],[-80.2284057641651,25.8184038661214],[-80.2284388348117,25.8191054463037],[-80.2284513041932,25.8198784502042],[-80.2284961185055,25.8206442321329],[-80.2285079775879,25.8213647869199],[-80.2285362699093,25.8221003884759],[-80.2285648478909,25.8228210309725],[-80.2285944377553,25.8235029894361],[-80.2286228617668,25.8242982493415],[-80.2286229047566,25.8242994645349],[-80.2286691731269,25.82507402927],[-80.228669183027,25.8250741945072],[-80.2286692098935,25.8250749736356],[-80.228694237337,25.8258111541455],[-80.2287221924581,25.8265402201023],[-80.2287470411108,25.8272501811937],[-80.2287701128823,25.8278997672774],[-80.2287717872391,25.8279469016282],[-80.226781776427,25.8280255705049],[-80.2253456004466,25.8280833421878],[-80.2252957750556,25.8280846200747],[-80.2251600061524,25.8280881015807],[-80.2252273866852,25.8299340947494],[-80.225442660854,25.8299254235065],[-80.2256058487999,25.8299166422396],[-80.2257652053864,25.8299080678402],[-80.2258027071121,25.8308339436511],[-80.2253564585466,25.830851259986],[-80.2253948546124,25.8316392737459],[-80.2253562066469,25.8316368805764],[-80.2253078378666,25.8316338858529],[-80.2253823220571,25.8335644137261],[-80.2254397883996,25.834766128093],[-80.2255150691875,25.8365745502393],[-80.2256182281086,25.8391157807466],[-80.2254893008901,25.8391141058821],[-80.2243254789855,25.8391541050189],[-80.2235824884357,25.8391859029713],[-80.2231873660407,25.8391972029112],[-80.2227870903167,25.8392119132837],[-80.221107916064,25.8392667136328],[-80.2190513075312,25.8393301278976],[-80.2171972378295,25.8393963241664],[-80.2169953910271,25.8394034900571],[-80.2149552681172,25.8394732969394],[-80.2129389411037,25.8395363259021],[-80.2114980129908,25.8395867092861],[-80.2108953825312,25.8396077765881],[-80.2094891529742,25.8396557974878],[-80.2095339226952,25.8408334556945],[-80.2095662141124,25.8420123474226],[-80.2095953449188,25.8426948461386],[-80.2096232339355,25.843428246246],[-80.2096627628427,25.8441523826036],[-80.2096912337131,25.8447478671904],[-80.2097181533669,25.8456077285108],[-80.2097357322869,25.8463464664282],[-80.2097442158184,25.8475330960885],[-80.2096231725955,25.8475374154521],[-80.2095690227918,25.8475403215108],[-80.2095722916429,25.8476173185331],[-80.2091419473555,25.8476230876913],[-80.2090311014467,25.8476255232129],[-80.2090279652117,25.8475920767375],[-80.2070126147548,25.8476327489153],[-80.2051752552531,25.8476743673553],[-80.2050677679022,25.8476768173276],[-80.2050667118033,25.847631262389],[-80.2050651619755,25.8475643617599],[-80.2034258843913,25.8476161588828],[-80.201690476767,25.8476795649551],[-80.2016904480005,25.8476823638906],[-80.2016896049193,25.8477636629529],[-80.2016907494324,25.8477943699129],[-80.2010323778965,25.8477990933354],[-80.2004762409981,25.8478017842648],[-80.1989546031433,25.8478220542954],[-80.1989556308915,25.8478680640102],[-80.1988361152899,25.8478723945279],[-80.1988341377761,25.8478327738885],[-80.198417200778,25.8478418058244],[-80.1984188037118,25.8478767451043],[-80.197975701449,25.8478892689908],[-80.1969636329106,25.8479226043764],[-80.1969294705145,25.8479237288102],[-80.19695194626,25.8485917708341],[-80.1969800611546,25.8496905366199],[-80.197012052406,25.8506094615794],[-80.1970282989889,25.8511302264774],[-80.1970587960544,25.8518201005242],[-80.1970797766409,25.8523152709513],[-80.1970873420213,25.8525457299669],[-80.1970960456436,25.852936895156],[-80.1970963945561,25.8529525876938],[-80.1965382917583,25.852967490233],[-80.195050018396,25.8530171672409],[-80.1948364115904,25.8530513790865],[-80.194615430579,25.8531241628748],[-80.1944335889281,25.8531939455526],[-80.1941626691259,25.8532889760706],[-80.1939880693903,25.8533394917919],[-80.19377077455,25.8533929881569],[-80.1936033525155,25.8534338895231],[-80.1934395739564,25.8534619401826],[-80.1932368084414,25.8534704674681],[-80.1930418601348,25.8534800028367],[-80.1930413576195,25.8535579990034],[-80.1930409649501,25.8536187842335],[-80.1929306387707,25.8536281768197],[-80.1925754013644,25.8536612631321],[-80.1925266203248,25.8536697763607],[-80.1923831655254,25.8536929165471],[-80.1922956775436,25.8537085474512],[-80.1922438485446,25.8537132859379],[-80.1921916135564,25.8537152302811],[-80.192169141724,25.8537151052599],[-80.1921402585253,25.8537134922161],[-80.192109111932,25.853710391659],[-80.1920560525702,25.8537035829777],[-80.1920015505969,25.8536923866393],[-80.1919738015803,25.8536856492669],[-80.1919561815324,25.8536817808843],[-80.1918925634897,25.8536678150217],[-80.1918410896946,25.8536530285265],[-80.1917686542222,25.8536447525201],[-80.191741188887,25.8536388453064],[-80.1915465856429,25.8536084450723],[-80.1915167441527,25.8536066334044],[-80.1914250901584,25.8536020313767],[-80.191370539901,25.8535980962741],[-80.1913276961342,25.8535922847697],[-80.191289553102,25.8535867521732],[-80.1912270220299,25.8535762374524],[-80.1911725300892,25.8535635876103],[-80.1911232766304,25.8535509172849],[-80.1910259109136,25.8535257336835],[-80.1909341683344,25.8535011807028],[-80.1908432447773,25.8534775123029],[-80.1907562101758,25.8534467617434],[-80.1906546172251,25.8534089227914],[-80.1905961627308,25.853388988909],[-80.190551891412,25.8533703029888],[-80.1904828761128,25.8533357785865],[-80.1904300794319,25.8533100667897],[-80.1903405377087,25.8532653174043],[-80.1902612873467,25.853228152471],[-80.190205265817,25.853204601583],[-80.190161248072,25.8531862003888],[-80.1901311961693,25.8531737072282],[-80.1900892097111,25.8531574755542],[-80.1900550396143,25.8531543802613],[-80.1900237594096,25.8531513010809],[-80.1899876019055,25.853146921061],[-80.1899571997287,25.8531429414165],[-80.1899058796413,25.8531361190926],[-80.1898425558242,25.8531241461083],[-80.189772022641,25.8531099547985],[-80.1897462567903,25.8531022369719],[-80.1896766849516,25.8530847310709],[-80.1896318346075,25.8530706830174],[-80.1895924817979,25.853057535778],[-80.1895657344644,25.8530543373759],[-80.189536994833,25.8530513038636],[-80.1894721056485,25.8530487311004],[-80.1894215242892,25.853051353441],[-80.1893660772602,25.8530612112409],[-80.1893257415257,25.8530710811757],[-80.1892784579026,25.8530810558267],[-80.1892245970874,25.8530938271236],[-80.1891650972779,25.8531094716066],[-80.1891530079464,25.8531132186537],[-80.1890430153664,25.853144813287],[-80.1890411924999,25.8531450007845],[-80.1890061159821,25.8531560391335],[-80.188976241185,25.8531623505187],[-80.1889535468674,25.8531654633333],[-80.1889272817238,25.8531674757387],[-80.1889063927355,25.8531684386131],[-80.1888995381872,25.8531678758901],[-80.1888714270516,25.8531655696738],[-80.188868012194,25.853165880964],[-80.1888199341546,25.8531603978325],[-80.1887865786159,25.8531521139052],[-80.1887556323146,25.8531406038565],[-80.1887288727943,25.8531274978577],[-80.1886902506468,25.8531040679742],[-80.1886492865997,25.853074146749],[-80.1886136849813,25.8530453359373],[-80.1885876188329,25.8530181968358],[-80.1885592308983,25.8529813278373],[-80.188530910303,25.8529347422922],[-80.1885127106423,25.8528914519755],[-80.188498114972,25.8528444033479],[-80.1884841942345,25.852786020432],[-80.1884632188065,25.8527122667491],[-80.1884556218458,25.8526820743145],[-80.1884417264706,25.8526268498725],[-80.1884290728904,25.8526027806652],[-80.1883822837342,25.8525527656392],[-80.1883305434909,25.8525192827535],[-80.1882151537759,25.8524446086001],[-80.188061251203,25.8524017112753],[-80.187912906573,25.8522693905606],[-80.1878742879651,25.8521732212562],[-80.1878395481657,25.8520841810221],[-80.1878443737041,25.8519527168575],[-80.1878921511259,25.8517611685893],[-80.1879192846771,25.8516457075132],[-80.1879313878665,25.8515942028697],[-80.1879490484296,25.8515184654399],[-80.1879647222868,25.8514547806793],[-80.1873506118178,25.8514674708414],[-80.1872426925157,25.8514697002297],[-80.1870855102686,25.8514688637022],[-80.186851880119,25.8514676187881],[-80.1853757816334,25.8515071726592],[-80.1853758420809,25.8515082507499],[-80.1854988910165,25.8537224755466],[-80.1855284246561,25.8551705963597],[-80.1854380475683,25.8551730012745],[-80.1849059663892,25.8551871554683],[-80.184431577214,25.8551984192886],[-80.1843144558505,25.8552012004174],[-80.1839218534268,25.855212380431],[-80.183072939222,25.8552365505751],[-80.1808295214108,25.8553004003926],[-80.1797424202774,25.8553357040412],[-80.1793060138936,25.8553488671378],[-80.1790942380654,25.8553552539089],[-80.1790785650484,25.8553573794666],[-80.1783107233543,25.8553776690811],[-80.1783102419561,25.8554455772352],[-80.1783101518043,25.8554583300983],[-80.1781890188627,25.8554573502635],[-80.1777288900938,25.855453627691],[-80.177725939021,25.8554533636555],[-80.1774044113075,25.8554246600298],[-80.1763604456002,25.8554355262331],[-80.1761318732526,25.8554448922911],[-80.1759434058576,25.8554526135421],[-80.1756005091203,25.8554611565541],[-80.1716574665325,25.8555912152072],[-80.1716450995748,25.8555941775125],[-80.171434473483,25.8556446300044],[-80.1709976781128,25.8557492571504],[-80.1653983232167,25.8557817703537],[-80.161112984905,25.855806506695],[-80.1604672303655,25.8412027797852],[-80.15900202234,25.8261145186712],[-80.1583895810115,25.8113144651131],[-80.1609211205742,25.8112663242408],[-80.1609520667101,25.8112657356148],[-80.1609168813958,25.810484253402],[-80.1608608614041,25.8088632685472],[-80.1619909780511,25.8046037492671],[-80.1650395778731,25.7931116147438],[-80.1657530602091,25.7904216888743],[-80.1677996035884,25.7833053382997],[-80.1680709044698,25.7823618860752],[-80.1690782898017,25.7785160368635],[-80.155018522937,25.7724864492026],[-80.1483127805977,25.7696099771667],[-80.1390088649212,25.7656182666334],[-80.1409430625708,25.7653964394608],[-80.139466163325,25.7647460694071],[-80.1386235424778,25.7643937283253],[-80.1490041882238,25.7641503923006],[-80.1487310510635,25.7624497726316],[-80.1415827781835,25.7571262717222],[-80.1415228822793,25.7565301748246],[-80.1357823981633,25.7523958267128],[-80.1359453167329,25.7519784684315],[-80.1363438404636,25.7509189318612],[-80.1411472401489,25.7368109455769],[-80.1420976479916,25.7364492028821],[-80.145745062169,25.7350851250288],[-80.1473639227645,25.7343655212042],[-80.1473642556882,25.7343653724105],[-80.1474989471567,25.7343263538858],[-80.1484145777825,25.7336621164108],[-80.1490946849471,25.7333565622481],[-80.14999841759,25.7329505315828],[-80.14999846154,25.7329505173968],[-80.1513247049411,25.732520810282],[-80.1523057430941,25.7321853628782],[-80.1551206893611,25.7305065807214],[-80.1554857675392,25.7303440503775],[-80.1584544214657,25.7332140656635],[-80.1585262272812,25.7332834826179],[-80.1585505525587,25.7333069999519],[-80.1585905470185,25.7333456630828],[-80.1590824586286,25.733821209485],[-80.1595526626677,25.7342757651828],[-80.1597031468144,25.7344742098451],[-80.1597618032742,25.7346373041121],[-80.159760526642,25.7348188819647],[-80.1597600871994,25.7348813843372],[-80.1596431655715,25.7351745820676],[-80.1594615713286,25.735458291577],[-80.1590993334768,25.7358630469878],[-80.1587321896633,25.7362633022719],[-80.1583049571823,25.7366767075978],[-80.158043208317,25.7369916783355],[-80.1578654245533,25.7373803009717],[-80.1578638639984,25.7378141350711],[-80.1578571137125,25.7396908989665],[-80.1605831990676,25.7384650455613],[-80.1607820077218,25.7383756436029],[-80.1627739843351,25.7374798483432],[-80.1633831197077,25.7372059113197]]]},"properties":{"FID":1,"BNDID":1,"JURIID":1,"JURINAME":"MIAMI","JURIPDAGCY":"M1","JURIFDAGCY":"FD","Shape_Leng":262725.106949,"Shape_Area":1559452615.72,"Shape__Area":179404362.3359375,"Shape__Length":89089.01856578892}}]}
