{"type":"FeatureCollection","crs":{"type":"name","properties":{"name":"EPSG:4326"}},"features":[{"type":"Feature","id":123,"geometry":{"type":"Polygon","coordinates":[[[-80.1925644550472,25.770628188341],[-80.192551934334,25.7705592462628],[-80.1925296354623,25.7704649768735],[-80.1924974910582,25.7703575009413],[-80.1924577909269,25.7702361356573],[-80.192390893412,25.7700271624102],[-80.1924317371011,25.7700189731639],[-80.1924160633018,25.7699628125332],[-80.1925255688016,25.7699364237765],[-80.1926603807339,25.7698984059969],[-80.1928174062001,25.7698542804409],[-80.1930094264282,25.7697224335491],[-80.1932229460298,25.769576860593],[-80.1933462801921,25.7694922544767],[-80.1933411786595,25.7695694665418],[-80.1933400225276,25.7695939130277],[-80.1933535448585,25.7698293195096],[-80.1933756847243,25.7701091956283],[-80.1933793705089,25.7702008992372],[-80.1933224703366,25.770235048413],[-80.1932084723626,25.7703039866324],[-80.1930622329638,25.7703928239011],[-80.1929071640266,25.7704868004971],[-80.192717915999,25.7706037776655],[-80.1925766945893,25.7706282619574],[-80.192576143024,25.7706254912345],[-80.1925644550472,25.770628188341]]]},"properties":{"FID":123,"OBJECTID":3598,"WATER":1,"TYPE":" ","LAST_UPDAT":2019,"GlobalID":"52553838-6e80-44ed-9966-1a9787b32cfb","Shape__Are":8555.9296875,"Shape__Len":403.602046497645,"Shape__Area":8555.92578125,"Shape__Length":403.60192708569821}},{"type":"Feature","id":212,"geometry":{"type":"Polygon","coordinates":[[[-80.1976677314971,25.7691587666825],[-80.1976502233477,25.7686788042248],[-80.1977168531686,25.7687128559538],[-80.1977998188488,25.7687101960183],[-80.19780909485,25.7686953641183],[-80.1978729084539,25.7686984843682],[-80.1978739585839,25.7687133753238],[-80.1978877234649,25.768712411016],[-80.1978862789771,25.7685864158524],[-80.1978982166856,25.768573327298],[-80.1979299433755,25.7685731566028],[-80.1979428315007,25.7685894964649],[-80.1979469781202,25.7687116999208],[-80.1979622638486,25.7687121311091],[-80.1979616242487,25.7686937825585],[-80.198027383603,25.7686920675149],[-80.1980312131188,25.7687478153563],[-80.1980340032843,25.7687876343025],[-80.1980409643265,25.7688330157987],[-80.1980480223869,25.7688631673792],[-80.1981194141749,25.7689334776228],[-80.1981596550936,25.768975234018],[-80.1983087116037,25.769096237361],[-80.1983988664977,25.7691579229291],[-80.1984742153637,25.7692081775798],[-80.1985161711664,25.7692215621518],[-80.1986073824785,25.7693009796721],[-80.1987221332368,25.7694033729415],[-80.1988786825921,25.7695440687911],[-80.198975959327,25.769630444916],[-80.1989731700585,25.7696473881289],[-80.1989016668766,25.7697075670935],[-80.199038391318,25.7698398451917],[-80.199120791058,25.76992198369],[-80.1991503555027,25.7699595282147],[-80.1992126608346,25.7700169823978],[-80.1992859067448,25.7700845082787],[-80.1990776548553,25.7705623957009],[-80.1989868953964,25.7704501275094],[-80.1989235767656,25.7703725916183],[-80.1988834175938,25.7703190675953],[-80.1988253846485,25.7702515992851],[-80.1987711461856,25.7701883076654],[-80.1987184177902,25.7701277916004],[-80.1986930008657,25.7700989225643],[-80.1986804316422,25.7700919314123],[-80.1984942378881,25.7700971371556],[-80.1983033136071,25.7701036995477],[-80.1982729622375,25.7701049591193],[-80.1982650849165,25.7699496716503],[-80.1983043601474,25.7699479817025],[-80.1984883260803,25.7699413683364],[-80.19848785177,25.7699380013829],[-80.1983408218588,25.7698063996977],[-80.1983339075281,25.7698032228496],[-80.1983220371935,25.769799790365],[-80.198305432739,25.7697883902766],[-80.1982284399569,25.7697177043653],[-80.1981421918353,25.7696393517376],[-80.1980365742457,25.7695428933318],[-80.1979296460102,25.7696412940875],[-80.1978866957733,25.7696047161896],[-80.1979920851951,25.7695076898568],[-80.1979297699818,25.76945161878],[-80.1979300520536,25.7694097403974],[-80.1978849611325,25.7693509972173],[-80.197834887258,25.7692936098573],[-80.1977756514685,25.7692347881484],[-80.1977315675582,25.7691964724363],[-80.1976954211589,25.7691713527965],[-80.1976677314971,25.7691587666825]]]},"properties":{"FID":212,"OBJECTID":6324,"WATER":1,"TYPE":" ","LAST_UPDAT":2019,"GlobalID":"127bc0cc-a380-466e-948b-30234a5de14d","Shape__Are":15313.59375,"Shape__Len":773.524476202692,"Shape__Area":15313.591796875,"Shape__Length":773.52424741645564}}]}