{"type":"FeatureCollection","crs":{"type":"name","properties":{"name":"EPSG:4326"}},"features":[{"type":"Feature","id":4018,"geometry":{"type":"LineString","coordinates":[[-80.1942472886955,25.7726475017912],[-80.194724054293,25.772634751501],[-80.1948708161537,25.7726405488823]]},"properties":{"FID":4018,"St_SegID":4872,"L_Add_From":0,"L_Add_To":0,"R_Add_From":0,"R_Add_To":0,"Prefix_Dir":" ","St_BName":"I 95","MD_St_BNam":"I 95","St_Type1":" ","St_Type2":" ","St_Name":"I 95","St_Type":" ","ARPS_St_Ty":" ","St_Label":"I 95 ON RAMP W","Suffix_Dir":"W","Ramp":"ON RAMP","L_Zip":"33130","R_Zip":"33130","Shield_Typ":" ","Shield_Num":" ","In_Miami":1,"Jurisd_Cod":"S","Rd_Class":0,"Rd_Status":2,"One_Way":"FT","Speed_Limi":25,"F_ZLev":1,"T_ZLev":1,"ZLevel":0,"FT_Cost":205.32126046,"TF_Cost":-1,"Alias01":" ","Alias02":" ","Alias03":" ","STC_ID":0,"MD_StreetI":0,"MD_Stree_1":906985,"MD_RdClass":"0","Date_In":1196380800000,"Date_Mod":1196380800000,"Edited_By":"SYSTEM","From_ST":" ","To_ST":" ","Shape_Leng":205.321238567,"Shape__Length":69.449868128549369}},{"type":"Feature","id":5243,"geometry":{"type":"LineString","coordinates":[[-80.1962597652834,25.7732426771948],[-80.1976644309149,25.7732035710294]]},"properties":{"FID":5243,"St_SegID":4465,"L_Add_From":124,"L_Add_To":198,"R_Add_From":125,"R_Add_To":199,"Prefix_Dir":"SW","St_BName":"1","MD_St_BNam":"1ST","St_Type1":" ","St_Type2":"ST","St_Name":"1ST","St_Type":"ST","ARPS_St_Ty":"ST","St_Label":"SW 1ST ST","Suffix_Dir":" ","Ramp":" ","L_Zip":"33130","R_Zip":"33130","Shield_Typ":" ","Shield_Num":" ","In_Miami":1,"Jurisd_Cod":"M","Rd_Class":2,"Rd_Status":2,"One_Way":"TF","Speed_Limi":40,"F_ZLev":0,"T_ZLev":0,"ZLevel":0,"FT_Cost":-1,"TF_Cost":462.50048634,"Alias01":" ","Alias02":" ","Alias03":" ","STC_ID":0,"MD_StreetI":0,"MD_Stree_1":900913,"MD_RdClass":"2","Date_In":1196380800000,"Date_Mod":1334620800000,"Edited_By":"ykebede","From_ST":"SW 1ST CT","To_ST":"SW 2ND AVE","Shape_Leng":462.500423619,"Shape__Length":156.4413706954544}},{"type":"Feature","id":5901,"geometry":{"type":"LineString","coordinates":[[-80.1946723922814,25.7741266928709],[-80.1955716418227,25.7740977920121]]},"properties":{"FID":5901,"St_SegID":5606,"L_Add_From":50,"L_Add_To":98,"R_Add_From":51,"R_Add_To":99,"Prefix_Dir":"W","St_BName":"FLAGLER","MD_St_BNam":"FLAGLER","St_Type1":" ","St_Type2":"ST","St_Name":"FLAGLER","St_Type":"ST","ARPS_St_Ty":"ST","St_Label":"W FLAGLER ST","Suffix_Dir":" ","Ramp":" ","L_Zip":"33130","R_Zip":"33130","Shield_Typ":" ","Shield_Num":" ","In_Miami":1,"Jurisd_Cod":"M","Rd_Class":2,"Rd_Status":2,"One_Way":" ","Speed_Limi":45,"F_ZLev":0,"T_ZLev":0,"ZLevel":0,"FT_Cost":296.13166981,"TF_Cost":296.13166981,"Alias01":" ","Alias02":" ","Alias03":" ","STC_ID":0,"MD_StreetI":0,"MD_Stree_1":900843,"MD_RdClass":"2","Date_In":1196380800000,"Date_Mod":1334620800000,"Edited_By":"ykebede","From_ST":"NW MIAMI CT","To_ST":"SW 1ST AVE & NW 1ST AVE","Shape_Leng":296.131458811,"Shape__Length":100.16773369111736}},{"type":"Feature","id":8076,"geometry":{"type":"LineString","coordinates":[[-80.1988896474128,25.7748334235724],[-80.1992265980146,25.7757266638531],[-80.1992608244865,25.7757892745445],[-80.1993017814359,25.77584847985],[-80.1993490599057,25.7759036885879]]},"properties":{"FID":8076,"St_SegID":8206,"L_Add_From":100,"L_Add_To":198,"R_Add_From":101,"R_Add_To":199,"Prefix_Dir":"NW","St_BName":"3","MD_St_BNam":"3RD","St_Type1":" ","St_Type2":"AVE","St_Name":"3RD","St_Type":"AVE","ARPS_St_Ty":"AV","St_Label":"NW 3RD AVE","Suffix_Dir":" ","Ramp":" ","L_Zip":"33128","R_Zip":"33128","Shield_Typ":" ","Shield_Num":" ","In_Miami":1,"Jurisd_Cod":"S","Rd_Class":4,"Rd_Status":2,"One_Way":"FT","Speed_Limi":30,"F_ZLev":0,"T_ZLev":0,"ZLevel":0,"FT_Cost":419.29231804,"TF_Cost":-1,"Alias01":" ","Alias02":" ","Alias03":" ","STC_ID":0,"MD_StreetI":0,"MD_Stree_1":900922,"MD_RdClass":"5","Date_In":1196380800000,"Date_Mod":1516233600000,"Edited_By":"Ykebede","From_ST":"NW 1ST ST","To_ST":"NW 2ND ST","Shape_Leng":419.292515339,"Shape__Length":142.48633805978704}},{"type":"Feature","id":8142,"geometry":{"type":"LineString","coordinates":[[-80.1977367794898,25.7749784556809],[-80.1977929639071,25.7759494234495]]},"properties":{"FID":8142,"St_SegID":8277,"L_Add_From":100,"L_Add_To":198,"R_Add_From":101,"R_Add_To":199,"Prefix_Dir":"NW","St_BName":"2","MD_St_BNam":"2ND","St_Type1":" ","St_Type2":"AVE","St_Name":"2ND","St_Type":"AVE","ARPS_St_Ty":"AV","St_Label":"NW 2ND AVE","Suffix_Dir":" ","Ramp":" ","L_Zip":"33128","R_Zip":"33128","Shield_Typ":" ","Shield_Num":" ","In_Miami":1,"Jurisd_Cod":"C","Rd_Class":3,"Rd_Status":2,"One_Way":" ","Speed_Limi":35,"F_ZLev":0,"T_ZLev":0,"ZLevel":0,"FT_Cost":353.40476656,"TF_Cost":353.40476656,"Alias01":" ","Alias02":" ","Alias03":" ","STC_ID":0,"MD_StreetI":0,"MD_Stree_1":900857,"MD_RdClass":"4","Date_In":1196380800000,"Date_Mod":1196380800000,"Edited_By":"SYSTEM","From_ST":"NW 1ST ST","To_ST":"NW 2ND ST","Shape_Leng":353.404950473,"Shape__Length":120.19285509322722}},{"type":"Feature","id":8143,"geometry":{"type":"LineString","coordinates":[[-80.1977367794898,25.7749784556809],[-80.198429130645,25.7749431240612],[-80.1984992473795,25.7749383751556],[-80.1985689222484,25.7749298200201],[-80.1986379034466,25.7749174895728],[-80.198764348413,25.77487686319],[-80.1988896474128,25.7748334235724]]},"properties":{"FID":8143,"St_SegID":8278,"L_Add_From":200,"L_Add_To":202,"R_Add_From":201,"R_Add_To":203,"Prefix_Dir":"NW","St_BName":"1","MD_St_BNam":"1ST","St_Type1":" ","St_Type2":"ST","St_Name":"1ST","St_Type":"ST","ARPS_St_Ty":"ST","St_Label":"NW 1ST ST","Suffix_Dir":" ","Ramp":" ","L_Zip":"33128","R_Zip":"33128","Shield_Typ":" ","Shield_Num":" ","In_Miami":1,"Jurisd_Cod":"M","Rd_Class":4,"Rd_Status":2,"One_Way":"FT","Speed_Limi":30,"F_ZLev":0,"T_ZLev":0,"ZLevel":0,"FT_Cost":385.95745428,"TF_Cost":-1,"Alias01":" ","Alias02":" ","Alias03":" ","STC_ID":0,"MD_StreetI":0,"MD_Stree_1":901023,"MD_RdClass":"5","Date_In":1196380800000,"Date_Mod":1196380800000,"Edited_By":"SYSTEM","From_ST":"NW 2ND AVE","To_ST":"NW 3RD AVE","Shape_Leng":385.957251684,"Shape__Length":130.57105699854037}},{"type":"Feature","id":8174,"geometry":{"type":"LineString","coordinates":[[-80.1980655162255,25.7740120972235],[-80.1981556627304,25.7740243579615],[-80.1982449400237,25.774041036809],[-80.1983330841861,25.7740620844606],[-80.1984019305393,25.7740822278204],[-80.1984695369876,25.7741055614857],[-80.1985357233374,25.7741320232649]]},"properties":{"FID":8174,"St_SegID":8309,"L_Add_From":0,"L_Add_To":0,"R_Add_From":213,"R_Add_To":249,"Prefix_Dir":"W","St_BName":"FLAGLER","MD_St_BNam":"FLAGLER","St_Type1":" ","St_Type2":"ST","St_Name":"FLAGLER","St_Type":"ST","ARPS_St_Ty":"ST","St_Label":"W FLAGLER ST","Suffix_Dir":" ","Ramp":" ","L_Zip":"33130","R_Zip":"33130","Shield_Typ":" ","Shield_Num":" ","In_Miami":1,"Jurisd_Cod":"S","Rd_Class":2,"Rd_Status":2,"One_Way":" ","Speed_Limi":45,"F_ZLev":0,"T_ZLev":0,"ZLevel":0,"FT_Cost":161.45292078,"TF_Cost":161.45292078,"Alias01":" ","Alias02":" ","Alias03":" ","STC_ID":0,"MD_StreetI":0,"MD_Stree_1":900035,"MD_RdClass":"2","Date_In":1196380800000,"Date_Mod":1196380800000,"Edited_By":"SYSTEM","From_ST":"W FLAGLER ST","To_ST":"NW 3RD AVE","Shape_Leng":161.45304457,"Shape__Length":54.629464460885046}},{"type":"Feature","id":8175,"geometry":{"type":"LineString","coordinates":[[-80.1955716418227,25.7740977920121],[-80.1977014579995,25.7740229559913]]},"properties":{"FID":8175,"St_SegID":8310,"L_Add_From":100,"L_Add_To":198,"R_Add_From":101,"R_Add_To":199,"Prefix_Dir":"W","St_BName":"FLAGLER","MD_St_BNam":"FLAGLER","St_Type1":" ","St_Type2":"ST","St_Name":"FLAGLER","St_Type":"ST","ARPS_St_Ty":"ST","St_Label":"W FLAGLER ST","Suffix_Dir":" ","Ramp":" ","L_Zip":"33130","R_Zip":"33130","Shield_Typ":" ","Shield_Num":" ","In_Miami":1,"Jurisd_Cod":"M","Rd_Class":2,"Rd_Status":2,"One_Way":" ","Speed_Limi":45,"F_ZLev":0,"T_ZLev":0,"ZLevel":0,"FT_Cost":701.45486866,"TF_Cost":701.45486866,"Alias01":" ","Alias02":" ","Alias03":" ","STC_ID":0,"MD_StreetI":0,"MD_Stree_1":900835,"MD_RdClass":"2","Date_In":1196380800000,"Date_Mod":1334620800000,"Edited_By":"ykebede","From_ST":"SW 1ST AVE & NW 1ST AVE","To_ST":"NW 2ND AVE & SW 2ND AVE","Shape_Leng":701.455067796,"Shape__Length":237.27046729034885}},{"type":"Feature","id":8176,"geometry":{"type":"LineString","coordinates":[[-80.1977014579995,25.7740229559913],[-80.1977367794898,25.7749784556809]]},"properties":{"FID":8176,"St_SegID":8311,"L_Add_From":2,"L_Add_To":98,"R_Add_From":1,"R_Add_To":99,"Prefix_Dir":"NW","St_BName":"2","MD_St_BNam":"2ND","St_Type1":" ","St_Type2":"AVE","St_Name":"2ND","St_Type":"AVE","ARPS_St_Ty":"AV","St_Label":"NW 2ND AVE","Suffix_Dir":" ","Ramp":" ","L_Zip":"33128","R_Zip":"33128","Shield_Typ":" ","Shield_Num":" ","In_Miami":1,"Jurisd_Cod":"C","Rd_Class":3,"Rd_Status":2,"One_Way":" ","Speed_Limi":35,"F_ZLev":0,"T_ZLev":0,"ZLevel":0,"FT_Cost":347.49330084,"TF_Cost":347.49330084,"Alias01":" ","Alias02":" ","Alias03":" ","STC_ID":0,"MD_StreetI":0,"MD_Stree_1":900858,"MD_RdClass":"4","Date_In":1196380800000,"Date_Mod":1196380800000,"Edited_By":"SYSTEM","From_ST":"SW 2ND AVE & W FLAGLER ST","To_ST":"NW 1ST ST","Shape_Leng":347.493120103,"Shape__Length":118.18233618673817}},{"type":"Feature","id":8177,"geometry":{"type":"LineString","coordinates":[[-80.1977014579995,25.7740229559913],[-80.1980655162255,25.7740120972235]]},"properties":{"FID":8177,"St_SegID":8312,"L_Add_From":200,"L_Add_To":210,"R_Add_From":201,"R_Add_To":211,"Prefix_Dir":"W","St_BName":"FLAGLER","MD_St_BNam":"FLAGLER","St_Type1":" ","St_Type2":"ST","St_Name":"FLAGLER","St_Type":"ST","ARPS_St_Ty":"ST","St_Label":"W FLAGLER ST","Suffix_Dir":" ","Ramp":" ","L_Zip":"33130","R_Zip":"33130","Shield_Typ":" ","Shield_Num":" ","In_Miami":1,"Jurisd_Cod":"S","Rd_Class":2,"Rd_Status":2,"One_Way":" ","Speed_Limi":45,"F_ZLev":0,"T_ZLev":0,"ZLevel":0,"FT_Cost":119.87763178,"TF_Cost":119.87763178,"Alias01":" ","Alias02":" ","Alias03":" ","STC_ID":0,"MD_StreetI":0,"MD_Stree_1":900859,"MD_RdClass":"2","Date_In":1196380800000,"Date_Mod":1196380800000,"Edited_By":"SYSTEM","From_ST":"NW 2ND AVE & SW 2ND AVE","To_ST":"W FLAGLER ST","Shape_Leng":119.877416398,"Shape__Length":40.549000710967206}},{"type":"Feature","id":8178,"geometry":{"type":"LineString","coordinates":[[-80.1977014579995,25.7740229559913],[-80.1976644309149,25.7732035710294]]},"properties":{"FID":8178,"St_SegID":8313,"L_Add_From":1,"L_Add_To":99,"R_Add_From":2,"R_Add_To":98,"Prefix_Dir":"SW","St_BName":"2","MD_St_BNam":"2ND","St_Type1":" ","St_Type2":"AVE","St_Name":"2ND","St_Type":"AVE","ARPS_St_Ty":"AV","St_Label":"SW 2ND AVE","Suffix_Dir":" ","Ramp":" ","L_Zip":"33130","R_Zip":"33130","Shield_Typ":" ","Shield_Num":" ","In_Miami":1,"Jurisd_Cod":"C","Rd_Class":3,"Rd_Status":2,"One_Way":" ","Speed_Limi":35,"F_ZLev":0,"T_ZLev":0,"ZLevel":0,"FT_Cost":298.07370284,"TF_Cost":298.07370284,"Alias01":" ","Alias02":" ","Alias03":" ","STC_ID":0,"MD_StreetI":0,"MD_Stree_1":900911,"MD_RdClass":"4","Date_In":1196380800000,"Date_Mod":1196380800000,"Edited_By":"SYSTEM","From_ST":"NW 2ND AVE & W FLAGLER ST","To_ST":"SW 1ST ST","Shape_Leng":298.073722985,"Shape__Length":101.37375958139663}},{"type":"Feature","id":8179,"geometry":{"type":"LineString","coordinates":[[-80.1956014142495,25.7750612794655],[-80.1977367794898,25.7749784556809]]},"properties":{"FID":8179,"St_SegID":8314,"L_Add_From":106,"L_Add_To":198,"R_Add_From":107,"R_Add_To":199,"Prefix_Dir":"NW","St_BName":"1","MD_St_BNam":"1ST","St_Type1":" ","St_Type2":"ST","St_Name":"1ST","St_Type":"ST","ARPS_St_Ty":"ST","St_Label":"NW 1ST ST","Suffix_Dir":" ","Ramp":" ","L_Zip":"33128","R_Zip":"33128","Shield_Typ":" ","Shield_Num":" ","In_Miami":1,"Jurisd_Cod":"M","Rd_Class":4,"Rd_Status":2,"One_Way":"FT","Speed_Limi":30,"F_ZLev":0,"T_ZLev":0,"ZLevel":0,"FT_Cost":703.39231633,"TF_Cost":-1,"Alias01":" ","Alias02":" ","Alias03":" ","STC_ID":0,"MD_StreetI":0,"MD_Stree_1":900841,"MD_RdClass":"5","Date_In":1196380800000,"Date_Mod":1334620800000,"Edited_By":"ykebede","From_ST":"NW 1ST AVE","To_ST":"NW 2ND AVE","Shape_Leng":703.392531642,"Shape__Length":237.9281665080305}},{"type":"Feature","id":8180,"geometry":{"type":"LineString","coordinates":[[-80.1955716418227,25.7740977920121],[-80.1956014142495,25.7750612794655]]},"properties":{"FID":8180,"St_SegID":8315,"L_Add_From":2,"L_Add_To":98,"R_Add_From":1,"R_Add_To":99,"Prefix_Dir":"NW","St_BName":"1","MD_St_BNam":"1ST","St_Type1":" ","St_Type2":"AVE","St_Name":"1ST","St_Type":"AVE","ARPS_St_Ty":"AV","St_Label":"NW 1ST AVE","Suffix_Dir":" ","Ramp":" ","L_Zip":"33128","R_Zip":"33128","Shield_Typ":" ","Shield_Num":" ","In_Miami":1,"Jurisd_Cod":"M","Rd_Class":4,"Rd_Status":2,"One_Way":" ","Speed_Limi":30,"F_ZLev":0,"T_ZLev":0,"ZLevel":0,"FT_Cost":350.33938772,"TF_Cost":350.33938772,"Alias01":" ","Alias02":" ","Alias03":" ","STC_ID":0,"MD_StreetI":0,"MD_Stree_1":900840,"MD_RdClass":"5","Date_In":1196380800000,"Date_Mod":1196380800000,"Edited_By":"SYSTEM","From_ST":"W FLAGLER ST & SW 1ST AVE","To_ST":"NW 1ST ST","Shape_Leng":350.33917051,"Shape__Length":119.15052207084591}},{"type":"Feature","id":8181,"geometry":{"type":"LineString","coordinates":[[-80.1946723922814,25.7741266928709],[-80.1947072237557,25.7750829564775]]},"properties":{"FID":8181,"St_SegID":8316,"L_Add_From":2,"L_Add_To":98,"R_Add_From":1,"R_Add_To":99,"Prefix_Dir":"NW","St_BName":"MIAMI","MD_St_BNam":"MIAMI","St_Type1":" ","St_Type2":"CT","St_Name":"MIAMI","St_Type":"CT","ARPS_St_Ty":"CT","St_Label":"NW MIAMI CT","Suffix_Dir":" ","Ramp":" ","L_Zip":"33128","R_Zip":"33128","Shield_Typ":" ","Shield_Num":" ","In_Miami":1,"Jurisd_Cod":"M","Rd_Class":4,"Rd_Status":2,"One_Way":" ","Speed_Limi":30,"F_ZLev":0,"T_ZLev":0,"ZLevel":0,"FT_Cost":347.76552733,"TF_Cost":347.76552733,"Alias01":" ","Alias02":" ","Alias03":" ","STC_ID":0,"MD_StreetI":0,"MD_Stree_1":900973,"MD_RdClass":"5","Date_In":1196380800000,"Date_Mod":1196380800000,"Edited_By":"SYSTEM","From_ST":"W FLAGLER ST","To_ST":"NW 1ST ST","Shape_Leng":347.765490221,"Shape__Length":118.27502064708693}},{"type":"Feature","id":8182,"geometry":{"type":"LineString","coordinates":[[-80.1956014142495,25.7750612794655],[-80.1955931817695,25.7751301249103],[-80.1955797045347,25.7751982890571],[-80.1955610472201,25.7752654447523],[-80.195537299363,25.7753312696817],[-80.1954849119655,25.7754506453848],[-80.1954269234087,25.7755678790688],[-80.1953634401881,25.7756827554023]]},"properties":{"FID":8182,"St_SegID":8317,"L_Add_From":100,"L_Add_To":148,"R_Add_From":101,"R_Add_To":149,"Prefix_Dir":"NW","St_BName":"1","MD_St_BNam":"1ST","St_Type1":" ","St_Type2":"AVE","St_Name":"1ST","St_Type":"AVE","ARPS_St_Ty":"AV","St_Label":"NW 1ST AVE","Suffix_Dir":" ","Ramp":" ","L_Zip":"33128","R_Zip":"33128","Shield_Typ":" ","Shield_Num":" ","In_Miami":1,"Jurisd_Cod":"M","Rd_Class":4,"Rd_Status":2,"One_Way":" ","Speed_Limi":30,"F_ZLev":0,"T_ZLev":0,"ZLevel":0,"FT_Cost":240.7787472,"TF_Cost":240.7787472,"Alias01":" ","Alias02":" ","Alias03":" ","STC_ID":0,"MD_StreetI":0,"MD_Stree_1":900850,"MD_RdClass":"5","Date_In":1196380800000,"Date_Mod":1196380800000,"Edited_By":"SYSTEM","From_ST":"NW 1ST ST","To_ST":"N MIAMI CT","Shape_Leng":240.778752807,"Shape__Length":81.826773142524118}},{"type":"Feature","id":8183,"geometry":{"type":"LineString","coordinates":[[-80.1947072237557,25.7750829564775],[-80.1951385714559,25.7750713139521]]},"properties":{"FID":8183,"St_SegID":8318,"L_Add_From":50,"L_Add_To":98,"R_Add_From":51,"R_Add_To":99,"Prefix_Dir":"NW","St_BName":"1","MD_St_BNam":"1ST","St_Type1":" ","St_Type2":"ST","St_Name":"1ST","St_Type":"ST","ARPS_St_Ty":"ST","St_Label":"NW 1ST ST","Suffix_Dir":" ","Ramp":" ","L_Zip":"33128","R_Zip":"33128","Shield_Typ":" ","Shield_Num":" ","In_Miami":1,"Jurisd_Cod":"M","Rd_Class":4,"Rd_Status":2,"One_Way":"FT","Speed_Limi":30,"F_ZLev":0,"T_ZLev":0,"ZLevel":0,"FT_Cost":142.01957268,"TF_Cost":-1,"Alias01":" ","Alias02":" ","Alias03":" ","STC_ID":0,"MD_StreetI":0,"MD_Stree_1":900974,"MD_RdClass":"5","Date_In":1196380800000,"Date_Mod":1334620800000,"Edited_By":"ykebede","From_ST":"NW MIAMI CT","To_ST":"N MIAMI CT","Shape_Leng":142.01943389,"Shape__Length":48.03897063958437}},{"type":"Feature","id":8184,"geometry":{"type":"LineString","coordinates":[[-80.1951385714559,25.7750713139521],[-80.1956014142495,25.7750612794655]]},"properties":{"FID":8184,"St_SegID":8319,"L_Add_From":100,"L_Add_To":104,"R_Add_From":101,"R_Add_To":105,"Prefix_Dir":"NW","St_BName":"1","MD_St_BNam":"1ST","St_Type1":" ","St_Type2":"ST","St_Name":"1ST","St_Type":"ST","ARPS_St_Ty":"ST","St_Label":"NW 1ST ST","Suffix_Dir":" ","Ramp":" ","L_Zip":"33128","R_Zip":"33128","Shield_Typ":" ","Shield_Num":" ","In_Miami":1,"Jurisd_Cod":"M","Rd_Class":4,"Rd_Status":2,"One_Way":"FT","Speed_Limi":30,"F_ZLev":0,"T_ZLev":0,"ZLevel":0,"FT_Cost":152.36516732,"TF_Cost":-1,"Alias01":" ","Alias02":" ","Alias03":" ","STC_ID":0,"MD_StreetI":0,"MD_Stree_1":900842,"MD_RdClass":"5","Date_In":1196380800000,"Date_Mod":1334620800000,"Edited_By":"ykebede","From_ST":"N MIAMI CT","To_ST":"NW 1ST AVE","Shape_Leng":152.365057278,"Shape__Length":51.538354100385419}},{"type":"Feature","id":8185,"geometry":{"type":"LineString","coordinates":[[-80.1953634401881,25.7756827554023],[-80.1953242015882,25.7757706088361],[-80.1952908435538,25.7758604320193],[-80.1952634858148,25.7759519025908],[-80.1952422265679,25.7760446922764]]},"properties":{"FID":8185,"St_SegID":8320,"L_Add_From":150,"L_Add_To":198,"R_Add_From":151,"R_Add_To":199,"Prefix_Dir":"NW","St_BName":"1","MD_St_BNam":"1ST","St_Type1":" ","St_Type2":"AVE","St_Name":"1ST","St_Type":"AVE","ARPS_St_Ty":"AV","St_Label":"NW 1ST AVE","Suffix_Dir":" ","Ramp":" ","L_Zip":"33128","R_Zip":"33128","Shield_Typ":" ","Shield_Num":" ","In_Miami":1,"Jurisd_Cod":"M","Rd_Class":4,"Rd_Status":2,"One_Way":" ","Speed_Limi":30,"F_ZLev":0,"T_ZLev":0,"ZLevel":0,"FT_Cost":137.79903922,"TF_Cost":137.79903922,"Alias01":" ","Alias02":" ","Alias03":" ","STC_ID":0,"MD_StreetI":0,"MD_Stree_1":908836,"MD_RdClass":"5","Date_In":1196380800000,"Date_Mod":1196380800000,"Edited_By":"SYSTEM","From_ST":"N MIAMI CT","To_ST":"NW 2ND ST","Shape_Leng":137.799123403,"Shape__Length":46.836892594252625}},{"type":"Feature","id":8187,"geometry":{"type":"LineString","coordinates":[[-80.1936401273046,25.7751202850281],[-80.1947072237557,25.7750829564775]]},"properties":{"FID":8187,"St_SegID":8322,"L_Add_From":2,"L_Add_To":48,"R_Add_From":1,"R_Add_To":49,"Prefix_Dir":"NW","St_BName":"1","MD_St_BNam":"1ST","St_Type1":" ","St_Type2":"ST","St_Name":"1ST","St_Type":"ST","ARPS_St_Ty":"ST","St_Label":"NW 1ST ST","Suffix_Dir":" ","Ramp":" ","L_Zip":"33128","R_Zip":"33128","Shield_Typ":" ","Shield_Num":" ","In_Miami":1,"Jurisd_Cod":"M","Rd_Class":4,"Rd_Status":2,"One_Way":"FT","Speed_Limi":30,"F_ZLev":0,"T_ZLev":0,"ZLevel":0,"FT_Cost":351.44275607,"TF_Cost":-1,"Alias01":" ","Alias02":" ","Alias03":" ","STC_ID":0,"MD_StreetI":0,"MD_Stree_1":908557,"MD_RdClass":"5","Date_In":1196380800000,"Date_Mod":1334620800000,"Edited_By":"ykebede","From_ST":"NE 1ST ST & N MIAMI AVE","To_ST":"NW MIAMI CT","Shape_Leng":351.443041621,"Shape__Length":118.87822801199715}},{"type":"Feature","id":8188,"geometry":{"type":"LineString","coordinates":[[-80.1936401273046,25.7751202850281],[-80.191968287689,25.775180059288]]},"properties":{"FID":8188,"St_SegID":8323,"L_Add_From":1,"L_Add_To":99,"R_Add_From":2,"R_Add_To":98,"Prefix_Dir":"NE","St_BName":"1","MD_St_BNam":"1ST","St_Type1":" ","St_Type2":"ST","St_Name":"1ST","St_Type":"ST","ARPS_St_Ty":"ST","St_Label":"NE 1ST ST","Suffix_Dir":" ","Ramp":" ","L_Zip":"33132","R_Zip":"33132","Shield_Typ":" ","Shield_Num":" ","In_Miami":1,"Jurisd_Cod":"M","Rd_Class":4,"Rd_Status":2,"One_Way":"TF","Speed_Limi":30,"F_ZLev":0,"T_ZLev":0,"ZLevel":0,"FT_Cost":-1,"TF_Cost":550.63063189,"Alias01":" ","Alias02":" ","Alias03":" ","STC_ID":0,"MD_StreetI":0,"MD_Stree_1":908558,"MD_RdClass":"5","Date_In":1196380800000,"Date_Mod":1334620800000,"Edited_By":"ykebede","From_ST":"NW 1ST ST & N MIAMI AVE","To_ST":"NE 1ST AVE","Shape_Leng":550.630512118,"Shape__Length":186.25496688940189}},{"type":"Feature","id":8189,"geometry":{"type":"LineString","coordinates":[[-80.1936401273046,25.7751202850281],[-80.1936798225588,25.7760826007471]]},"properties":{"FID":8189,"St_SegID":8324,"L_Add_From":100,"L_Add_To":198,"R_Add_From":101,"R_Add_To":199,"Prefix_Dir":"N","St_BName":"MIAMI","MD_St_BNam":"MIAMI","St_Type1":" ","St_Type2":"AVE","St_Name":"MIAMI","St_Type":"AVE","ARPS_St_Ty":"AV","St_Label":"N MIAMI AVE","Suffix_Dir":" ","Ramp":" ","L_Zip":"33128","R_Zip":"33128","Shield_Typ":" ","Shield_Num":" ","In_Miami":1,"Jurisd_Cod":"C","Rd_Class":2,"Rd_Status":2,"One_Way":"TF","Speed_Limi":40,"F_ZLev":0,"T_ZLev":0,"ZLevel":0,"FT_Cost":-1,"TF_Cost":350.02036757,"Alias01":" ","Alias02":" ","Alias03":" ","STC_ID":0,"MD_StreetI":0,"MD_Stree_1":908559,"MD_RdClass":"2","Date_In":1196380800000,"Date_Mod":1196380800000,"Edited_By":"SYSTEM","From_ST":"NE 1ST ST & NW 1ST ST","To_ST":"NE 2ND ST & NW 2ND ST","Shape_Leng":350.02028671,"Shape__Length":119.04263823808061}},{"type":"Feature","id":8203,"geometry":{"type":"LineString","coordinates":[[-80.1936062725362,25.7741530875233],[-80.1946723922814,25.7741266928709]]},"properties":{"FID":8203,"St_SegID":8338,"L_Add_From":2,"L_Add_To":48,"R_Add_From":1,"R_Add_To":49,"Prefix_Dir":"W","St_BName":"FLAGLER","MD_St_BNam":"FLAGLER","St_Type1":" ","St_Type2":"ST","St_Name":"FLAGLER","St_Type":"ST","ARPS_St_Ty":"ST","St_Label":"W FLAGLER ST","Suffix_Dir":" ","Ramp":" ","L_Zip":"33130","R_Zip":"33130","Shield_Typ":" ","Shield_Num":" ","In_Miami":1,"Jurisd_Cod":"M","Rd_Class":2,"Rd_Status":2,"One_Way":" ","Speed_Limi":45,"F_ZLev":0,"T_ZLev":0,"ZLevel":0,"FT_Cost":350.99358076,"TF_Cost":350.99358076,"Alias01":" ","Alias02":" ","Alias03":" ","STC_ID":0,"MD_StreetI":0,"MD_Stree_1":908548,"MD_RdClass":"2","Date_In":1196380800000,"Date_Mod":1334620800000,"Edited_By":"ykebede","From_ST":"S MIAMI AVE & N MIAMI AVE & E FLAGLER ST","To_ST":"NW MIAMI CT","Shape_Leng":350.993575341,"Shape__Length":118.72475102755298}},{"type":"Feature","id":8204,"geometry":{"type":"LineString","coordinates":[[-80.1936062725362,25.7741530875233],[-80.1919254602455,25.77419990664]]},"properties":{"FID":8204,"St_SegID":8339,"L_Add_From":1,"L_Add_To":99,"R_Add_From":2,"R_Add_To":98,"Prefix_Dir":"E","St_BName":"FLAGLER","MD_St_BNam":"FLAGLER","St_Type1":" ","St_Type2":"ST","St_Name":"FLAGLER","St_Type":"ST","ARPS_St_Ty":"ST","St_Label":"E FLAGLER ST","Suffix_Dir":" ","Ramp":" ","L_Zip":"33131","R_Zip":"33131","Shield_Typ":" ","Shield_Num":" ","In_Miami":1,"Jurisd_Cod":"M","Rd_Class":2,"Rd_Status":2,"One_Way":" ","Speed_Limi":45,"F_ZLev":0,"T_ZLev":0,"ZLevel":0,"FT_Cost":553.42073796,"TF_Cost":553.42073796,"Alias01":" ","Alias02":" ","Alias03":" ","STC_ID":0,"MD_StreetI":0,"MD_Stree_1":908549,"MD_RdClass":"2","Date_In":1196380800000,"Date_Mod":1334620800000,"Edited_By":"ykebede","From_ST":"S MIAMI AVE & W FLAGLER ST & N MIAMI AVE","To_ST":"SE 1ST AVE & NE 1ST AVE","Shape_Leng":553.420840168,"Shape__Length":187.19666004038598}},{"type":"Feature","id":8205,"geometry":{"type":"LineString","coordinates":[[-80.1936062725362,25.7741530875233],[-80.1936401273046,25.7751202850281]]},"properties":{"FID":8205,"St_SegID":8340,"L_Add_From":2,"L_Add_To":98,"R_Add_From":1,"R_Add_To":99,"Prefix_Dir":"N","St_BName":"MIAMI","MD_St_BNam":"MIAMI","St_Type1":" ","St_Type2":"AVE","St_Name":"MIAMI","St_Type":"AVE","ARPS_St_Ty":"AV","St_Label":"N MIAMI AVE","Suffix_Dir":" ","Ramp":" ","L_Zip":"33128","R_Zip":"33128","Shield_Typ":" ","Shield_Num":" ","In_Miami":1,"Jurisd_Cod":"C","Rd_Class":2,"Rd_Status":2,"One_Way":"TF","Speed_Limi":40,"F_ZLev":0,"T_ZLev":0,"ZLevel":0,"FT_Cost":-1,"TF_Cost":351.72729171,"Alias01":" ","Alias02":" ","Alias03":" ","STC_ID":0,"MD_StreetI":0,"MD_Stree_1":908556,"MD_RdClass":"2","Date_In":1196380800000,"Date_Mod":1196380800000,"Edited_By":"SYSTEM","From_ST":"S MIAMI AVE & W FLAGLER ST & E FLAGLER ST","To_ST":"NE 1ST ST & NW 1ST ST","Shape_Leng":351.727285443,"Shape__Length":119.62248687706619}},{"type":"Feature","id":9847,"geometry":{"type":"LineString","coordinates":[[-80.1935737262248,25.7733088651838],[-80.1935519118732,25.7728346877405]]},"properties":{"FID":9847,"St_SegID":9205,"L_Add_From":101,"L_Add_To":149,"R_Add_From":100,"R_Add_To":150,"Prefix_Dir":"S","St_BName":"MIAMI","MD_St_BNam":"MIAMI","St_Type1":" ","St_Type2":"AVE","St_Name":"MIAMI","St_Type":"AVE","ARPS_St_Ty":"AV","St_Label":"S MIAMI AVE","Suffix_Dir":" ","Ramp":" ","L_Zip":"33130","R_Zip":"33130","Shield_Typ":" ","Shield_Num":" ","In_Miami":1,"Jurisd_Cod":"C","Rd_Class":2,"Rd_Status":2,"One_Way":"FT","Speed_Limi":40,"F_ZLev":0,"T_ZLev":0,"ZLevel":0,"FT_Cost":172.50062948,"TF_Cost":-1,"Alias01":" ","Alias02":" ","Alias03":" ","STC_ID":0,"MD_StreetI":0,"MD_Stree_1":908544,"MD_RdClass":"2","Date_In":1196380800000,"Date_Mod":1196380800000,"Edited_By":"SYSTEM","From_ST":"SW 1ST ST & SE 1ST ST","To_ST":"S MIAMI AVE","Shape_Leng":172.500414554,"Shape__Length":58.666415505667736}},{"type":"Feature","id":9848,"geometry":{"type":"LineString","coordinates":[[-80.1936062725362,25.7741530875233],[-80.1935737262248,25.7733088651838]]},"properties":{"FID":9848,"St_SegID":9206,"L_Add_From":1,"L_Add_To":99,"R_Add_From":2,"R_Add_To":98,"Prefix_Dir":"S","St_BName":"MIAMI","MD_St_BNam":"MIAMI","St_Type1":" ","St_Type2":"AVE","St_Name":"MIAMI","St_Type":"AVE","ARPS_St_Ty":"AV","St_Label":"S MIAMI AVE","Suffix_Dir":" ","Ramp":" ","L_Zip":"33130","R_Zip":"33130","Shield_Typ":" ","Shield_Num":" ","In_Miami":1,"Jurisd_Cod":"C","Rd_Class":2,"Rd_Status":2,"One_Way":"FT","Speed_Limi":40,"F_ZLev":0,"T_ZLev":0,"ZLevel":0,"FT_Cost":307.03938274,"TF_Cost":-1,"Alias01":" ","Alias02":" ","Alias03":" ","STC_ID":0,"MD_StreetI":0,"MD_Stree_1":908547,"MD_RdClass":"2","Date_In":1196380800000,"Date_Mod":1196380800000,"Edited_By":"SYSTEM","From_ST":"W FLAGLER ST & N MIAMI AVE & E FLAGLER ST","To_ST":"SW 1ST ST & SE 1ST ST","Shape_Leng":307.039396835,"Shape__Length":104.42322547403592}},{"type":"Feature","id":9849,"geometry":{"type":"LineString","coordinates":[[-80.1935737262248,25.7733088651838],[-80.1918986872582,25.7733631540438]]},"properties":{"FID":9849,"St_SegID":9207,"L_Add_From":1,"L_Add_To":99,"R_Add_From":2,"R_Add_To":98,"Prefix_Dir":"SE","St_BName":"1","MD_St_BNam":"1ST","St_Type1":" ","St_Type2":"ST","St_Name":"1ST","St_Type":"ST","ARPS_St_Ty":"ST","St_Label":"SE 1ST ST","Suffix_Dir":" ","Ramp":" ","L_Zip":"33131","R_Zip":"33131","Shield_Typ":" ","Shield_Num":" ","In_Miami":1,"Jurisd_Cod":"M","Rd_Class":2,"Rd_Status":2,"One_Way":"FT","Speed_Limi":40,"F_ZLev":0,"T_ZLev":0,"ZLevel":0,"FT_Cost":551.61589365,"TF_Cost":-1,"Alias01":"CBD TERMINAL OP FEDE","Alias02":" ","Alias03":" ","STC_ID":0,"MD_StreetI":0,"MD_Stree_1":908546,"MD_RdClass":"2","Date_In":1196380800000,"Date_Mod":1334620800000,"Edited_By":"ykebede","From_ST":"SW 1ST ST & S MIAMI AVE","To_ST":"SE 1ST AVE","Shape_Leng":551.616062481,"Shape__Length":186.58521317013486}},{"type":"Feature","id":9850,"geometry":{"type":"LineString","coordinates":[[-80.1976301655214,25.7723874606761],[-80.1976144791357,25.7714421695811]]},"properties":{"FID":9850,"St_SegID":9208,"L_Add_From":201,"L_Add_To":299,"R_Add_From":200,"R_Add_To":298,"Prefix_Dir":"SW","St_BName":"2","MD_St_BNam":"2ND","St_Type1":" ","St_Type2":"AVE","St_Name":"2ND","St_Type":"AVE","ARPS_St_Ty":"AV","St_Label":"SW 2ND AVE","Suffix_Dir":" ","Ramp":" ","L_Zip":"33130","R_Zip":"33130","Shield_Typ":" ","Shield_Num":" ","In_Miami":1,"Jurisd_Cod":"C","Rd_Class":3,"Rd_Status":2,"One_Way":" ","Speed_Limi":35,"F_ZLev":0,"T_ZLev":0,"ZLevel":0,"FT_Cost":343.62658339,"TF_Cost":343.62658339,"Alias01":" ","Alias02":" ","Alias03":" ","STC_ID":0,"MD_StreetI":0,"MD_Stree_1":900070,"MD_RdClass":"4","Date_In":1196380800000,"Date_Mod":1196380800000,"Edited_By":"SYSTEM","From_ST":"SW 2ND ST","To_ST":"SW 3RD ST","Shape_Leng":343.626753057,"Shape__Length":116.86544363745571}},{"type":"Feature","id":9851,"geometry":{"type":"LineString","coordinates":[[-80.1976144791357,25.7714421695811],[-80.1986243942234,25.7714110035863],[-80.1986249504091,25.7714111646129],[-80.1987251490348,25.7714402346898]]},"properties":{"FID":9851,"St_SegID":9209,"L_Add_From":200,"L_Add_To":298,"R_Add_From":201,"R_Add_To":299,"Prefix_Dir":"SW","St_BName":"3","MD_St_BNam":"3RD","St_Type1":" ","St_Type2":"ST","St_Name":"3RD","St_Type":"ST","ARPS_St_Ty":"ST","St_Label":"SW 3RD ST","Suffix_Dir":" ","Ramp":" ","L_Zip":"33130","R_Zip":"33130","Shield_Typ":" ","Shield_Num":" ","In_Miami":1,"Jurisd_Cod":"M","Rd_Class":4,"Rd_Status":2,"One_Way":" ","Speed_Limi":30,"F_ZLev":0,"T_ZLev":0,"ZLevel":0,"FT_Cost":367.38543642,"TF_Cost":367.38543642,"Alias01":" ","Alias02":" ","Alias03":" ","STC_ID":0,"MD_StreetI":0,"MD_Stree_1":900681,"MD_RdClass":"5","Date_In":1196380800000,"Date_Mod":1196380800000,"Edited_By":"SYSTEM","From_ST":"SW 2ND AVE","To_ST":"SW NORTH RIVER DR","Shape_Leng":367.385573984,"Shape__Length":124.27288761793713}},{"type":"Feature","id":9852,"geometry":{"type":"LineString","coordinates":[[-80.1962098588288,25.7714900586948],[-80.1976144791357,25.7714421695811]]},"properties":{"FID":9852,"St_SegID":9210,"L_Add_From":136,"L_Add_To":198,"R_Add_From":137,"R_Add_To":199,"Prefix_Dir":"SW","St_BName":"3","MD_St_BNam":"3RD","St_Type1":" ","St_Type2":"ST","St_Name":"3RD","St_Type":"ST","ARPS_St_Ty":"ST","St_Label":"SW 3RD ST","Suffix_Dir":" ","Ramp":" ","L_Zip":"33130","R_Zip":"33130","Shield_Typ":" ","Shield_Num":" ","In_Miami":1,"Jurisd_Cod":"M","Rd_Class":4,"Rd_Status":2,"One_Way":" ","Speed_Limi":30,"F_ZLev":0,"T_ZLev":0,"ZLevel":0,"FT_Cost":462.60145261,"TF_Cost":462.60145261,"Alias01":" ","Alias02":" ","Alias03":" ","STC_ID":0,"MD_StreetI":0,"MD_Stree_1":900838,"MD_RdClass":"5","Date_In":1196380800000,"Date_Mod":1196380800000,"Edited_By":"SYSTEM","From_ST":"SW 1ST AVE","To_ST":"SW 2ND AVE","Shape_Leng":462.601441379,"Shape__Length":156.47363813998717}},{"type":"Feature","id":9853,"geometry":{"type":"LineString","coordinates":[[-80.1957226286165,25.7715032218777],[-80.1962098588288,25.7714900586948]]},"properties":{"FID":9853,"St_SegID":9211,"L_Add_From":100,"L_Add_To":134,"R_Add_From":101,"R_Add_To":135,"Prefix_Dir":"SW","St_BName":"3","MD_St_BNam":"3RD","St_Type1":" ","St_Type2":"ST","St_Name":"3RD","St_Type":"ST","ARPS_St_Ty":"ST","St_Label":"SW 3RD ST","Suffix_Dir":" ","Ramp":" ","L_Zip":"33130","R_Zip":"33130","Shield_Typ":" ","Shield_Num":" ","In_Miami":1,"Jurisd_Cod":"M","Rd_Class":4,"Rd_Status":2,"One_Way":" ","Speed_Limi":30,"F_ZLev":0,"T_ZLev":0,"ZLevel":0,"FT_Cost":160.42354024,"TF_Cost":160.42354024,"Alias01":" ","Alias02":" ","Alias03":" ","STC_ID":0,"MD_StreetI":0,"MD_Stree_1":900839,"MD_RdClass":"5","Date_In":1196380800000,"Date_Mod":1196380800000,"Edited_By":"SYSTEM","From_ST":"SW 3RD ST","To_ST":"SW 1ST AVE","Shape_Leng":160.423429063,"Shape__Length":54.2626213834416}},{"type":"Feature","id":9854,"geometry":{"type":"LineString","coordinates":[[-80.1935519118732,25.7728346877405],[-80.1935882604125,25.7727973325107],[-80.1936298199044,25.7727647352677],[-80.1936758374858,25.7727374865178],[-80.1937254795361,25.772716079878],[-80.1937778467784,25.7727009031338],[-80.1939335522143,25.7726777849694],[-80.1940901064334,25.7726599761516],[-80.1942472886955,25.7726475017912]]},"properties":{"FID":9854,"St_SegID":9212,"L_Add_From":0,"L_Add_To":0,"R_Add_From":0,"R_Add_To":0,"Prefix_Dir":" ","St_BName":"I 95","MD_St_BNam":"I 95","St_Type1":" ","St_Type2":" ","St_Name":"I 95","St_Type":" ","ARPS_St_Ty":" ","St_Label":"I 95 ON RAMP W","Suffix_Dir":"W","Ramp":"ON RAMP","L_Zip":"33130","R_Zip":"33130","Shield_Typ":" ","Shield_Num":" ","In_Miami":1,"Jurisd_Cod":"S","Rd_Class":0,"Rd_Status":2,"One_Way":"FT","Speed_Limi":25,"F_ZLev":0,"T_ZLev":1,"ZLevel":0,"FT_Cost":246.34013704,"TF_Cost":-1,"Alias01":" ","Alias02":" ","Alias03":" ","STC_ID":0,"MD_StreetI":0,"MD_Stree_1":906988,"MD_RdClass":"0","Date_In":1196380800000,"Date_Mod":1196380800000,"Edited_By":"SYSTEM","From_ST":" ","To_ST":" ","Shape_Leng":246.340091922,"Shape__Length":83.355091111987434}},{"type":"Feature","id":9855,"geometry":{"type":"LineString","coordinates":[[-80.1935191871094,25.7717889277105],[-80.1937524495218,25.7718219555816],[-80.1945008796687,25.7719356357873],[-80.1947567704052,25.7719739820576],[-80.1950902935216,25.7720251497724],[-80.1953658877432,25.7720680422889],[-80.1956255605934,25.7721267564056],[-80.1957494101539,25.7721524966827]]},"properties":{"FID":9855,"St_SegID":9213,"L_Add_From":0,"L_Add_To":0,"R_Add_From":0,"R_Add_To":0,"Prefix_Dir":" ","St_BName":"I 95","MD_St_BNam":"I 95","St_Type1":" ","St_Type2":" ","St_Name":"I 95","St_Type":" ","ARPS_St_Ty":" ","St_Label":"I 95 OFF RAMP S","Suffix_Dir":"S","Ramp":"OFF RAMP","L_Zip":"33130","R_Zip":"33130","Shield_Typ":" ","Shield_Num":" ","In_Miami":1,"Jurisd_Cod":"S","Rd_Class":0,"Rd_Status":2,"One_Way":"TF","Speed_Limi":25,"F_ZLev":1,"T_ZLev":0,"ZLevel":0,"FT_Cost":-1,"TF_Cost":746.08403699,"Alias01":" ","Alias02":" ","Alias03":" ","STC_ID":0,"MD_StreetI":0,"MD_Stree_1":900726,"MD_RdClass":"0","Date_In":1196380800000,"Date_Mod":1196380800000,"Edited_By":"SYSTEM","From_ST":" ","To_ST":" ","Shape_Leng":746.083938924,"Shape__Length":252.40421035848607}},{"type":"Feature","id":9856,"geometry":{"type":"LineString","coordinates":[[-80.193518109266,25.7718846721813],[-80.1939572894862,25.7719663742969],[-80.1945633595091,25.7720481819595],[-80.1950379709218,25.7721011045537]]},"properties":{"FID":9856,"St_SegID":9214,"L_Add_From":0,"L_Add_To":0,"R_Add_From":0,"R_Add_To":0,"Prefix_Dir":" ","St_BName":"I 95","MD_St_BNam":"I 95","St_Type1":" ","St_Type2":" ","St_Name":"I 95","St_Type":" ","ARPS_St_Ty":" ","St_Label":"I 95 ON RAMP W","Suffix_Dir":"W","Ramp":"ON RAMP","L_Zip":"33130","R_Zip":"33130","Shield_Typ":" ","Shield_Num":" ","In_Miami":1,"Jurisd_Cod":"S","Rd_Class":0,"Rd_Status":2,"One_Way":"FT","Speed_Limi":25,"F_ZLev":1,"T_ZLev":1,"ZLevel":0,"FT_Cost":506.60207127,"TF_Cost":-1,"Alias01":" ","Alias02":" ","Alias03":" ","STC_ID":0,"MD_StreetI":0,"MD_Stree_1":906983,"MD_RdClass":"0","Date_In":1196380800000,"Date_Mod":1196380800000,"Edited_By":"SYSTEM","From_ST":" ","To_ST":" ","Shape_Leng":506.602238905,"Shape__Length":171.37970018420364}},{"type":"Feature","id":9857,"geometry":{"type":"LineString","coordinates":[[-80.1938105173043,25.7716884097012],[-80.1935249538689,25.7715984255151],[-80.1931789767867,25.7715017972303],[-80.192859881526,25.7714274429911],[-80.1926449952249,25.7714113257083],[-80.1924438071112,25.7714092409004],[-80.1922071532893,25.7714292471997]]},"properties":{"FID":9857,"St_SegID":9215,"L_Add_From":0,"L_Add_To":0,"R_Add_From":0,"R_Add_To":0,"Prefix_Dir":" ","St_BName":"I 95","MD_St_BNam":"I 95","St_Type1":" ","St_Type2":" ","St_Name":"I 95","St_Type":" ","ARPS_St_Ty":" ","St_Label":"I 95 OFF RAMP E","Suffix_Dir":"E","Ramp":"OFF RAMP","L_Zip":"33131","R_Zip":"33131","Shield_Typ":" ","Shield_Num":" ","In_Miami":1,"Jurisd_Cod":"S","Rd_Class":0,"Rd_Status":2,"One_Way":"FT","Speed_Limi":25,"F_ZLev":1,"T_ZLev":1,"ZLevel":0,"FT_Cost":542.51181014,"TF_Cost":-1,"Alias01":" ","Alias02":" ","Alias03":" ","STC_ID":0,"MD_StreetI":0,"MD_Stree_1":906984,"MD_RdClass":"0","Date_In":1196380800000,"Date_Mod":1196380800000,"Edited_By":"SYSTEM","From_ST":" ","To_ST":" ","Shape_Leng":542.51186351,"Shape__Length":183.55535131682754}},{"type":"Feature","id":9858,"geometry":{"type":"LineString","coordinates":[[-80.1948708161537,25.7726405488823],[-80.1955298900252,25.7727414353972],[-80.1955339746942,25.7727425700429],[-80.1962577885992,25.7729435829294],[-80.196370346489,25.772969120417],[-80.1965014904648,25.7729916110927],[-80.1967601282382,25.7730298751791],[-80.1970133670788,25.7730467838948],[-80.1973129182726,25.773049670403],[-80.1976607381189,25.7730409877748],[-80.1978900962208,25.7730176901161],[-80.1979907914898,25.7730003383127]]},"properties":{"FID":9858,"St_SegID":9216,"L_Add_From":0,"L_Add_To":0,"R_Add_From":0,"R_Add_To":0,"Prefix_Dir":" ","St_BName":"I 95","MD_St_BNam":"I 95","St_Type1":" ","St_Type2":" ","St_Name":"I 95","St_Type":" ","ARPS_St_Ty":" ","St_Label":"I 95 ON RAMP N","Suffix_Dir":"N","Ramp":"ON RAMP","L_Zip":"33130","R_Zip":"33130","Shield_Typ":" ","Shield_Num":" ","In_Miami":1,"Jurisd_Cod":"S","Rd_Class":0,"Rd_Status":2,"One_Way":"FT","Speed_Limi":25,"F_ZLev":1,"T_ZLev":1,"ZLevel":0,"FT_Cost":1045.2787809,"TF_Cost":-1,"Alias01":" ","Alias02":" ","Alias03":" ","STC_ID":0,"MD_StreetI":0,"MD_Stree_1":900631,"MD_RdClass":"0","Date_In":1196380800000,"Date_Mod":1196380800000,"Edited_By":"SYSTEM","From_ST":" ","To_ST":" ","Shape_Leng":1045.27869436,"Shape__Length":353.63145843682969}},{"type":"Feature","id":9859,"geometry":{"type":"LineString","coordinates":[[-80.1950379709218,25.7721011045537],[-80.1952705950559,25.7721279758166],[-80.1955828634376,25.7722044823338],[-80.1959480352036,25.7723612986685],[-80.1961138932203,25.7724406841863],[-80.1962486072058,25.7725120507686],[-80.1966172694795,25.7726873024137],[-80.1968915851806,25.7727997450867],[-80.1971123017955,25.7728445781692],[-80.1972971463536,25.7728638260036],[-80.1974929622717,25.7728456849306],[-80.1976478128692,25.7728228234377],[-80.197720173727,25.7728007346412],[-80.1978431241186,25.7727611081516],[-80.1979396351332,25.7727440537559]]},"properties":{"FID":9859,"St_SegID":9217,"L_Add_From":0,"L_Add_To":0,"R_Add_From":0,"R_Add_To":0,"Prefix_Dir":" ","St_BName":"I 95","MD_St_BNam":"I 95","St_Type1":" ","St_Type2":" ","St_Name":"I 95","St_Type":" ","ARPS_St_Ty":" ","St_Label":"I 95 ON RAMP S","Suffix_Dir":"S","Ramp":"ON RAMP","L_Zip":"33130","R_Zip":"33130","Shield_Typ":" ","Shield_Num":" ","In_Miami":1,"Jurisd_Cod":"S","Rd_Class":0,"Rd_Status":2,"One_Way":"FT","Speed_Limi":25,"F_ZLev":1,"T_ZLev":1,"ZLevel":0,"FT_Cost":1018.43667971,"TF_Cost":-1,"Alias01":" ","Alias02":" ","Alias03":" ","STC_ID":0,"MD_StreetI":0,"MD_Stree_1":900067,"MD_RdClass":"0","Date_In":1196380800000,"Date_Mod":1196380800000,"Edited_By":"SYSTEM","From_ST":" ","To_ST":" ","Shape_Leng":1018.43679343,"Shape__Length":344.70787146464818}},{"type":"Feature","id":9860,"geometry":{"type":"LineString","coordinates":[[-80.1955716418227,25.7740977920121],[-80.1955484764608,25.7732633369367]]},"properties":{"FID":9860,"St_SegID":9218,"L_Add_From":1,"L_Add_To":99,"R_Add_From":2,"R_Add_To":98,"Prefix_Dir":"SW","St_BName":"1","MD_St_BNam":"1ST","St_Type1":" ","St_Type2":"AVE","St_Name":"1ST","St_Type":"AVE","ARPS_St_Ty":"AV","St_Label":"SW 1ST AVE","Suffix_Dir":" ","Ramp":" ","L_Zip":"33130","R_Zip":"33130","Shield_Typ":" ","Shield_Num":" ","In_Miami":1,"Jurisd_Cod":"M","Rd_Class":4,"Rd_Status":2,"One_Way":" ","Speed_Limi":30,"F_ZLev":0,"T_ZLev":0,"ZLevel":0,"FT_Cost":303.39800509,"TF_Cost":303.39800509,"Alias01":" ","Alias02":" ","Alias03":" ","STC_ID":0,"MD_StreetI":0,"MD_Stree_1":900908,"MD_RdClass":"5","Date_In":1196380800000,"Date_Mod":1196380800000,"Edited_By":"SYSTEM","From_ST":"W FLAGLER ST & NW 1ST AVE","To_ST":"SW 1ST ST","Shape_Leng":303.398047701,"Shape__Length":103.18513805998634}},{"type":"Feature","id":9861,"geometry":{"type":"LineString","coordinates":[[-80.1935737262248,25.7733088651838],[-80.1955484764608,25.7732633369367]]},"properties":{"FID":9861,"St_SegID":9219,"L_Add_From":2,"L_Add_To":98,"R_Add_From":1,"R_Add_To":99,"Prefix_Dir":"SW","St_BName":"1","MD_St_BNam":"1ST","St_Type1":" ","St_Type2":"ST","St_Name":"1ST","St_Type":"ST","ARPS_St_Ty":"ST","St_Label":"SW 1ST ST","Suffix_Dir":" ","Ramp":" ","L_Zip":"33130","R_Zip":"33130","Shield_Typ":" ","Shield_Num":" ","In_Miami":1,"Jurisd_Cod":"M","Rd_Class":2,"Rd_Status":2,"One_Way":"TF","Speed_Limi":40,"F_ZLev":0,"T_ZLev":0,"ZLevel":0,"FT_Cost":-1,"TF_Cost":650.10995149,"Alias01":" ","Alias02":" ","Alias03":" ","STC_ID":0,"MD_StreetI":0,"MD_Stree_1":908545,"MD_RdClass":"2","Date_In":1196380800000,"Date_Mod":1334620800000,"Edited_By":"ykebede","From_ST":"SE 1ST ST & S MIAMI AVE","To_ST":"SW 1ST AVE","Shape_Leng":650.11004802,"Shape__Length":219.9002237149121}},{"type":"Feature","id":9862,"geometry":{"type":"LineString","coordinates":[[-80.1955484764608,25.7732633369367],[-80.1962597652834,25.7732426771948]]},"properties":{"FID":9862,"St_SegID":9220,"L_Add_From":100,"L_Add_To":122,"R_Add_From":101,"R_Add_To":123,"Prefix_Dir":"SW","St_BName":"1","MD_St_BNam":"1ST","St_Type1":" ","St_Type2":"ST","St_Name":"1ST","St_Type":"ST","ARPS_St_Ty":"ST","St_Label":"SW 1ST ST","Suffix_Dir":" ","Ramp":" ","L_Zip":"33130","R_Zip":"33130","Shield_Typ":" ","Shield_Num":" ","In_Miami":1,"Jurisd_Cod":"M","Rd_Class":2,"Rd_Status":2,"One_Way":"TF","Speed_Limi":40,"F_ZLev":0,"T_ZLev":0,"ZLevel":0,"FT_Cost":-1,"TF_Cost":234.20899506,"Alias01":" ","Alias02":" ","Alias03":" ","STC_ID":0,"MD_StreetI":0,"MD_Stree_1":900916,"MD_RdClass":"2","Date_In":1196380800000,"Date_Mod":1334620800000,"Edited_By":"ykebede","From_ST":"SW 1ST AVE","To_ST":"SW 1ST CT","Shape_Leng":234.208842767,"Shape__Length":79.221485475507365}},{"type":"Feature","id":9863,"geometry":{"type":"LineString","coordinates":[[-80.1948708161537,25.7726405488823],[-80.1951073870948,25.7726047613055],[-80.1953287153286,25.7726160994873],[-80.1955296884233,25.7726316187194],[-80.1955311890675,25.7726318707307],[-80.1956776911936,25.7726566838078],[-80.1958109528186,25.7726895717977],[-80.1960515638208,25.7727522056604],[-80.1962567806245,25.7728077519116],[-80.1964782862537,25.7728675788238],[-80.1967757660067,25.7729309343941],[-80.1970084239788,25.7729558994086],[-80.1972062962087,25.772955315797],[-80.1973599031484,25.7729377445085],[-80.1974827412761,25.7729124743706],[-80.1976550560473,25.7728722437888],[-80.1977894434078,25.772832572988],[-80.1979179407374,25.7727752841534],[-80.1979396351332,25.7727440537559]]},"properties":{"FID":9863,"St_SegID":9221,"L_Add_From":0,"L_Add_To":0,"R_Add_From":0,"R_Add_To":0,"Prefix_Dir":" ","St_BName":"I 95","MD_St_BNam":"I 95","St_Type1":" ","St_Type2":" ","St_Name":"I 95","St_Type":" ","ARPS_St_Ty":" ","St_Label":"I 95 ON RAMP S","Suffix_Dir":"S","Ramp":"ON RAMP","L_Zip":"33130","R_Zip":"33130","Shield_Typ":" ","Shield_Num":" ","In_Miami":1,"Jurisd_Cod":"S","Rd_Class":0,"Rd_Status":2,"One_Way":"FT","Speed_Limi":25,"F_ZLev":1,"T_ZLev":1,"ZLevel":0,"FT_Cost":1043.08657484,"TF_Cost":-1,"Alias01":" ","Alias02":" ","Alias03":" ","STC_ID":0,"MD_StreetI":0,"MD_Stree_1":900054,"MD_RdClass":"0","Date_In":1196380800000,"Date_Mod":1196380800000,"Edited_By":"SYSTEM","From_ST":" ","To_ST":" ","Shape_Leng":1043.08663749,"Shape__Length":352.93727509661829}},{"type":"Feature","id":10253,"geometry":{"type":"LineString","coordinates":[[-80.1979396351332,25.7727440537559],[-80.1981093730589,25.7726583536338],[-80.1982536689956,25.772563397271],[-80.1983817271557,25.7724489876476],[-80.1984565882771,25.7723633331243],[-80.1984945040243,25.772319952035],[-80.1985243397938,25.7722774633874],[-80.1986008596511,25.7721684934165],[-80.1986791444683,25.7720284151269],[-80.1987564435853,25.7718535368703],[-80.1988634186475,25.7715782377109],[-80.1989191017394,25.7714349342386],[-80.1989530409563,25.7713631066411],[-80.1989876702272,25.7713126260199],[-80.1990380581437,25.7712568450991],[-80.1990935183573,25.7712078773033],[-80.1991560956514,25.7711631766683]]},"properties":{"FID":10253,"St_SegID":12030,"L_Add_From":0,"L_Add_To":0,"R_Add_From":0,"R_Add_To":0,"Prefix_Dir":" ","St_BName":"I 95","MD_St_BNam":"I 95","St_Type1":" ","St_Type2":" ","St_Name":"I 95","St_Type":" ","ARPS_St_Ty":" ","St_Label":"I 95 ON RAMP S","Suffix_Dir":"S","Ramp":"ON RAMP","L_Zip":"33130","R_Zip":"33130","Shield_Typ":" ","Shield_Num":" ","In_Miami":1,"Jurisd_Cod":"S","Rd_Class":0,"Rd_Status":2,"One_Way":"FT","Speed_Limi":25,"F_ZLev":1,"T_ZLev":1,"ZLevel":0,"FT_Cost":721.65603408,"TF_Cost":-1,"Alias01":" ","Alias02":" ","Alias03":" ","STC_ID":0,"MD_StreetI":0,"MD_Stree_1":900710,"MD_RdClass":"0","Date_In":1196380800000,"Date_Mod":1196380800000,"Edited_By":"SYSTEM","From_ST":" ","To_ST":" ","Shape_Leng":721.65583405,"Shape__Length":244.97359907729196}},{"type":"Feature","id":11540,"geometry":{"type":"LineString","coordinates":[[-80.1991593043382,25.7742878716707],[-80.1990284598531,25.7739698372579],[-80.1988685338878,25.7735943540843],[-80.1988233911632,25.7734978992178],[-80.1987636883381,25.7733956846917],[-80.1986814170414,25.7733048077319],[-80.1985554026157,25.7731850812079],[-80.1984191332628,25.7731024376626],[-80.1982896005971,25.7730523797939],[-80.1981113222237,25.7730094016949],[-80.1979907914898,25.7730003383127]]},"properties":{"FID":11540,"St_SegID":11695,"L_Add_From":0,"L_Add_To":0,"R_Add_From":0,"R_Add_To":0,"Prefix_Dir":" ","St_BName":"I 95","MD_St_BNam":"I 95","St_Type1":" ","St_Type2":" ","St_Name":"I 95","St_Type":" ","ARPS_St_Ty":" ","St_Label":"I 95 ON RAMP N","Suffix_Dir":"N","Ramp":"ON RAMP","L_Zip":"33130","R_Zip":"33130","Shield_Typ":" ","Shield_Num":" ","In_Miami":1,"Jurisd_Cod":"S","Rd_Class":0,"Rd_Status":2,"One_Way":"TF","Speed_Limi":25,"F_ZLev":0,"T_ZLev":1,"ZLevel":0,"FT_Cost":-1,"TF_Cost":653.40850256,"Alias01":" ","Alias02":" ","Alias03":" ","STC_ID":0,"MD_StreetI":0,"MD_Stree_1":900044,"MD_RdClass":"0","Date_In":1196380800000,"Date_Mod":1196380800000,"Edited_By":"SYSTEM","From_ST":" ","To_ST":" ","Shape_Leng":653.40879129,"Shape__Length":221.72983891730212}},{"type":"Feature","id":11826,"geometry":{"type":"LineString","coordinates":[[-80.193518109266,25.7718846721813],[-80.1928923719641,25.771734047695],[-80.1925592333991,25.7716831930332],[-80.1922170306971,25.7716527485771],[-80.1918611601124,25.7716637448152],[-80.1918204241744,25.7716650034585],[-80.1914054891809,25.7716890821371],[-80.1912712742023,25.7717001053805],[-80.1911377207143,25.7717164372943],[-80.1910050847028,25.7717380465744],[-80.1908736203954,25.771764891801],[-80.1907435797745,25.7717969215187],[-80.1906152120939,25.7718340743347],[-80.1904887634017,25.7718762790365],[-80.190420186423,25.7719075834729],[-80.1903541029936,25.7719430131178],[-80.1902908153419,25.7719824059371],[-80.1902306129109,25.7720255817711],[-80.1901737710345,25.7720723431587]]},"properties":{"FID":11826,"St_SegID":10795,"L_Add_From":0,"L_Add_To":0,"R_Add_From":0,"R_Add_To":0,"Prefix_Dir":" ","St_BName":"I 95","MD_St_BNam":"I 95","St_Type1":" ","St_Type2":" ","St_Name":"I 95","St_Type":" ","ARPS_St_Ty":" ","St_Label":"I 95 ON RAMP E","Suffix_Dir":"E","Ramp":"ON RAMP","L_Zip":"33131","R_Zip":"33131","Shield_Typ":" ","Shield_Num":" ","In_Miami":1,"Jurisd_Cod":"S","Rd_Class":0,"Rd_Status":2,"One_Way":"TF","Speed_Limi":25,"F_ZLev":0,"T_ZLev":1,"ZLevel":0,"FT_Cost":-1,"TF_Cost":1141.77562198,"Alias01":" ","Alias02":" ","Alias03":" ","STC_ID":0,"MD_StreetI":0,"MD_Stree_1":906980,"MD_RdClass":"0","Date_In":1196380800000,"Date_Mod":1196380800000,"Edited_By":"SYSTEM","From_ST":" ","To_ST":" ","Shape_Leng":1141.77565006,"Shape__Length":386.32619595053688}},{"type":"Feature","id":12989,"geometry":{"type":"LineString","coordinates":[[-80.1994415291015,25.7723135151809],[-80.1991073598625,25.7719118959308],[-80.1989640597847,25.7717135223151],[-80.1988645812215,25.771579397699],[-80.1988634186475,25.7715782377109],[-80.1987251490348,25.7714402346898]]},"properties":{"FID":12989,"St_SegID":13161,"L_Add_From":201,"L_Add_To":399,"R_Add_From":200,"R_Add_To":398,"Prefix_Dir":"SW","St_BName":"NORTH RIVER","MD_St_BNam":"NORTH RIVER","St_Type1":" ","St_Type2":"DR","St_Name":"NORTH RIVER","St_Type":"DR","ARPS_St_Ty":"DR","St_Label":"SW NORTH RIVER DR","Suffix_Dir":" ","Ramp":" ","L_Zip":"33130","R_Zip":"33130","Shield_Typ":" ","Shield_Num":" ","In_Miami":1,"Jurisd_Cod":"M","Rd_Class":4,"Rd_Status":2,"One_Way":" ","Speed_Limi":30,"F_ZLev":0,"T_ZLev":0,"ZLevel":0,"FT_Cost":395.94623143,"TF_Cost":395.94623143,"Alias01":" ","Alias02":" ","Alias03":" ","STC_ID":0,"MD_StreetI":0,"MD_Stree_1":900638,"MD_RdClass":"5","Date_In":1196380800000,"Date_Mod":1196380800000,"Edited_By":"SYSTEM","From_ST":"SW 2ND ST","To_ST":"SW 3RD ST","Shape_Leng":395.946032413,"Shape__Length":134.39872921765382}},{"type":"Feature","id":12990,"geometry":{"type":"LineString","coordinates":[[-80.1976301655214,25.7723874606761],[-80.198002138668,25.7723768279481],[-80.1980030011559,25.7723768038165],[-80.1984565882771,25.7723633331243],[-80.1984598278826,25.7723632363309],[-80.1985132111374,25.7723608900941],[-80.1989243119196,25.7723428196246],[-80.1991070284169,25.7723392308077],[-80.1993126294951,25.7723288741269],[-80.1994415291015,25.7723135151809]]},"properties":{"FID":12990,"St_SegID":13162,"L_Add_From":200,"L_Add_To":298,"R_Add_From":201,"R_Add_To":299,"Prefix_Dir":"SW","St_BName":"2","MD_St_BNam":"2ND","St_Type1":" ","St_Type2":"ST","St_Name":"2ND","St_Type":"ST","ARPS_St_Ty":"ST","St_Label":"SW 2ND ST","Suffix_Dir":" ","Ramp":" ","L_Zip":"33130","R_Zip":"33130","Shield_Typ":" ","Shield_Num":" ","In_Miami":1,"Jurisd_Cod":"M","Rd_Class":4,"Rd_Status":2,"One_Way":" ","Speed_Limi":30,"F_ZLev":0,"T_ZLev":0,"ZLevel":0,"FT_Cost":596.93896376,"TF_Cost":596.93896376,"Alias01":" ","Alias02":" ","Alias03":" ","STC_ID":0,"MD_StreetI":0,"MD_Stree_1":900062,"MD_RdClass":"5","Date_In":1196380800000,"Date_Mod":1196380800000,"Edited_By":"SYSTEM","From_ST":"SW 2ND AVE","To_ST":"SW NORTH RIVER DR","Shape_Leng":596.938787605,"Shape__Length":201.91585916400908}},{"type":"Feature","id":12991,"geometry":{"type":"LineString","coordinates":[[-80.1976644309149,25.7732035710294],[-80.1976607381189,25.7730409877748],[-80.1976592769535,25.7729678604901],[-80.1976550560473,25.7728722437888],[-80.1976478128692,25.7728228234377],[-80.1976455213127,25.7727130773466],[-80.1976411390621,25.7725559215304],[-80.1976410903057,25.7725551666454],[-80.1976301655214,25.7723874606761]]},"properties":{"FID":12991,"St_SegID":13163,"L_Add_From":101,"L_Add_To":199,"R_Add_From":100,"R_Add_To":198,"Prefix_Dir":"SW","St_BName":"2","MD_St_BNam":"2ND","St_Type1":" ","St_Type2":"AVE","St_Name":"2ND","St_Type":"AVE","ARPS_St_Ty":"AV","St_Label":"SW 2ND AVE","Suffix_Dir":" ","Ramp":" ","L_Zip":"33130","R_Zip":"33130","Shield_Typ":" ","Shield_Num":" ","In_Miami":1,"Jurisd_Cod":"C","Rd_Class":3,"Rd_Status":2,"One_Way":" ","Speed_Limi":35,"F_ZLev":0,"T_ZLev":0,"ZLevel":0,"FT_Cost":296.96796418,"TF_Cost":296.96796418,"Alias01":" ","Alias02":" ","Alias03":" ","STC_ID":0,"MD_StreetI":0,"MD_Stree_1":900912,"MD_RdClass":"4","Date_In":1196380800000,"Date_Mod":1196380800000,"Edited_By":"SYSTEM","From_ST":"SW 1ST ST","To_ST":"SW 2ND ST","Shape_Leng":296.968086622,"Shape__Length":100.99673833866959}},{"type":"Feature","id":12992,"geometry":{"type":"LineString","coordinates":[[-80.1962597652834,25.7732426771948],[-80.1962577885992,25.7729435829294],[-80.1962567806245,25.7728077519116],[-80.1962556430337,25.7727022591665],[-80.1962486072058,25.7725120507686],[-80.1962456591187,25.772435134967]]},"properties":{"FID":12992,"St_SegID":13164,"L_Add_From":101,"L_Add_To":199,"R_Add_From":100,"R_Add_To":198,"Prefix_Dir":"SW","St_BName":"1","MD_St_BNam":"1ST","St_Type1":" ","St_Type2":"CT","St_Name":"1ST","St_Type":"CT","ARPS_St_Ty":"CT","St_Label":"SW 1ST CT","Suffix_Dir":" ","Ramp":" ","L_Zip":"33130","R_Zip":"33130","Shield_Typ":" ","Shield_Num":" ","In_Miami":1,"Jurisd_Cod":"M","Rd_Class":4,"Rd_Status":2,"One_Way":" ","Speed_Limi":30,"F_ZLev":0,"T_ZLev":0,"ZLevel":0,"FT_Cost":293.5806659,"TF_Cost":293.5806659,"Alias01":" ","Alias02":" ","Alias03":" ","STC_ID":0,"MD_StreetI":0,"MD_Stree_1":900914,"MD_RdClass":"5","Date_In":1196380800000,"Date_Mod":1196380800000,"Edited_By":"SYSTEM","From_ST":"SW 1ST ST","To_ST":"SW 2ND ST & SW 1ST AVE","Shape_Leng":293.580552797,"Shape__Length":99.845661308087486}},{"type":"Feature","id":12993,"geometry":{"type":"LineString","coordinates":[[-80.1962456591187,25.772435134967],[-80.1962423643216,25.7723589276358],[-80.1962327869381,25.7722316795212],[-80.1962325299428,25.7722282453212],[-80.1962098588288,25.7714900586948]]},"properties":{"FID":12993,"St_SegID":13165,"L_Add_From":201,"L_Add_To":299,"R_Add_From":200,"R_Add_To":298,"Prefix_Dir":"SW","St_BName":"1","MD_St_BNam":"1ST","St_Type1":" ","St_Type2":"AVE","St_Name":"1ST","St_Type":"AVE","ARPS_St_Ty":"AV","St_Label":"SW 1ST AVE","Suffix_Dir":" ","Ramp":" ","L_Zip":"33130","R_Zip":"33130","Shield_Typ":" ","Shield_Num":" ","In_Miami":1,"Jurisd_Cod":"M","Rd_Class":4,"Rd_Status":2,"One_Way":" ","Speed_Limi":30,"F_ZLev":0,"T_ZLev":0,"ZLevel":0,"FT_Cost":343.74494091,"TF_Cost":343.74494091,"Alias01":" ","Alias02":" ","Alias03":" ","STC_ID":0,"MD_StreetI":0,"MD_Stree_1":901019,"MD_RdClass":"5","Date_In":1196380800000,"Date_Mod":1196380800000,"Edited_By":"SYSTEM","From_ST":"SW 1ST CT & SW 2ND ST","To_ST":"SW 3RD ST","Shape_Leng":343.745065195,"Shape__Length":116.90497154382125}},{"type":"Feature","id":12994,"geometry":{"type":"LineString","coordinates":[[-80.1955484764608,25.7732633369367],[-80.1955340414194,25.7727452413547],[-80.1955339746942,25.7727425700429],[-80.1955311972117,25.7726319935361],[-80.1955311890675,25.7726318707307],[-80.1955192370965,25.7724622941042]]},"properties":{"FID":12994,"St_SegID":13166,"L_Add_From":101,"L_Add_To":199,"R_Add_From":100,"R_Add_To":198,"Prefix_Dir":"SW","St_BName":"1","MD_St_BNam":"1ST","St_Type1":" ","St_Type2":"AVE","St_Name":"1ST","St_Type":"AVE","ARPS_St_Ty":"AV","St_Label":"SW 1ST AVE","Suffix_Dir":" ","Ramp":" ","L_Zip":"33130","R_Zip":"33130","Shield_Typ":" ","Shield_Num":" ","In_Miami":1,"Jurisd_Cod":"M","Rd_Class":4,"Rd_Status":2,"One_Way":" ","Speed_Limi":30,"F_ZLev":0,"T_ZLev":0,"ZLevel":0,"FT_Cost":291.35377778,"TF_Cost":291.35377778,"Alias01":" ","Alias02":" ","Alias03":" ","STC_ID":0,"MD_StreetI":0,"MD_Stree_1":900909,"MD_RdClass":"5","Date_In":1196380800000,"Date_Mod":1196380800000,"Edited_By":"SYSTEM","From_ST":"SW 1ST ST","To_ST":"SW 2ND ST","Shape_Leng":291.353772867,"Shape__Length":99.087846048720166}},{"type":"Feature","id":12995,"geometry":{"type":"LineString","coordinates":[[-80.1935373563105,25.7725191741337],[-80.1935371170065,25.7725191809314],[-80.1918649185542,25.7725610784281]]},"properties":{"FID":12995,"St_SegID":13167,"L_Add_From":1,"L_Add_To":99,"R_Add_From":2,"R_Add_To":98,"Prefix_Dir":"SE","St_BName":"2","MD_St_BNam":"2ND","St_Type1":" ","St_Type2":"ST","St_Name":"2ND","St_Type":"ST","ARPS_St_Ty":"ST","St_Label":"SE 2ND ST","Suffix_Dir":" ","Ramp":" ","L_Zip":"33131","R_Zip":"33131","Shield_Typ":" ","Shield_Num":" ","In_Miami":1,"Jurisd_Cod":"M","Rd_Class":4,"Rd_Status":2,"One_Way":"TF","Speed_Limi":30,"F_ZLev":0,"T_ZLev":0,"ZLevel":0,"FT_Cost":-1,"TF_Cost":550.62113873,"Alias01":" ","Alias02":" ","Alias03":" ","STC_ID":0,"MD_StreetI":0,"MD_Stree_1":901025,"MD_RdClass":"5","Date_In":1196380800000,"Date_Mod":1196380800000,"Edited_By":"SYSTEM","From_ST":"SW 2ND ST & S MIAMI AVE","To_ST":"SE 1ST AVE","Shape_Leng":550.621315429,"Shape__Length":186.24696903888773}},{"type":"Feature","id":12996,"geometry":{"type":"LineString","coordinates":[[-80.1935519118732,25.7728346877405],[-80.1935373563105,25.7725191741337]]},"properties":{"FID":12996,"St_SegID":13168,"L_Add_From":151,"L_Add_To":199,"R_Add_From":152,"R_Add_To":198,"Prefix_Dir":"S","St_BName":"MIAMI","MD_St_BNam":"MIAMI","St_Type1":" ","St_Type2":"AVE","St_Name":"MIAMI","St_Type":"AVE","ARPS_St_Ty":"AV","St_Label":"S MIAMI AVE","Suffix_Dir":" ","Ramp":" ","L_Zip":"33130","R_Zip":"33130","Shield_Typ":" ","Shield_Num":" ","In_Miami":1,"Jurisd_Cod":"C","Rd_Class":2,"Rd_Status":2,"One_Way":"FT","Speed_Limi":40,"F_ZLev":0,"T_ZLev":0,"ZLevel":0,"FT_Cost":114.78066529,"TF_Cost":-1,"Alias01":" ","Alias02":" ","Alias03":" ","STC_ID":0,"MD_StreetI":0,"MD_Stree_1":906967,"MD_RdClass":"2","Date_In":1196380800000,"Date_Mod":1196380800000,"Edited_By":"SYSTEM","From_ST":"S MIAMI AVE","To_ST":"SE 2ND ST & SW 2ND ST","Shape_Leng":114.780847594,"Shape__Length":39.036187204770179}},{"type":"Feature","id":12997,"geometry":{"type":"LineString","coordinates":[[-80.1935373563105,25.7725191741337],[-80.1955192370965,25.7724622941042]]},"properties":{"FID":12997,"St_SegID":13169,"L_Add_From":2,"L_Add_To":98,"R_Add_From":1,"R_Add_To":99,"Prefix_Dir":"SW","St_BName":"2","MD_St_BNam":"2ND","St_Type1":" ","St_Type2":"ST","St_Name":"2ND","St_Type":"ST","ARPS_St_Ty":"ST","St_Label":"SW 2ND ST","Suffix_Dir":" ","Ramp":" ","L_Zip":"33130","R_Zip":"33130","Shield_Typ":" ","Shield_Num":" ","In_Miami":1,"Jurisd_Cod":"M","Rd_Class":4,"Rd_Status":2,"One_Way":"FT","Speed_Limi":30,"F_ZLev":0,"T_ZLev":0,"ZLevel":0,"FT_Cost":652.57814499,"TF_Cost":-1,"Alias01":" ","Alias02":" ","Alias03":" ","STC_ID":0,"MD_StreetI":0,"MD_Stree_1":901027,"MD_RdClass":"5","Date_In":1196380800000,"Date_Mod":1196380800000,"Edited_By":"SYSTEM","From_ST":"SE 2ND ST & S MIAMI AVE","To_ST":"SW 1ST AVE","Shape_Leng":652.578023781,"Shape__Length":220.7339756312243}},{"type":"Feature","id":12998,"geometry":{"type":"LineString","coordinates":[[-80.1935373563105,25.7725191741337],[-80.1942472886955,25.7726475017912]]},"properties":{"FID":12998,"St_SegID":13170,"L_Add_From":0,"L_Add_To":0,"R_Add_From":0,"R_Add_To":0,"Prefix_Dir":" ","St_BName":"I 95","MD_St_BNam":"I 95","St_Type1":" ","St_Type2":" ","St_Name":"I 95","St_Type":" ","ARPS_St_Ty":" ","St_Label":"I 95 ON RAMP E","Suffix_Dir":"E","Ramp":"ON RAMP","L_Zip":"33130","R_Zip":"33130","Shield_Typ":" ","Shield_Num":" ","In_Miami":1,"Jurisd_Cod":"S","Rd_Class":0,"Rd_Status":2,"One_Way":"FT","Speed_Limi":25,"F_ZLev":0,"T_ZLev":1,"ZLevel":0,"FT_Cost":238.25384475,"TF_Cost":-1,"Alias01":" ","Alias02":" ","Alias03":" ","STC_ID":0,"MD_StreetI":0,"MD_Stree_1":906968,"MD_RdClass":"0","Date_In":1196380800000,"Date_Mod":1196380800000,"Edited_By":"SYSTEM","From_ST":" ","To_ST":" ","Shape_Leng":238.253825209,"Shape__Length":80.605693401440661}},{"type":"Feature","id":12999,"geometry":{"type":"LineString","coordinates":[[-80.1935237134253,25.7714772369205],[-80.1935287173158,25.7708866288638],[-80.1935314570791,25.7705783293216]]},"properties":{"FID":12999,"St_SegID":13171,"L_Add_From":0,"L_Add_To":0,"R_Add_From":314,"R_Add_To":398,"Prefix_Dir":"S","St_BName":"MIAMI","MD_St_BNam":"MIAMI","St_Type1":" ","St_Type2":"AVE","St_Name":"MIAMI","St_Type":"AVE","ARPS_St_Ty":"AV","St_Label":"S MIAMI AVE","Suffix_Dir":" ","Ramp":" ","L_Zip":"33130","R_Zip":"33130","Shield_Typ":" ","Shield_Num":" ","In_Miami":1,"Jurisd_Cod":"C","Rd_Class":2,"Rd_Status":2,"One_Way":"FT","Speed_Limi":40,"F_ZLev":0,"T_ZLev":0,"ZLevel":0,"FT_Cost":326.73886613,"TF_Cost":-1,"Alias01":" ","Alias02":" ","Alias03":" ","STC_ID":0,"MD_StreetI":0,"MD_Stree_1":906987,"MD_RdClass":"2","Date_In":1196380800000,"Date_Mod":1196380800000,"Edited_By":"SYSTEM","From_ST":"SE 4TH ST & SW 3RD ST","To_ST":"SW 4TH ST","Shape_Leng":326.738985964,"Shape__Length":111.12120428084043}},{"type":"Feature","id":13000,"geometry":{"type":"LineString","coordinates":[[-80.1935237134253,25.7714772369205],[-80.1936070541425,25.771506795508],[-80.1936927284389,25.7715302551549],[-80.1937801928808,25.7715474670553],[-80.1957226286165,25.7715032218777]]},"properties":{"FID":13000,"St_SegID":13172,"L_Add_From":2,"L_Add_To":98,"R_Add_From":1,"R_Add_To":99,"Prefix_Dir":"SW","St_BName":"3","MD_St_BNam":"3RD","St_Type1":" ","St_Type2":"ST","St_Name":"3RD","St_Type":"ST","ARPS_St_Ty":"ST","St_Label":"SW 3RD ST","Suffix_Dir":" ","Ramp":" ","L_Zip":"33130","R_Zip":"33130","Shield_Typ":" ","Shield_Num":" ","In_Miami":1,"Jurisd_Cod":"M","Rd_Class":4,"Rd_Status":2,"One_Way":" ","Speed_Limi":30,"F_ZLev":0,"T_ZLev":0,"ZLevel":0,"FT_Cost":727.87140703,"TF_Cost":727.87140703,"Alias01":" ","Alias02":" ","Alias03":" ","STC_ID":0,"MD_StreetI":0,"MD_Stree_1":906986,"MD_RdClass":"5","Date_In":1196380800000,"Date_Mod":1196380800000,"Edited_By":"SYSTEM","From_ST":"SE 4TH ST & S MIAMI AVE","To_ST":"SW 3RD ST","Shape_Leng":727.871675767,"Shape__Length":246.20578907278079}},{"type":"Feature","id":13002,"geometry":{"type":"LineString","coordinates":[[-80.1962456591187,25.772435134967],[-80.1964001823515,25.7724337425343],[-80.1967119828086,25.7724242160372],[-80.1967588102618,25.7724227847492],[-80.1976301655214,25.7723874606761]]},"properties":{"FID":13002,"St_SegID":13174,"L_Add_From":136,"L_Add_To":198,"R_Add_From":137,"R_Add_To":199,"Prefix_Dir":"SW","St_BName":"2","MD_St_BNam":"2ND","St_Type1":" ","St_Type2":"ST","St_Name":"2ND","St_Type":"ST","ARPS_St_Ty":"ST","St_Label":"SW 2ND ST","Suffix_Dir":" ","Ramp":" ","L_Zip":"33130","R_Zip":"33130","Shield_Typ":" ","Shield_Num":" ","In_Miami":1,"Jurisd_Cod":"M","Rd_Class":4,"Rd_Status":2,"One_Way":"FT","Speed_Limi":30,"F_ZLev":0,"T_ZLev":0,"ZLevel":0,"FT_Cost":456.00744109,"TF_Cost":-1,"Alias01":" ","Alias02":" ","Alias03":" ","STC_ID":0,"MD_StreetI":0,"MD_Stree_1":900724,"MD_RdClass":"5","Date_In":1196380800000,"Date_Mod":1196380800000,"Edited_By":"SYSTEM","From_ST":"SW 1ST CT & SW 1ST AVE","To_ST":"SW 2ND AVE","Shape_Leng":456.007529096,"Shape__Length":154.24461872486546}},{"type":"Feature","id":13003,"geometry":{"type":"LineString","coordinates":[[-80.1955192370965,25.7724622941042],[-80.1958226102557,25.7724547692378],[-80.1961138932203,25.7724406841863],[-80.1962456591187,25.772435134967]]},"properties":{"FID":13003,"St_SegID":13175,"L_Add_From":100,"L_Add_To":134,"R_Add_From":101,"R_Add_To":135,"Prefix_Dir":"SW","St_BName":"2","MD_St_BNam":"2ND","St_Type1":" ","St_Type2":"ST","St_Name":"2ND","St_Type":"ST","ARPS_St_Ty":"ST","St_Label":"SW 2ND ST","Suffix_Dir":" ","Ramp":" ","L_Zip":"33130","R_Zip":"33130","Shield_Typ":" ","Shield_Num":" ","In_Miami":1,"Jurisd_Cod":"M","Rd_Class":4,"Rd_Status":2,"One_Way":"FT","Speed_Limi":30,"F_ZLev":0,"T_ZLev":0,"ZLevel":0,"FT_Cost":239.29123716,"TF_Cost":-1,"Alias01":" ","Alias02":" ","Alias03":" ","STC_ID":0,"MD_StreetI":0,"MD_Stree_1":900057,"MD_RdClass":"5","Date_In":1196380800000,"Date_Mod":1196380800000,"Edited_By":"SYSTEM","From_ST":"SW 1ST AVE","To_ST":"SW 1ST CT & SW 1ST AVE","Shape_Leng":239.291388606,"Shape__Length":80.940481866957015}},{"type":"Feature","id":13004,"geometry":{"type":"LineString","coordinates":[[-80.1980655162255,25.7740120972235],[-80.1986545362147,25.7739769910854],[-80.1988135281878,25.7739721094221],[-80.1990284598531,25.7739698372579],[-80.1991480165331,25.7739670408264],[-80.1993085566731,25.7739626094406],[-80.1994740195618,25.7739601158702],[-80.199581657535,25.7739545699339],[-80.1997064237454,25.7739518278742],[-80.2005896930281,25.7739350895374]]},"properties":{"FID":13004,"St_SegID":13176,"L_Add_From":212,"L_Add_To":398,"R_Add_From":0,"R_Add_To":0,"Prefix_Dir":"W","St_BName":"FLAGLER","MD_St_BNam":"FLAGLER","St_Type1":" ","St_Type2":"ST","St_Name":"FLAGLER","St_Type":"ST","ARPS_St_Ty":"ST","St_Label":"W FLAGLER ST","Suffix_Dir":" ","Ramp":" ","L_Zip":"33130","R_Zip":"33130","Shield_Typ":" ","Shield_Num":" ","In_Miami":1,"Jurisd_Cod":"M","Rd_Class":4,"Rd_Status":2,"One_Way":" ","Speed_Limi":30,"F_ZLev":0,"T_ZLev":0,"ZLevel":0,"FT_Cost":831.34537805,"TF_Cost":831.34537805,"Alias01":" ","Alias02":" ","Alias03":" ","STC_ID":0,"MD_StreetI":0,"MD_Stree_1":900957,"MD_RdClass":"5","Date_In":1196380800000,"Date_Mod":1351123200000,"Edited_By":"ykebede","From_ST":"W FLAGLER ST","To_ST":"SW NORTH RIVER DR","Shape_Leng":831.34538989,"Shape__Length":281.20642909028328}},{"type":"Feature","id":13005,"geometry":{"type":"LineString","coordinates":[[-80.1985357233374,25.7741320232649],[-80.1987292122763,25.7741909324655],[-80.1989281119305,25.7742487708661],[-80.1991593043382,25.7742878716707],[-80.199302938863,25.7742949075107],[-80.1993031062675,25.7742949192636],[-80.1994281698625,25.774303921671],[-80.1995982688384,25.7743069388829],[-80.1997005455464,25.7743106236716],[-80.1998315785026,25.7743113442444],[-80.1999467265383,25.774321716067]]},"properties":{"FID":13005,"St_SegID":13177,"L_Add_From":0,"L_Add_To":0,"R_Add_From":251,"R_Add_To":349,"Prefix_Dir":"W","St_BName":"FLAGLER","MD_St_BNam":"FLAGLER","St_Type1":" ","St_Type2":"ST","St_Name":"FLAGLER","St_Type":"ST","ARPS_St_Ty":"ST","St_Label":"W FLAGLER ST","Suffix_Dir":" ","Ramp":" ","L_Zip":"33130","R_Zip":"33130","Shield_Typ":" ","Shield_Num":" ","In_Miami":1,"Jurisd_Cod":"S","Rd_Class":2,"Rd_Status":2,"One_Way":"TF","Speed_Limi":45,"F_ZLev":0,"T_ZLev":0,"ZLevel":0,"FT_Cost":-1,"TF_Cost":472.90023457,"Alias01":" ","Alias02":" ","Alias03":" ","STC_ID":0,"MD_StreetI":0,"MD_Stree_1":908569,"MD_RdClass":"2","Date_In":1196380800000,"Date_Mod":1196380800000,"Edited_By":"SYSTEM","From_ST":"NW 3RD AVE","To_ST":"NW 1ST ST","Shape_Leng":472.900311949,"Shape__Length":159.99075666220091}},{"type":"Feature","id":13006,"geometry":{"type":"LineString","coordinates":[[-80.1988896474128,25.7748334235724],[-80.1989589785189,25.7747344432512],[-80.1991292509096,25.7746641965191],[-80.1992832787821,25.7745962359754],[-80.1994208154796,25.7745432560996],[-80.1995048233579,25.7745091061036],[-80.1996515443517,25.774453479407],[-80.199727129672,25.7744268200909],[-80.1998493653231,25.7743894247712],[-80.1999467265383,25.774321716067]]},"properties":{"FID":13006,"St_SegID":13178,"L_Add_From":204,"L_Add_To":298,"R_Add_From":0,"R_Add_To":0,"Prefix_Dir":"NW","St_BName":"1","MD_St_BNam":"1ST","St_Type1":" ","St_Type2":"ST","St_Name":"1ST","St_Type":"ST","ARPS_St_Ty":"ST","St_Label":"NW 1ST ST","Suffix_Dir":" ","Ramp":" ","L_Zip":"33128","R_Zip":"33128","Shield_Typ":" ","Shield_Num":" ","In_Miami":1,"Jurisd_Cod":"M","Rd_Class":4,"Rd_Status":2,"One_Way":"FT","Speed_Limi":30,"F_ZLev":0,"T_ZLev":0,"ZLevel":0,"FT_Cost":401.9741009,"TF_Cost":-1,"Alias01":" ","Alias02":" ","Alias03":" ","STC_ID":0,"MD_StreetI":0,"MD_Stree_1":900965,"MD_RdClass":"5","Date_In":1196380800000,"Date_Mod":1196380800000,"Edited_By":"SYSTEM","From_ST":"NW 3RD AVE","To_ST":"W FLAGLER ST","Shape_Leng":401.974168782,"Shape__Length":136.14524036868281}},{"type":"Feature","id":14180,"geometry":{"type":"LineString","coordinates":[[-80.1976144791357,25.7714421695811],[-80.1976077904105,25.7705834994385],[-80.1975039786894,25.7685408122849],[-80.1974974388513,25.7678872999625],[-80.197472071746,25.7672500100313]]},"properties":{"FID":14180,"St_SegID":14791,"L_Add_From":301,"L_Add_To":699,"R_Add_From":300,"R_Add_To":698,"Prefix_Dir":"SW","St_BName":"2","MD_St_BNam":"2ND","St_Type1":" ","St_Type2":"AVE","St_Name":"2ND","St_Type":"AVE","ARPS_St_Ty":"AV","St_Label":"SW 2ND AVE","Suffix_Dir":" ","Ramp":" ","L_Zip":"33130","R_Zip":"33130","Shield_Typ":" ","Shield_Num":" ","In_Miami":1,"Jurisd_Cod":"C","Rd_Class":3,"Rd_Status":2,"One_Way":" ","Speed_Limi":35,"F_ZLev":0,"T_ZLev":0,"ZLevel":0,"FT_Cost":1524.69086201,"TF_Cost":1524.69086201,"Alias01":" ","Alias02":" ","Alias03":" ","STC_ID":0,"MD_StreetI":0,"MD_Stree_1":900647,"MD_RdClass":"4","Date_In":1196380800000,"Date_Mod":1196380800000,"Edited_By":"SYSTEM","From_ST":"SW 3RD ST","To_ST":"SW 7TH ST","Shape_Leng":1524.6907168,"Shape__Length":518.52444154330556}},{"type":"Feature","id":14304,"geometry":{"type":"LineString","coordinates":[[-80.1989050911276,25.7710544113015],[-80.19934847968,25.769992112662],[-80.1995550620086,25.7695525231096],[-80.1997332784328,25.7691110125562],[-80.1999107189112,25.7686543383368],[-80.2000407116172,25.7681410315632],[-80.2001447024349,25.7676978306015]]},"properties":{"FID":14304,"St_SegID":14915,"L_Add_From":0,"L_Add_To":0,"R_Add_From":0,"R_Add_To":0,"Prefix_Dir":" ","St_BName":"I 95","MD_St_BNam":"I 95","St_Type1":" ","St_Type2":" ","St_Name":"I 95","St_Type":" ","ARPS_St_Ty":" ","St_Label":"I 95","Suffix_Dir":" ","Ramp":" ","L_Zip":"33130","R_Zip":"33130","Shield_Typ":"I","Shield_Num":"95","In_Miami":1,"Jurisd_Cod":"S","Rd_Class":1,"Rd_Status":2,"One_Way":"TF","Speed_Limi":55,"F_ZLev":1,"T_ZLev":1,"ZLevel":0,"FT_Cost":-1,"TF_Cost":1289.33864265,"Alias01":" ","Alias02":" ","Alias03":" ","STC_ID":0,"MD_StreetI":0,"MD_Stree_1":909032,"MD_RdClass":"1","Date_In":1196380800000,"Date_Mod":1196380800000,"Edited_By":"SYSTEM","From_ST":" ","To_ST":" ","Shape_Leng":1289.33890174,"Shape__Length":438.24026786662165}},{"type":"Feature","id":14306,"geometry":{"type":"LineString","coordinates":[[-80.198947889581,25.7726689111447],[-80.1989243119196,25.7723428196246],[-80.198913907736,25.7720027318851],[-80.1989640597847,25.7717135223151],[-80.1991560956514,25.7711631766683]]},"properties":{"FID":14306,"St_SegID":14917,"L_Add_From":0,"L_Add_To":0,"R_Add_From":0,"R_Add_To":0,"Prefix_Dir":" ","St_BName":"I 95","MD_St_BNam":"I 95","St_Type1":" ","St_Type2":" ","St_Name":"I 95","St_Type":" ","ARPS_St_Ty":" ","St_Label":"I 95","Suffix_Dir":" ","Ramp":" ","L_Zip":"33130","R_Zip":"33130","Shield_Typ":"I","Shield_Num":"95","In_Miami":1,"Jurisd_Cod":"S","Rd_Class":1,"Rd_Status":2,"One_Way":"FT","Speed_Limi":55,"F_ZLev":1,"T_ZLev":1,"ZLevel":0,"FT_Cost":558.62967992,"TF_Cost":-1,"Alias01":" ","Alias02":" ","Alias03":" ","STC_ID":0,"MD_StreetI":0,"MD_Stree_1":909035,"MD_RdClass":"1","Date_In":1196380800000,"Date_Mod":1196380800000,"Edited_By":"SYSTEM","From_ST":" ","To_ST":" ","Shape_Leng":558.629645745,"Shape__Length":189.94599718246798}},{"type":"Feature","id":14307,"geometry":{"type":"LineString","coordinates":[[-80.1994281698625,25.774303921671],[-80.1993085566731,25.7739626094406],[-80.1991105422494,25.7733991655441],[-80.1990278320894,25.7731750857675],[-80.1989797564857,25.7729602871865],[-80.198947889581,25.7726689111447]]},"properties":{"FID":14307,"St_SegID":14918,"L_Add_From":0,"L_Add_To":0,"R_Add_From":0,"R_Add_To":0,"Prefix_Dir":" ","St_BName":"I 95","MD_St_BNam":"I 95","St_Type1":" ","St_Type2":" ","St_Name":"I 95","St_Type":" ","ARPS_St_Ty":" ","St_Label":"I 95","Suffix_Dir":" ","Ramp":" ","L_Zip":"33130","R_Zip":"33130","Shield_Typ":"I","Shield_Num":"95","In_Miami":1,"Jurisd_Cod":"S","Rd_Class":1,"Rd_Status":2,"One_Way":"FT","Speed_Limi":55,"F_ZLev":1,"T_ZLev":1,"ZLevel":0,"FT_Cost":617.02965341,"TF_Cost":-1,"Alias01":" ","Alias02":" ","Alias03":" ","STC_ID":0,"MD_StreetI":0,"MD_Stree_1":909039,"MD_RdClass":"1","Date_In":1196380800000,"Date_Mod":1196380800000,"Edited_By":"SYSTEM","From_ST":" ","To_ST":" ","Shape_Leng":617.029731241,"Shape__Length":209.76925421786595}},{"type":"Feature","id":14308,"geometry":{"type":"LineString","coordinates":[[-80.1995982688384,25.7743069388829],[-80.1994740195618,25.7739601158702],[-80.1991670811013,25.7731678239596],[-80.198947889581,25.7726689111447]]},"properties":{"FID":14308,"St_SegID":14919,"L_Add_From":0,"L_Add_To":0,"R_Add_From":0,"R_Add_To":0,"Prefix_Dir":" ","St_BName":"I 95","MD_St_BNam":"I 95","St_Type1":" ","St_Type2":" ","St_Name":"I 95","St_Type":" ","ARPS_St_Ty":" ","St_Label":"I 95 ON RAMP S","Suffix_Dir":"S","Ramp":"ON RAMP","L_Zip":"33130","R_Zip":"33130","Shield_Typ":" ","Shield_Num":" ","In_Miami":1,"Jurisd_Cod":"S","Rd_Class":0,"Rd_Status":2,"One_Way":"TF","Speed_Limi":25,"F_ZLev":0,"T_ZLev":1,"ZLevel":0,"FT_Cost":-1,"TF_Cost":632.86941851,"Alias01":" ","Alias02":" ","Alias03":" ","STC_ID":0,"MD_StreetI":0,"MD_Stree_1":908581,"MD_RdClass":"0","Date_In":1196380800000,"Date_Mod":1196380800000,"Edited_By":"SYSTEM","From_ST":" ","To_ST":" ","Shape_Leng":632.869205272,"Shape__Length":215.10413711613688}},{"type":"Feature","id":14311,"geometry":{"type":"LineString","coordinates":[[-80.1989281119305,25.7742487708661],[-80.1988135281878,25.7739721094221],[-80.198585453276,25.7733721270328]]},"properties":{"FID":14311,"St_SegID":14922,"L_Add_From":0,"L_Add_To":0,"R_Add_From":0,"R_Add_To":0,"Prefix_Dir":" ","St_BName":"I 95","MD_St_BNam":"I 95","St_Type1":" ","St_Type2":" ","St_Name":"I 95","St_Type":" ","ARPS_St_Ty":" ","St_Label":"I 95","Suffix_Dir":" ","Ramp":" ","L_Zip":"33130","R_Zip":"33130","Shield_Typ":"I","Shield_Num":"95","In_Miami":1,"Jurisd_Cod":"S","Rd_Class":1,"Rd_Status":2,"One_Way":"TF","Speed_Limi":55,"F_ZLev":1,"T_ZLev":1,"ZLevel":0,"FT_Cost":-1,"TF_Cost":338.03062097,"Alias01":" ","Alias02":" ","Alias03":" ","STC_ID":0,"MD_StreetI":0,"MD_Stree_1":908568,"MD_RdClass":"1","Date_In":1196380800000,"Date_Mod":1196380800000,"Edited_By":"SYSTEM","From_ST":" ","To_ST":" ","Shape_Leng":338.030680053,"Shape__Length":114.89475763718247}},{"type":"Feature","id":14312,"geometry":{"type":"LineString","coordinates":[[-80.1987292122763,25.7741909324655],[-80.1986545362147,25.7739769910854],[-80.1986035735782,25.7737816855042],[-80.1985689759999,25.7735809656661],[-80.198585453276,25.7733721270328]]},"properties":{"FID":14312,"St_SegID":14923,"L_Add_From":0,"L_Add_To":0,"R_Add_From":0,"R_Add_To":0,"Prefix_Dir":" ","St_BName":"I 95","MD_St_BNam":"I 95","St_Type1":" ","St_Type2":" ","St_Name":"I 95","St_Type":" ","ARPS_St_Ty":" ","St_Label":"I 95 OFF RAMP N","Suffix_Dir":"N","Ramp":"OFF RAMP","L_Zip":"33130","R_Zip":"33130","Shield_Typ":" ","Shield_Num":" ","In_Miami":1,"Jurisd_Cod":"S","Rd_Class":0,"Rd_Status":2,"One_Way":"FT","Speed_Limi":25,"F_ZLev":1,"T_ZLev":0,"ZLevel":0,"FT_Cost":304.43580147,"TF_Cost":-1,"Alias01":" ","Alias02":" ","Alias03":" ","STC_ID":0,"MD_StreetI":0,"MD_Stree_1":900938,"MD_RdClass":"0","Date_In":1196380800000,"Date_Mod":1196380800000,"Edited_By":"SYSTEM","From_ST":" ","To_ST":" ","Shape_Leng":304.435969462,"Shape__Length":103.51392361360448}},{"type":"Feature","id":14313,"geometry":{"type":"LineString","coordinates":[[-80.1957494101539,25.7721524966827],[-80.1961482603459,25.7723159968183],[-80.1962423643216,25.7723589276358],[-80.1964001823515,25.7724337425343],[-80.1966003816316,25.7725222596943],[-80.1969525248709,25.7726277211246],[-80.197247900878,25.7726749184015],[-80.1974498417545,25.772697644382],[-80.1976455213127,25.7727130773466],[-80.1979396351332,25.7727440537559],[-80.1981551844153,25.7727636213708],[-80.1982703135789,25.7727818943894],[-80.1983693591296,25.7728119585101],[-80.1985197265261,25.7728896953061]]},"properties":{"FID":14313,"St_SegID":14924,"L_Add_From":0,"L_Add_To":0,"R_Add_From":0,"R_Add_To":0,"Prefix_Dir":" ","St_BName":"I 95","MD_St_BNam":"I 95","St_Type1":" ","St_Type2":" ","St_Name":"I 95","St_Type":" ","ARPS_St_Ty":" ","St_Label":"I 95 OFF RAMP S","Suffix_Dir":"S","Ramp":"OFF RAMP","L_Zip":"33130","R_Zip":"33130","Shield_Typ":" ","Shield_Num":" ","In_Miami":1,"Jurisd_Cod":"S","Rd_Class":0,"Rd_Status":2,"One_Way":"TF","Speed_Limi":25,"F_ZLev":1,"T_ZLev":1,"ZLevel":0,"FT_Cost":-1,"TF_Cost":961.68663886,"Alias01":" ","Alias02":" ","Alias03":" ","STC_ID":0,"MD_StreetI":0,"MD_Stree_1":900050,"MD_RdClass":"0","Date_In":1196380800000,"Date_Mod":1196380800000,"Edited_By":"SYSTEM","From_ST":" ","To_ST":" ","Shape_Leng":961.686877471,"Shape__Length":325.465229622552}},{"type":"Feature","id":14314,"geometry":{"type":"LineString","coordinates":[[-80.198585453276,25.7733721270328],[-80.1985554026157,25.7731850812079],[-80.1985197265261,25.7728896953061],[-80.1985186248137,25.7726760209261],[-80.1985132111374,25.7723608900941],[-80.1985238163963,25.7722808797469],[-80.1985243397938,25.7722774633874],[-80.1985928109436,25.7718309487653],[-80.1987251490348,25.7714402346898],[-80.1989050911276,25.7710544113015]]},"properties":{"FID":14314,"St_SegID":14925,"L_Add_From":0,"L_Add_To":0,"R_Add_From":0,"R_Add_To":0,"Prefix_Dir":" ","St_BName":"I 95","MD_St_BNam":"I 95","St_Type1":" ","St_Type2":" ","St_Name":"I 95","St_Type":" ","ARPS_St_Ty":" ","St_Label":"I 95","Suffix_Dir":" ","Ramp":" ","L_Zip":"33130","R_Zip":"33130","Shield_Typ":"I","Shield_Num":"95","In_Miami":1,"Jurisd_Cod":"S","Rd_Class":1,"Rd_Status":2,"One_Way":"TF","Speed_Limi":55,"F_ZLev":1,"T_ZLev":1,"ZLevel":0,"FT_Cost":-1,"TF_Cost":864.09557892,"Alias01":" ","Alias02":" ","Alias03":" ","STC_ID":0,"MD_StreetI":0,"MD_Stree_1":909040,"MD_RdClass":"1","Date_In":1196380800000,"Date_Mod":1196380800000,"Edited_By":"SYSTEM","From_ST":" ","To_ST":" ","Shape_Leng":864.095389486,"Shape__Length":293.79728080802647}},{"type":"Feature","id":14315,"geometry":{"type":"LineString","coordinates":[[-80.1938105173043,25.7716884097012],[-80.1943940661042,25.7717743023407],[-80.1948971650174,25.7718499511401],[-80.1950861086625,25.7718745509697],[-80.1952827556752,25.7719084317812],[-80.1954125026181,25.7719381630735],[-80.1955641171613,25.7719815810667],[-80.1959842881402,25.7721315026729],[-80.1962327869381,25.7722316795212],[-80.1966998720299,25.7724199717191],[-80.1967119828086,25.7724242160372],[-80.1968775446399,25.772482234219],[-80.1970413171409,25.7725313710901],[-80.1971920239305,25.7725700407747],[-80.1973159744717,25.7725887477359],[-80.1974405629919,25.7725902761521],[-80.1975615664127,25.7725749394231],[-80.1976410903057,25.7725551666454],[-80.1976615901446,25.7725500695693],[-80.1977517858404,25.7725185967346],[-80.1978211268187,25.7724853931427],[-80.1979279945273,25.7724241442802],[-80.1979930149362,25.7723838020965],[-80.198002138668,25.7723768279481],[-80.198045814385,25.7723434331565],[-80.1981159221313,25.7722796256541],[-80.1981762614176,25.7722162174251],[-80.198244373072,25.7721315133204],[-80.198296150605,25.7720486969068],[-80.1984215976088,25.7718097413008],[-80.1985720038277,25.7715057353634],[-80.1986249504091,25.7714111646129],[-80.1987158616755,25.7712487790849],[-80.1987525869756,25.7711958512389],[-80.1987912041828,25.7711518565053],[-80.1988453263438,25.7711011465423],[-80.1989050911276,25.7710544113015]]},"properties":{"FID":14315,"St_SegID":14926,"L_Add_From":0,"L_Add_To":0,"R_Add_From":0,"R_Add_To":0,"Prefix_Dir":" ","St_BName":"I 95","MD_St_BNam":"I 95","St_Type1":" ","St_Type2":" ","St_Name":"I 95","St_Type":" ","ARPS_St_Ty":" ","St_Label":"I 95 OFF RAMP E","Suffix_Dir":"E","Ramp":"OFF RAMP","L_Zip":"33130","R_Zip":"33130","Shield_Typ":" ","Shield_Num":" ","In_Miami":1,"Jurisd_Cod":"S","Rd_Class":0,"Rd_Status":2,"One_Way":"TF","Speed_Limi":25,"F_ZLev":1,"T_ZLev":1,"ZLevel":0,"FT_Cost":-1,"TF_Cost":2022.13138535,"Alias01":" ","Alias02":" ","Alias03":" ","STC_ID":0,"MD_StreetI":0,"MD_Stree_1":900619,"MD_RdClass":"0","Date_In":1196380800000,"Date_Mod":1196380800000,"Edited_By":"SYSTEM","From_ST":" ","To_ST":" ","Shape_Leng":2022.13123514,"Shape__Length":684.98706546595747}},{"type":"Feature","id":14316,"geometry":{"type":"LineString","coordinates":[[-80.1950379709218,25.7721011045537],[-80.1951333648496,25.7721526743591],[-80.1954460747035,25.7722596534842],[-80.195663759722,25.7723644359617],[-80.1958226102557,25.7724547692378],[-80.1960051260673,25.7725568781863],[-80.1962556430337,25.7727022591665],[-80.1964436936846,25.772787016703],[-80.1966355670287,25.772853377419],[-80.1968460012569,25.7729097947248],[-80.1972062962087,25.772955315797],[-80.1974836180178,25.7729651678349],[-80.1976592769535,25.7729678604901],[-80.197870003601,25.7729807430888],[-80.1979907914898,25.7730003383127]]},"properties":{"FID":14316,"St_SegID":14927,"L_Add_From":0,"L_Add_To":0,"R_Add_From":0,"R_Add_To":0,"Prefix_Dir":" ","St_BName":"I 95","MD_St_BNam":"I 95","St_Type1":" ","St_Type2":" ","St_Name":"I 95","St_Type":" ","ARPS_St_Ty":" ","St_Label":"I 95 ON RAMP N","Suffix_Dir":"N","Ramp":"ON RAMP","L_Zip":"33130","R_Zip":"33130","Shield_Typ":" ","Shield_Num":" ","In_Miami":1,"Jurisd_Cod":"S","Rd_Class":0,"Rd_Status":2,"One_Way":"FT","Speed_Limi":25,"F_ZLev":1,"T_ZLev":1,"ZLevel":0,"FT_Cost":1045.7173894,"TF_Cost":-1,"Alias01":" ","Alias02":" ","Alias03":" ","STC_ID":0,"MD_StreetI":0,"MD_Stree_1":900047,"MD_RdClass":"0","Date_In":1196380800000,"Date_Mod":1196380800000,"Edited_By":"SYSTEM","From_ST":" ","To_ST":" ","Shape_Leng":1045.71725581,"Shape__Length":353.96903911033888}},{"type":"Feature","id":14317,"geometry":{"type":"LineString","coordinates":[[-80.1976644309149,25.7732035710294],[-80.1982399859525,25.7731885935826],[-80.1985554026157,25.7731850812079],[-80.1987071807726,25.77318288321],[-80.1988185886039,25.7731799789791],[-80.1990278320894,25.7731750857675],[-80.1991670811013,25.7731678239596],[-80.1993255020829,25.7731599219143],[-80.2000025027387,25.773128023893],[-80.2002048263741,25.7731013438339],[-80.2004059572021,25.7730680820032],[-80.2005904606617,25.7730306259341],[-80.2007754630217,25.7729952450193],[-80.2009349111498,25.7729672039411],[-80.2010955440345,25.7729454002807],[-80.2012570642032,25.7729298744167],[-80.2026795163849,25.7728825806615]]},"properties":{"FID":14317,"St_SegID":14928,"L_Add_From":200,"L_Add_To":498,"R_Add_From":201,"R_Add_To":499,"Prefix_Dir":"SW","St_BName":"1","MD_St_BNam":"1ST","St_Type1":" ","St_Type2":"ST","St_Name":"1ST","St_Type":"ST","ARPS_St_Ty":"ST","St_Label":"SW 1ST ST","Suffix_Dir":" ","Ramp":" ","L_Zip":"33130","R_Zip":"33130","Shield_Typ":" ","Shield_Num":" ","In_Miami":1,"Jurisd_Cod":"S","Rd_Class":2,"Rd_Status":2,"One_Way":"TF","Speed_Limi":40,"F_ZLev":0,"T_ZLev":0,"ZLevel":0,"FT_Cost":-1,"TF_Cost":1657.9301774,"Alias01":" ","Alias02":" ","Alias03":" ","STC_ID":0,"MD_StreetI":0,"MD_Stree_1":900910,"MD_RdClass":"2","Date_In":1196380800000,"Date_Mod":1196380800000,"Edited_By":"SYSTEM","From_ST":"SW 2ND AVE","To_ST":"SW 5TH AVE","Shape_Leng":1657.93039647,"Shape__Length":560.8141787493995}},{"type":"Feature","id":14404,"geometry":{"type":"LineString","coordinates":[[-80.199302938863,25.7742949075107],[-80.1991480165331,25.7739670408264],[-80.1990902429162,25.7738093366551],[-80.1990113086884,25.7736182460809],[-80.198906661235,25.7733696964844],[-80.1988553093816,25.7732465765342],[-80.1988185886039,25.7731799789791],[-80.1987772891544,25.7731233097378],[-80.1987221199961,25.7730505619209],[-80.198642636439,25.7729724330839],[-80.1985197265261,25.7728896953061]]},"properties":{"FID":14404,"St_SegID":15017,"L_Add_From":0,"L_Add_To":0,"R_Add_From":0,"R_Add_To":0,"Prefix_Dir":" ","St_BName":"I 95","MD_St_BNam":"I 95","St_Type1":" ","St_Type2":" ","St_Name":"I 95","St_Type":" ","ARPS_St_Ty":" ","St_Label":"I 95 OFF RAMP S","Suffix_Dir":"S","Ramp":"OFF RAMP","L_Zip":"33130","R_Zip":"33130","Shield_Typ":" ","Shield_Num":" ","In_Miami":1,"Jurisd_Cod":"S","Rd_Class":0,"Rd_Status":2,"One_Way":"TF","Speed_Limi":25,"F_ZLev":1,"T_ZLev":1,"ZLevel":0,"FT_Cost":-1,"TF_Cost":581.50846031,"Alias01":" ","Alias02":" ","Alias03":" ","STC_ID":0,"MD_StreetI":0,"MD_Stree_1":908576,"MD_RdClass":"0","Date_In":1196380800000,"Date_Mod":1196380800000,"Edited_By":"SYSTEM","From_ST":" ","To_ST":" ","Shape_Leng":581.508520059,"Shape__Length":197.53677923423652}},{"type":"Feature","id":14411,"geometry":{"type":"LineString","coordinates":[[-80.1935201326044,25.7717196942497],[-80.1928262425585,25.7716130525445],[-80.1924816830614,25.7715817597869],[-80.1921951474492,25.7715672400091],[-80.1919348933753,25.7715618216959],[-80.191815603444,25.7715578194753]]},"properties":{"FID":14411,"St_SegID":15425,"L_Add_From":0,"L_Add_To":0,"R_Add_From":0,"R_Add_To":0,"Prefix_Dir":" ","St_BName":"I 95","MD_St_BNam":"I 95","St_Type1":" ","St_Type2":" ","St_Name":"I 95","St_Type":" ","ARPS_St_Ty":" ","St_Label":"I 95 OFF RAMP E","Suffix_Dir":"E","Ramp":"OFF RAMP","L_Zip":"33131","R_Zip":"33131","Shield_Typ":" ","Shield_Num":" ","In_Miami":1,"Jurisd_Cod":"S","Rd_Class":0,"Rd_Status":2,"One_Way":"TF","Speed_Limi":25,"F_ZLev":1,"T_ZLev":0,"ZLevel":0,"FT_Cost":-1,"TF_Cost":565.00892366,"Alias01":" ","Alias02":" ","Alias03":" ","STC_ID":0,"MD_StreetI":0,"MD_Stree_1":908959,"MD_RdClass":"0","Date_In":1196380800000,"Date_Mod":1196380800000,"Edited_By":"SYSTEM","From_ST":" ","To_ST":" ","Shape_Leng":565.008825813,"Shape__Length":191.12609818148664}},{"type":"Feature","id":14424,"geometry":{"type":"LineString","coordinates":[[-80.1985357233374,25.7741320232649],[-80.1985826957556,25.7741657497213],[-80.1986252325255,25.774203998475],[-80.1986628055128,25.7742462946361],[-80.1986949482117,25.7742921130621],[-80.1987212615363,25.7743408848777],[-80.1988534434686,25.7746835593436],[-80.1988695050669,25.7747326772266],[-80.1988815942294,25.7747827196407],[-80.1988896474128,25.7748334235724]]},"properties":{"FID":14424,"St_SegID":15429,"L_Add_From":2,"L_Add_To":98,"R_Add_From":1,"R_Add_To":99,"Prefix_Dir":"NW","St_BName":"3","MD_St_BNam":"3RD","St_Type1":" ","St_Type2":"AVE","St_Name":"3RD","St_Type":"AVE","ARPS_St_Ty":"AV","St_Label":"NW 3RD AVE","Suffix_Dir":" ","Ramp":" ","L_Zip":"33128","R_Zip":"33128","Shield_Typ":" ","Shield_Num":" ","In_Miami":1,"Jurisd_Cod":"S","Rd_Class":4,"Rd_Status":2,"One_Way":"FT","Speed_Limi":30,"F_ZLev":0,"T_ZLev":0,"ZLevel":0,"FT_Cost":286.49850053,"TF_Cost":-1,"Alias01":" ","Alias02":" ","Alias03":" ","STC_ID":0,"MD_StreetI":0,"MD_Stree_1":908961,"MD_RdClass":"5","Date_In":1196380800000,"Date_Mod":1516233600000,"Edited_By":"Ykebede","From_ST":"W FLAGLER ST","To_ST":"NW 1ST ST","Shape_Leng":286.498423788,"Shape__Length":97.31312386578881}},{"type":"Feature","id":14556,"geometry":{"type":"LineString","coordinates":[[-80.1935191871094,25.7717889277105],[-80.1935201326044,25.7717196942497],[-80.1935218689613,25.7716430390661],[-80.1935249538689,25.7715984255151],[-80.1935237134253,25.7714772369205]]},"properties":{"FID":14556,"St_SegID":15141,"L_Add_From":275,"L_Add_To":299,"R_Add_From":274,"R_Add_To":298,"Prefix_Dir":"S","St_BName":"MIAMI","MD_St_BNam":"MIAMI","St_Type1":" ","St_Type2":"AVE","St_Name":"MIAMI","St_Type":"AVE","ARPS_St_Ty":"AV","St_Label":"S MIAMI AVE","Suffix_Dir":" ","Ramp":" ","L_Zip":"33130","R_Zip":"33130","Shield_Typ":" ","Shield_Num":" ","In_Miami":1,"Jurisd_Cod":"C","Rd_Class":2,"Rd_Status":2,"One_Way":"FT","Speed_Limi":40,"F_ZLev":0,"T_ZLev":0,"ZLevel":0,"FT_Cost":113.33282681,"TF_Cost":-1,"Alias01":" ","Alias02":" ","Alias03":" ","STC_ID":0,"MD_StreetI":0,"MD_Stree_1":906972,"MD_RdClass":"2","Date_In":1196380800000,"Date_Mod":1196380800000,"Edited_By":"SYSTEM","From_ST":"S MIAMI AVE","To_ST":"SE 4TH ST & SW 3RD ST","Shape_Leng":113.332761703,"Shape__Length":38.543580574582656}},{"type":"Feature","id":14557,"geometry":{"type":"LineString","coordinates":[[-80.1935201326044,25.7717196942497],[-80.1940182257246,25.7717901028195],[-80.1949784497603,25.7719338400191],[-80.1952417219114,25.77197984735],[-80.1954487425089,25.7720287232704],[-80.1956363180072,25.7720949938191],[-80.1957494101539,25.7721524966827]]},"properties":{"FID":14557,"St_SegID":15142,"L_Add_From":0,"L_Add_To":0,"R_Add_From":0,"R_Add_To":0,"Prefix_Dir":" ","St_BName":"I 95","MD_St_BNam":"I 95","St_Type1":" ","St_Type2":" ","St_Name":"I 95","St_Type":" ","ARPS_St_Ty":" ","St_Label":"I 95 OFF RAMP E","Suffix_Dir":"E","Ramp":"OFF RAMP","L_Zip":"33130","R_Zip":"33130","Shield_Typ":" ","Shield_Num":" ","In_Miami":1,"Jurisd_Cod":"S","Rd_Class":0,"Rd_Status":2,"One_Way":"TF","Speed_Limi":25,"F_ZLev":1,"T_ZLev":0,"ZLevel":0,"FT_Cost":-1,"TF_Cost":753.82610768,"Alias01":" ","Alias02":" ","Alias03":" ","STC_ID":0,"MD_StreetI":0,"MD_Stree_1":908959,"MD_RdClass":"0","Date_In":1196380800000,"Date_Mod":1196380800000,"Edited_By":"SYSTEM","From_ST":" ","To_ST":" ","Shape_Leng":753.826024627,"Shape__Length":255.05083513847632}},{"type":"Feature","id":14558,"geometry":{"type":"LineString","coordinates":[[-80.1935373563105,25.7725191741337],[-80.193518109266,25.7718846721813],[-80.1935191871094,25.7717889277105]]},"properties":{"FID":14558,"St_SegID":15143,"L_Add_From":201,"L_Add_To":273,"R_Add_From":200,"R_Add_To":272,"Prefix_Dir":"S","St_BName":"MIAMI","MD_St_BNam":"MIAMI","St_Type1":" ","St_Type2":"AVE","St_Name":"MIAMI","St_Type":"AVE","ARPS_St_Ty":"AV","St_Label":"S MIAMI AVE","Suffix_Dir":" ","Ramp":" ","L_Zip":"33130","R_Zip":"33130","Shield_Typ":" ","Shield_Num":" ","In_Miami":1,"Jurisd_Cod":"C","Rd_Class":2,"Rd_Status":2,"One_Way":"FT","Speed_Limi":40,"F_ZLev":0,"T_ZLev":0,"ZLevel":0,"FT_Cost":265.51394484,"TF_Cost":-1,"Alias01":" ","Alias02":" ","Alias03":" ","STC_ID":0,"MD_StreetI":0,"MD_Stree_1":901026,"MD_RdClass":"2","Date_In":1196380800000,"Date_Mod":1196380800000,"Edited_By":"SYSTEM","From_ST":"SE 2ND ST & SW 2ND ST","To_ST":"S MIAMI AVE","Shape_Leng":265.514004999,"Shape__Length":90.299644486979531}},{"type":"Feature","id":14703,"geometry":{"type":"LineString","coordinates":[[-80.1938105173043,25.7716884097012],[-80.1935218689613,25.7716430390661],[-80.1931259861673,25.7715771816459],[-80.1927928768713,25.7715447408501],[-80.192361884403,25.7715305213085],[-80.1919704929596,25.771536905827],[-80.191815603444,25.7715578194753]]},"properties":{"FID":14703,"St_SegID":15289,"L_Add_From":0,"L_Add_To":0,"R_Add_From":0,"R_Add_To":0,"Prefix_Dir":" ","St_BName":"I 95","MD_St_BNam":"I 95","St_Type1":" ","St_Type2":" ","St_Name":"I 95","St_Type":" ","ARPS_St_Ty":" ","St_Label":"I 95 OFF RAMP E","Suffix_Dir":"E","Ramp":"OFF RAMP","L_Zip":"33131","R_Zip":"33131","Shield_Typ":" ","Shield_Num":" ","In_Miami":1,"Jurisd_Cod":"S","Rd_Class":0,"Rd_Status":2,"One_Way":"FT","Speed_Limi":25,"F_ZLev":1,"T_ZLev":1,"ZLevel":0,"FT_Cost":661.45751707,"TF_Cost":-1,"Alias01":" ","Alias02":" ","Alias03":" ","STC_ID":0,"MD_StreetI":0,"MD_Stree_1":906974,"MD_RdClass":"0","Date_In":1196380800000,"Date_Mod":1196380800000,"Edited_By":"SYSTEM","From_ST":" ","To_ST":" ","Shape_Leng":661.457454249,"Shape__Length":223.75249798714924}},{"type":"Feature","id":14889,"geometry":{"type":"LineString","coordinates":[[-80.1935314570791,25.7705783293216],[-80.1945799089842,25.7705251806648]]},"properties":{"FID":14889,"St_SegID":15952,"L_Add_From":2,"L_Add_To":50,"R_Add_From":1,"R_Add_To":51,"Prefix_Dir":"SW","St_BName":"4","MD_St_BNam":"4TH","St_Type1":" ","St_Type2":"ST","St_Name":"4TH","St_Type":"ST","ARPS_St_Ty":"ST","St_Label":"SW 4TH ST","Suffix_Dir":" ","Ramp":" ","L_Zip":"33130","R_Zip":"33130","Shield_Typ":" ","Shield_Num":" ","In_Miami":1,"Jurisd_Cod":"P","Rd_Class":99,"Rd_Status":4,"One_Way":" ","Speed_Limi":30,"F_ZLev":0,"T_ZLev":0,"ZLevel":0,"FT_Cost":345.59856008,"TF_Cost":345.59856008,"Alias01":" ","Alias02":" ","Alias03":" ","STC_ID":0,"MD_StreetI":0,"MD_Stree_1":900075,"MD_RdClass":"6","Date_In":1196380800000,"Date_Mod":1196380800000,"Edited_By":"SYSTEM","From_ST":" ","To_ST":" ","Shape_Leng":345.598635061,"Shape__Length":116.89789961295455}},{"type":"Feature","id":15231,"geometry":{"type":"LineString","coordinates":[[-80.1989281119305,25.7742487708661],[-80.1991292509096,25.7746641965191],[-80.1991837009538,25.7747876312903],[-80.1994099296684,25.7753050831439],[-80.1995072227718,25.7756496962288],[-80.1996133563162,25.7758995055269]]},"properties":{"FID":15231,"St_SegID":15439,"L_Add_From":0,"L_Add_To":0,"R_Add_From":0,"R_Add_To":0,"Prefix_Dir":" ","St_BName":"I 95","MD_St_BNam":"I 95","St_Type1":" ","St_Type2":" ","St_Name":"I 95","St_Type":" ","ARPS_St_Ty":" ","St_Label":"I 95","Suffix_Dir":" ","Ramp":" ","L_Zip":"33128","R_Zip":"33128","Shield_Typ":"I","Shield_Num":"95","In_Miami":1,"Jurisd_Cod":"S","Rd_Class":1,"Rd_Status":2,"One_Way":"FT","Speed_Limi":55,"F_ZLev":1,"T_ZLev":1,"ZLevel":0,"FT_Cost":642.03044998,"TF_Cost":-1,"Alias01":" ","Alias02":" ","Alias03":" ","STC_ID":0,"MD_StreetI":0,"MD_Stree_1":909045,"MD_RdClass":"1","Date_In":1196380800000,"Date_Mod":1196380800000,"Edited_By":"SYSTEM","From_ST":" ","To_ST":" ","Shape_Leng":642.030375951,"Shape__Length":218.20724863409723}},{"type":"Feature","id":15233,"geometry":{"type":"LineString","coordinates":[[-80.1987292122763,25.7741909324655],[-80.1988142975176,25.7743990810367],[-80.1989589785189,25.7747344432512],[-80.1989990233829,25.7748454658719],[-80.1991691566962,25.7752374666941],[-80.1992897945966,25.7754820755391],[-80.1993665624883,25.7756774136342],[-80.1993818868407,25.7757675120844],[-80.199384238517,25.775795902852],[-80.1993820386678,25.7758243035948],[-80.1993753333817,25.7758521192539],[-80.1993642631464,25.7758787670286],[-80.1993490599057,25.7759036885879]]},"properties":{"FID":15233,"St_SegID":15440,"L_Add_From":0,"L_Add_To":0,"R_Add_From":0,"R_Add_To":0,"Prefix_Dir":" ","St_BName":"I 95","MD_St_BNam":"I 95","St_Type1":" ","St_Type2":" ","St_Name":"I 95","St_Type":" ","ARPS_St_Ty":" ","St_Label":"I 95 OFF RAMP N","Suffix_Dir":"N","Ramp":"OFF RAMP","L_Zip":"33128","R_Zip":"33128","Shield_Typ":" ","Shield_Num":" ","In_Miami":1,"Jurisd_Cod":"S","Rd_Class":0,"Rd_Status":2,"One_Way":"FT","Speed_Limi":25,"F_ZLev":1,"T_ZLev":0,"ZLevel":0,"FT_Cost":664.7291788,"TF_Cost":-1,"Alias01":" ","Alias02":" ","Alias03":" ","STC_ID":0,"MD_StreetI":0,"MD_Stree_1":900938,"MD_RdClass":"0","Date_In":1196380800000,"Date_Mod":1196380800000,"Edited_By":"SYSTEM","From_ST":" ","To_ST":" ","Shape_Leng":664.729021423,"Shape__Length":225.91127796065868}},{"type":"Feature","id":15837,"geometry":{"type":"LineString","coordinates":[[-80.1951385714559,25.7750713139521],[-80.195142147578,25.7753508601243],[-80.1951443543275,25.7754008838802],[-80.1951511217983,25.7754505711291],[-80.1951624036483,25.7754995815815],[-80.1951781226177,25.7755475795827],[-80.1952190857385,25.7755870389089],[-80.195263884577,25.7756229187169],[-80.1953121391566,25.7756549146772],[-80.1953634401881,25.7756827554023]]},"properties":{"FID":15837,"St_SegID":15667,"L_Add_From":100,"L_Add_To":148,"R_Add_From":101,"R_Add_To":149,"Prefix_Dir":"N","St_BName":"MIAMI","MD_St_BNam":"MIAMI","St_Type1":" ","St_Type2":"CT","St_Name":"MIAMI","St_Type":"CT","ARPS_St_Ty":"CT","St_Label":"N MIAMI CT","Suffix_Dir":" ","Ramp":" ","L_Zip":"33128","R_Zip":"33128","Shield_Typ":" ","Shield_Num":" ","In_Miami":1,"Jurisd_Cod":"M","Rd_Class":4,"Rd_Status":2,"One_Way":"FT","Speed_Limi":25,"F_ZLev":0,"T_ZLev":0,"ZLevel":0,"FT_Cost":253.1842045,"TF_Cost":-1,"Alias01":" ","Alias02":" ","Alias03":" ","STC_ID":0,"MD_StreetI":0,"MD_Stree_1":908837,"MD_RdClass":"5","Date_In":1196380800000,"Date_Mod":1196380800000,"Edited_By":"SYSTEM","From_ST":"NW 1ST ST","To_ST":"NW 1ST AVE","Shape_Leng":253.184260026,"Shape__Length":85.9999614329568}},{"type":"Feature","id":15846,"geometry":{"type":"LineString","coordinates":[[-80.1988896474128,25.7748334235724],[-80.1989990233829,25.7748454658719],[-80.1991837009538,25.7747876312903],[-80.1993438665855,25.77474588224],[-80.1993465940921,25.7747455984697],[-80.1995542484805,25.7747240265548],[-80.1997440688164,25.774723102795],[-80.1998055742867,25.7747262266049],[-80.1999128431609,25.7747374659084],[-80.2001279010411,25.7747779848117]]},"properties":{"FID":15846,"St_SegID":15676,"L_Add_From":0,"L_Add_To":0,"R_Add_From":205,"R_Add_To":299,"Prefix_Dir":"NW","St_BName":"1","MD_St_BNam":"1ST","St_Type1":" ","St_Type2":"ST","St_Name":"1ST","St_Type":"ST","ARPS_St_Ty":"ST","St_Label":"NW 1ST ST","Suffix_Dir":" ","Ramp":" ","L_Zip":"33128","R_Zip":"33128","Shield_Typ":" ","Shield_Num":" ","In_Miami":1,"Jurisd_Cod":"M","Rd_Class":4,"Rd_Status":2,"One_Way":"FT","Speed_Limi":25,"F_ZLev":0,"T_ZLev":0,"ZLevel":0,"FT_Cost":415.6866051,"TF_Cost":-1,"Alias01":" ","Alias02":" ","Alias03":" ","STC_ID":0,"MD_StreetI":0,"MD_Stree_1":900966,"MD_RdClass":"5","Date_In":1196380800000,"Date_Mod":1196380800000,"Edited_By":"SYSTEM","From_ST":"NW 3RD AVE","To_ST":"NW 3RD CT","Shape_Leng":415.68680514,"Shape__Length":140.63748525914582}},{"type":"Feature","id":16446,"geometry":{"type":"LineString","coordinates":[[-80.1931938196104,25.7712959948951],[-80.1932920102793,25.7712403871424],[-80.1933412736442,25.7712015113589],[-80.1933993258764,25.7711418059654],[-80.1934372898311,25.7710689386955],[-80.1934608597962,25.7709933811783],[-80.1934673292854,25.7708890209911],[-80.1934767885182,25.7707690172872],[-80.1935314570791,25.7705783293216]]},"properties":{"FID":16446,"St_SegID":16721,"L_Add_From":315,"L_Add_To":399,"R_Add_From":0,"R_Add_To":0,"Prefix_Dir":"S","St_BName":"MIAMI","MD_St_BNam":"MIAMI","St_Type1":" ","St_Type2":"AVE","St_Name":"MIAMI","St_Type":"AVE","ARPS_St_Ty":"AV","St_Label":"S MIAMI AVE","Suffix_Dir":" ","Ramp":" ","L_Zip":" ","R_Zip":" ","Shield_Typ":" ","Shield_Num":" ","In_Miami":1,"Jurisd_Cod":"C","Rd_Class":2,"Rd_Status":2,"One_Way":"TF","Speed_Limi":40,"F_ZLev":0,"T_ZLev":0,"ZLevel":0,"FT_Cost":-1,"TF_Cost":299.68575899,"Alias01":" ","Alias02":" ","Alias03":" ","STC_ID":0,"MD_StreetI":0,"MD_Stree_1":0,"MD_RdClass":"2","Date_In":1196380800000,"Date_Mod":1196380800000,"Edited_By":"SYSTEM","From_ST":"SE 4TH ST","To_ST":"SW 4TH ST","Shape_Leng":299.685851407,"Shape__Length":101.80147189549842}},{"type":"Feature","id":16447,"geometry":{"type":"LineString","coordinates":[[-80.1935237134253,25.7714772369205],[-80.1934968218625,25.7714509539895],[-80.1934743790276,25.7714214458596],[-80.1934568504573,25.7713893246293],[-80.1934329843086,25.7713565682923],[-80.1934061891181,25.7713257248197],[-80.1933766509423,25.7712970083752],[-80.1933313762441,25.7712887566453],[-80.1932853074989,25.771285819651],[-80.1932392024933,25.7712882457031],[-80.1931938196104,25.7712959948951]]},"properties":{"FID":16447,"St_SegID":16722,"L_Add_From":0,"L_Add_To":0,"R_Add_From":0,"R_Add_To":0,"Prefix_Dir":"SE","St_BName":"4","MD_St_BNam":"4TH","St_Type1":" ","St_Type2":"ST","St_Name":"4TH","St_Type":"ST","ARPS_St_Ty":"ST","St_Label":"SE 4TH ST","Suffix_Dir":" ","Ramp":" ","L_Zip":"33131","R_Zip":"33131","Shield_Typ":" ","Shield_Num":" ","In_Miami":1,"Jurisd_Cod":"C","Rd_Class":4,"Rd_Status":2,"One_Way":"FT","Speed_Limi":30,"F_ZLev":0,"T_ZLev":0,"ZLevel":0,"FT_Cost":142.74369557,"TF_Cost":-1,"Alias01":" ","Alias02":" ","Alias03":" ","STC_ID":0,"MD_StreetI":0,"MD_Stree_1":901022,"MD_RdClass":"5","Date_In":1196380800000,"Date_Mod":1196380800000,"Edited_By":"SYSTEM","From_ST":"SW 3RD ST & S MIAMI AVE","To_ST":"S MIAMI AVE","Shape_Leng":142.743557665,"Shape__Length":48.352197639829761}},{"type":"Feature","id":16448,"geometry":{"type":"LineString","coordinates":[[-80.1931938196104,25.7712959948951],[-80.193135503548,25.7713066307032],[-80.193076577094,25.7713140096446],[-80.1930172618929,25.7713181039643],[-80.1928616023272,25.7713041450049],[-80.1927066403086,25.771284845097],[-80.1925525992858,25.7712602320708],[-80.192442148529,25.7712563156297],[-80.1923316617585,25.7712592845689],[-80.1922216618885,25.7712691248365],[-80.1921126695286,25.7712857898599]]},"properties":{"FID":16448,"St_SegID":16723,"L_Add_From":1,"L_Add_To":69,"R_Add_From":2,"R_Add_To":68,"Prefix_Dir":"SE","St_BName":"4","MD_St_BNam":"4TH","St_Type1":" ","St_Type2":"ST","St_Name":"4TH","St_Type":"ST","ARPS_St_Ty":"ST","St_Label":"SE 4TH ST","Suffix_Dir":" ","Ramp":" ","L_Zip":"33131","R_Zip":"33131","Shield_Typ":" ","Shield_Num":" ","In_Miami":1,"Jurisd_Cod":"C","Rd_Class":4,"Rd_Status":2,"One_Way":"FT","Speed_Limi":30,"F_ZLev":0,"T_ZLev":0,"ZLevel":0,"FT_Cost":358.73352823,"TF_Cost":-1,"Alias01":" ","Alias02":" ","Alias03":" ","STC_ID":0,"MD_StreetI":0,"MD_Stree_1":901022,"MD_RdClass":"5","Date_In":1196380800000,"Date_Mod":1196380800000,"Edited_By":"SYSTEM","From_ST":"S MIAMI AVE","To_ST":"SE 1ST PL","Shape_Leng":358.733565558,"Shape__Length":121.33399581304703}},{"type":"Feature","id":16449,"geometry":{"type":"LineString","coordinates":[[-80.1935314570791,25.7705783293216],[-80.1935139633992,25.7698382529804],[-80.193476408039,25.7688605030712],[-80.1934735929215,25.768787190426]]},"properties":{"FID":16449,"St_SegID":9023,"L_Add_From":401,"L_Add_To":499,"R_Add_From":400,"R_Add_To":498,"Prefix_Dir":"S","St_BName":"MIAMI","MD_St_BNam":"MIAMI","St_Type1":" ","St_Type2":"AVE","St_Name":"MIAMI","St_Type":"AVE","ARPS_St_Ty":"AV","St_Label":"S MIAMI AVE","Suffix_Dir":" ","Ramp":" ","L_Zip":"33130","R_Zip":"33130","Shield_Typ":" ","Shield_Num":" ","In_Miami":1,"Jurisd_Cod":"C","Rd_Class":2,"Rd_Status":2,"One_Way":" ","Speed_Limi":40,"F_ZLev":0,"T_ZLev":0,"ZLevel":0,"FT_Cost":651.32412389,"TF_Cost":651.32412389,"Alias01":" ","Alias02":" ","Alias03":" ","STC_ID":0,"MD_StreetI":0,"MD_Stree_1":901028,"MD_RdClass":"2","Date_In":1196380800000,"Date_Mod":1196380800000,"Edited_By":"SYSTEM","From_ST":"SW 4TH ST","To_ST":"S MIAMI AVE","Shape_Leng":651.32388804,"Shape__Length":221.50634611891249}}]}