{"type":"FeatureCollection","crs":{"type":"name","properties":{"name":"EPSG:4326"}},"features":[{"type":"Feature","id":144,"geometry":{"type":"LineString","coordinates":[[-80.1990940437139,25.770591292938],[-80.1989754508633,25.7704354535759],[-80.1989102736189,25.7703559057618],[-80.1988396022798,25.7702754680243],[-80.1986811008868,25.770094817022],[-80.1986765823624,25.7700894616151],[-80.1986070941024,25.7700866706539],[-80.1984505824732,25.7700902827195],[-80.1983128411363,25.7700991531151],[-80.1982655358673,25.7701022425852],[-80.1982662356551,25.7700818718147],[-80.1982676298409,25.7700438823935],[-80.1982649887954,25.7700136825746],[-80.1982595270414,25.7699504628276],[-80.1982693950319,25.7699511205243],[-80.1983734154193,25.769958311503],[-80.1984620252132,25.7699412639782],[-80.1984793348453,25.7699380013828],[-80.1984806589617,25.7699377522185],[-80.198386516448,25.7698463525794],[-80.1983342237351,25.7697993842593],[-80.1983112915495,25.7697930604945],[-80.1983037043809,25.7697910461445],[-80.1982636817526,25.7697553136729],[-80.1981879888322,25.7696879259396],[-80.1980317080732,25.769544254841],[-80.1980208258849,25.7695527935988],[-80.1979788233688,25.7695854034776],[-80.1979698527949,25.769592400322],[-80.1979289605961,25.7696297524132],[-80.1979226589161,25.7696354759252],[-80.1978820622645,25.7696005151709],[-80.197937170299,25.7695386599502],[-80.1979824094441,25.7695046901668],[-80.197984313872,25.7695032388606],[-80.1979820501182,25.7695011638323],[-80.1977647602957,25.7693085800169],[-80.1976243105418,25.7691841654217],[-80.1976037292468,25.7691659140213],[-80.197603575635,25.7691615236859],[-80.1976029710695,25.7691376239817],[-80.1975866127566,25.7689726274695],[-80.1975790184014,25.76897155476],[-80.1975704853071,25.7689703865906],[-80.1975588925518,25.768970840429]]},"properties":{"FID":144,"FID_1":604,"EditBy":" ","EditDate":null,"ModifyBy":" ","ModifyDate":null,"SHAPE_Leng":363.25474150356558,"Shape__Length":363.25463408858712}},{"type":"Feature","id":167,"geometry":{"type":"LineString","coordinates":[[-80.193412467135,25.769929524045],[-80.1933766576031,25.76994523191],[-80.1933766486199,25.769946518989],[-80.1933726807613,25.7699996370741],[-80.1933724346228,25.7700088375405],[-80.193367130069,25.7701749109731],[-80.1933659613605,25.7702074082344],[-80.1932891554255,25.7702479094625],[-80.1932830558664,25.7702512254418],[-80.1927409631692,25.7706021872302],[-80.1926756053616,25.7706061236788],[-80.1925487776534,25.7706293225169],[-80.1925069512077,25.7706370036878],[-80.1924489568882,25.7706475995772],[-80.1924358855064,25.770642542705],[-80.1923909428062,25.7706330017104],[-80.1923569442777,25.7706338446568],[-80.1922641680989,25.7706482896253],[-80.1920104390206,25.7707065492032],[-80.1919927502994,25.7707106652405],[-80.1919081101608,25.7706737422412],[-80.1917212184179,25.7705922279776],[-80.1917024714819,25.770584043623],[-80.1916851259176,25.7705659760743],[-80.1916450422037,25.7705397039409],[-80.1916212233813,25.7705240988927],[-80.1915033276206,25.7704910257286],[-80.1913003434613,25.7704586903356],[-80.1912515865156,25.7704509420069],[-80.1912393703301,25.7704317815175],[-80.1912373212736,25.7704260984923],[-80.1912233282213,25.7703890467793],[-80.1911296510333,25.7703693572108],[-80.1906671239035,25.7702721235872],[-80.1905082101808,25.7702386547643],[-80.1902444756718,25.7702031432732],[-80.1902306236542,25.7702016887393],[-80.1902125935735,25.7701997819894],[-80.1901816681808,25.7701948796117],[-80.1901838304259,25.7701568044754],[-80.1901830075697,25.7701386624364],[-80.1902114850541,25.770138902702],[-80.1902189563421,25.7700462630623],[-80.1901655479208,25.7700527583147],[-80.1901442794144,25.7700524654657],[-80.1901357265572,25.7700528489192],[-80.1901269877486,25.770053228328],[-80.1900434031293,25.7700571526598],[-80.1899923177508,25.770057899342],[-80.1898732272304,25.7700597268123],[-80.1898506265229,25.7700600317952],[-80.1898504441649,25.7700598562478]]},"properties":{"FID":167,"FID_1":628,"EditBy":" ","EditDate":null,"ModifyBy":" ","ModifyDate":null,"SHAPE_Leng":486.48537989213065,"Shape__Length":486.48523613356758}}]}