{"type":"FeatureCollection","features":[{"type":"Feature","id":38852,"geometry":{"type":"Polygon","coordinates":[[[-80.1961088815853,25.7739871357258],[-80.1961015324679,25.7737651384726],[-80.1960977712218,25.7736514754141],[-80.1962039673598,25.7736485931258],[-80.1963012611933,25.7736459510956],[-80.1963985568234,25.7736433114922],[-80.1964053274257,25.7738672447867],[-80.1964817551917,25.7738651698341],[-80.1964844393578,25.7739462773966],[-80.196463777208,25.7739616757172],[-80.1964082280857,25.7739631827868],[-80.1964087068878,25.7739789985222],[-80.196311893653,25.773981625984],[-80.1962150974861,25.7739842526367],[-80.1961088815853,25.7739871357258]]]},"properties":{"OBJECTID":38852,"UNIQUEID":"D3_MDC_Building_26468","SOURCE":"P","YEARUPDATE":2015,"TYPE":"L","HEIGHT":null,"GlobalID":"a7031deb-c65e-433e-ad94-61b8b9f6ae3b","Shape__Area":1487.375,"Shape__Length":165.76459046535763}},{"type":"Feature","id":60121,"geometry":{"type":"Polygon","coordinates":[[[-80.1944661611713,25.7707883393217],[-80.1944440572254,25.7707531912165],[-80.1944212516953,25.7707649495888],[-80.1944047640165,25.7707387316933],[-80.1943705723402,25.7707563599503],[-80.1943533264834,25.770728936688],[-80.1943194914382,25.7707463813104],[-80.1943017802541,25.7707182178384],[-80.1942681347534,25.7707355653859],[-80.1942515671246,25.7707092196667],[-80.1942254108785,25.7707227060029],[-80.1942079889519,25.7706950020202],[-80.1941749920349,25.7707120138487],[-80.1941635987021,25.7706938937313],[-80.194140992598,25.770700796672],[-80.194129199515,25.7707068768899],[-80.194113933545,25.7706826005098],[-80.1940901955636,25.7706913770257],[-80.1940841570883,25.7706944891333],[-80.1940698011117,25.7706716616161],[-80.1940394254787,25.770687322468],[-80.1940225137952,25.7706604306832],[-80.193993456889,25.7706754120016],[-80.193981644043,25.7706566277141],[-80.1939562028558,25.7706697443569],[-80.193942786517,25.7706484118121],[-80.1939179346247,25.7706612250919],[-80.1939011927227,25.7706346043062],[-80.1938735057474,25.7706488785879],[-80.1938554019995,25.7706200897586],[-80.1938110827166,25.7706461466952],[-80.1938040965186,25.7706502538374],[-80.1937893740294,25.7706399394658],[-80.193776388882,25.7706278720545],[-80.1937653890113,25.7706142813504],[-80.1937548391966,25.7705957526879],[-80.1937479715763,25.770575855244],[-80.1937449918645,25.7705551852296],[-80.1937459898928,25.7705343590801],[-80.1937509342201,25.7705139997033],[-80.1937596793194,25.770494716255],[-80.1937719619843,25.7704770839142],[-80.1937874139055,25.7704616317493],[-80.1938055742473,25.7704488200659],[-80.1938259022238,25.7704390331264],[-80.1938453651228,25.7704330944648],[-80.1938601262395,25.7704305065641],[-80.1938658970169,25.7704388470629],[-80.1938899386289,25.77047360291],[-80.193921254798,25.7704558419396],[-80.1939384198064,25.7704806555232],[-80.1939699677409,25.7704627626916],[-80.1939845644659,25.770483862286],[-80.1940075011501,25.7704708540248],[-80.1940235217049,25.7704940132589],[-80.194044549469,25.7704820865937],[-80.1940611341658,25.7705060620775],[-80.1940911657441,25.7704890291863],[-80.1941095785125,25.7705156451508],[-80.1941355775534,25.7705009008407],[-80.1941523904223,25.7705252039541],[-80.1941803630619,25.7705093392201],[-80.1941987497791,25.7705359179673],[-80.1942233447533,25.7705219680695],[-80.1942414008905,25.77054807033],[-80.194272401751,25.7705304881534],[-80.194292044313,25.7705535551531],[-80.1943216276319,25.7705367762856],[-80.1943415217222,25.7705655360122],[-80.1943706370189,25.7705490232978],[-80.1943917456314,25.770579537679],[-80.1944214367482,25.7705626989513],[-80.1944398710761,25.7705893448312],[-80.1944698981628,25.7705723151878],[-80.1944853114565,25.770594594242],[-80.1945186721912,25.7705756740346],[-80.1945340055347,25.7705943030125],[-80.1945455605643,25.7706150401647],[-80.1945529923266,25.7706372714816],[-80.1945560807346,25.7706603287529],[-80.1945547323633,25.7706835235446],[-80.1945489876371,25.7707061609516],[-80.1945390181341,25.7707275614395],[-80.1945251238916,25.7707470859229],[-80.1945077199312,25.7707641503269],[-80.1944888615985,25.7707773462368],[-80.1944661611713,25.7707883393217]]]},"properties":{"OBJECTID":60121,"UNIQUEID":"D1_MDC_Building_431","SOURCE":"P","YEARUPDATE":2015,"TYPE":"L","HEIGHT":null,"GlobalID":"867183eb-5d6b-47b8-ad4e-f6c69202ea98","Shape__Area":2004.76171875,"Shape__Length":280.6754109585912}},{"type":"Feature","id":88280,"geometry":{"type":"Polygon","coordinates":[[[-80.1965815463417,25.7704280909743],[-80.1966125184561,25.7704275125595],[-80.196614544157,25.7705162971815],[-80.1965835927039,25.7705168764049],[-80.1964847169372,25.7705187249041],[-80.1964666500202,25.770519063054],[-80.1964382812236,25.7705195929301],[-80.1964362591159,25.7704308066926],[-80.1965815463417,25.7704280909743]]]},"properties":{"OBJECTID":88280,"UNIQUEID":"D3_MDC_Building_23400","SOURCE":"P","YEARUPDATE":2015,"TYPE":"L","HEIGHT":null,"GlobalID":"25c60850-19bb-4e2a-a3b8-94301cc761cc","Shape__Area":215.439453125,"Shape__Length":61.205878383133864}},{"type":"Feature","id":91368,"geometry":{"type":"Polygon","coordinates":[[[-80.1937686723538,25.7760096208056],[-80.1937574991083,25.7757357414084],[-80.1937517858231,25.7755956943475],[-80.1937463429307,25.7754622569496],[-80.1937355694355,25.7751981442312],[-80.19376413137,25.7751747068311],[-80.1940148430809,25.7751689827755],[-80.1940172146333,25.775227102636],[-80.1940183060864,25.7752538671915],[-80.1940208321489,25.7753157954928],[-80.1940147954702,25.7753159977274],[-80.194019102892,25.7754215560622],[-80.1940329621002,25.775421091732],[-80.1940342484877,25.7754526281663],[-80.1940203892795,25.7754530916876],[-80.1940258321718,25.7755865112992],[-80.194031545457,25.7757265591799],[-80.194037919004,25.7758827799262],[-80.1940539718981,25.775882200729],[-80.1940587437489,25.7759991596739],[-80.1937686723538,25.7760096208056]]]},"properties":{"OBJECTID":91368,"UNIQUEID":"D1_MDC_Building_361","SOURCE":"P","YEARUPDATE":2015,"TYPE":"L","HEIGHT":null,"GlobalID":"9af1ecff-50a5-46de-981a-53f4c8a2e40c","Shape__Area":3183.041015625,"Shape__Length":273.20808671909}},{"type":"Feature","id":117567,"geometry":{"type":"Polygon","coordinates":[[[-80.194881640075,25.7736943546007],[-80.1950280205506,25.773692009456],[-80.1950295476866,25.7737226920994],[-80.1950357640283,25.77384752586],[-80.1950446115356,25.7740251748596],[-80.1949181323368,25.7740303399879],[-80.1948984116214,25.7740311456994],[-80.1948933792592,25.7739300895407],[-80.1948893835528,25.7738498734284],[-80.1948831690077,25.7737250574673],[-80.194881640075,25.7736943546007]]]},"properties":{"OBJECTID":117567,"UNIQUEID":"D3_MDC_Building_12515","SOURCE":"P","YEARUPDATE":2015,"TYPE":"L","HEIGHT":null,"GlobalID":"37841071-54d4-4b96-91dc-22425d87542b","Shape__Area":675.296875,"Shape__Length":115.49063839609529}},{"type":"Feature","id":216930,"geometry":{"type":"Polygon","coordinates":[[[-80.1948164035207,25.7742843103205],[-80.195461728068,25.774266972999],[-80.1954818673984,25.7749214559351],[-80.1948365428511,25.7749387939699],[-80.1948164035207,25.7742843103205]]]},"properties":{"OBJECTID":216930,"UNIQUEID":"D3_MDC_Building_25506","SOURCE":"P","YEARUPDATE":2015,"TYPE":"L","HEIGHT":null,"GlobalID":"ae6b43fa-4ed2-464e-ab72-22a66c6918cf","Shape__Area":5816.86328125,"Shape__Length":305.61234027996284}},{"type":"Feature","id":261067,"geometry":{"type":"MultiPolygon","coordinates":[[[[-80.1922883511734,25.7732691497411],[-80.1922800390621,25.7731032140667],[-80.1922746563569,25.7731033758574],[-80.1922714089472,25.7730151432597],[-80.1922696985549,25.7729686696429],[-80.1922668275392,25.7728906580921],[-80.1922888443485,25.7728899923221],[-80.1923377414461,25.7728885175971],[-80.1923408271591,25.7729723204544],[-80.1925807905277,25.7729650786939],[-80.1925802003345,25.7729490274176],[-80.1926890689604,25.7729457422529],[-80.1926899034953,25.7729684237208],[-80.1928498916508,25.7729635950714],[-80.1928568940184,25.7731538416056],[-80.1928864881172,25.7731529485212],[-80.1928915339541,25.7732446182561],[-80.1928779307657,25.7729209882384],[-80.1928637122314,25.7729284743059],[-80.1928483321754,25.7729337907565],[-80.1928322056195,25.7729367935963],[-80.1928157547717,25.7729374011213],[-80.1927994117217,25.7729355987702],[-80.1927836031693,25.7729314326534],[-80.1927687432379,25.7729250144064],[-80.1927552217962,25.7729165106735],[-80.1927430864551,25.7729058259976],[-80.1927330729346,25.7728934667838],[-80.1927254624075,25.7728797760288],[-80.1927204623846,25.7728651331319],[-80.1927182139015,25.7728499417615],[-80.1927187771452,25.7728346233831],[-80.1927221368443,25.7728196010805],[-80.1927282004725,25.7728052914659],[-80.192736800943,25.772792088501],[-80.1927476984057,25.7727803602609],[-80.1927605928233,25.7727704303285],[-80.1927751275646,25.7727625729402],[-80.1927908983877,25.7727570057057],[-80.1928074714064,25.7727538823269],[-80.1928243857849,25.7727532901711],[-80.1928411752975,25.7727552437997],[-80.1928573746171,25.7727596930573],[-80.1928725202128,25.7727665036568],[-80.1928669290984,25.7725918766543],[-80.1930169791919,25.7725879386513],[-80.1930173394164,25.772599467098],[-80.1930738039219,25.7726020638499],[-80.1930733134417,25.772586717935],[-80.1931241778497,25.7725853831559],[-80.1931246737198,25.7726008827727],[-80.1931701760838,25.7725996879432],[-80.1931977777193,25.773257339035],[-80.1928924367609,25.7732661161695],[-80.1928917540413,25.7732498675494],[-80.1925916179217,25.7732584942192],[-80.1925916718206,25.7732599657038],[-80.1923524199178,25.7732654164256],[-80.1923488518095,25.7731903189184],[-80.1923512871422,25.7732564580857],[-80.1923028733383,25.7732579198629],[-80.1923032703936,25.7732686999636],[-80.1922883511734,25.7732691497411]]],[[[-80.1928300182218,25.7728040367758],[-80.1928215893294,25.772803322468],[-80.1928131505557,25.7728039437459],[-80.1928049570219,25.7728058820035],[-80.1927972611549,25.7728090806139],[-80.1927902947199,25.7728134400753],[-80.1927842724142,25.7728188269101],[-80.1927793730027,25.772825080136],[-80.1927757474022,25.7728320096482],[-80.1927735052072,25.7728394026915],[-80.1927727155881,25.7728470351851],[-80.192773401901,25.7728546773856],[-80.1927755425863,25.7728620938872],[-80.1927790756603,25.772869063845],[-80.1927838897319,25.7728753704593],[-80.1927898392741,25.7728808244345],[-80.1927967464203,25.7728852607441],[-80.1928043973715,25.7728885426747],[-80.1928125639558,25.7728905731518],[-80.1928209937464,25.772891288268],[-80.1928294325202,25.7728906669906],[-80.1928376260539,25.7728887271164],[-80.1928453210226,25.7728855301261],[-80.1928522874577,25.7728811706673],[-80.1928583097633,25.7728757830264],[-80.1928632091749,25.7728695298032],[-80.1928668356737,25.7728626002932],[-80.1928690778686,25.7728552080603],[-80.1928698674877,25.7728475747583],[-80.1928691811749,25.7728399333662],[-80.1928670395912,25.7728325160543],[-80.1928635074156,25.7728255469033],[-80.1928586924456,25.7728192402864],[-80.1928527429035,25.7728137863083],[-80.1928458366556,25.7728093499961],[-80.192838184806,25.7728060664454],[-80.1928300182218,25.7728040367758]]],[[[-80.1922930978714,25.7730114333959],[-80.1922910398311,25.7729439374751],[-80.1922914988702,25.7729679949749],[-80.1922930978714,25.7730114333959]]],[[[-80.1931911176098,25.773067980898],[-80.1931865218288,25.7729369311186],[-80.1931739894323,25.7725795279243],[-80.1934113845174,25.7725732949094],[-80.1934628678647,25.7725719439509],[-80.193464561189,25.7726248270882],[-80.1934743132997,25.7729293584935],[-80.1934785102287,25.7730604220334],[-80.1934921718076,25.7730600636669],[-80.1934979596529,25.7732408266952],[-80.1934693824471,25.7732738570352],[-80.193198637407,25.7732809652997],[-80.1931936643336,25.7731406087481],[-80.1931911176098,25.773067980898]]]]},"properties":{"OBJECTID":261067,"UNIQUEID":"D1_MDC_Building_113","SOURCE":"P","YEARUPDATE":2015,"TYPE":"L","HEIGHT":null,"GlobalID":"a2c36953-0876-4e7c-8abd-f0fbe22e7efa","Shape__Area":8322.064453125,"Shape__Length":807.3721373355679}},{"type":"Feature","id":264201,"geometry":{"type":"Polygon","coordinates":[[[-80.1967611438214,25.7703273844594],[-80.1969271111634,25.7703229658516],[-80.196932805584,25.7704983129415],[-80.1967668373437,25.7705027339697],[-80.1967611438214,25.7703273844594]]]},"properties":{"OBJECTID":264201,"UNIQUEID":"D3_MDC_Building_17051","SOURCE":"P","YEARUPDATE":2015,"TYPE":"L","HEIGHT":null,"GlobalID":"403c55d9-85b9-4df4-9e0e-38843f020cf8","Shape__Area":400.80859375,"Shape__Length":80.33648451922548}},{"type":"Feature","id":282272,"geometry":{"type":"Polygon","coordinates":[[[-80.1928519568776,25.7709839422847],[-80.1928085170454,25.7709252831909],[-80.1927857025322,25.7709391335382],[-80.1927693424142,25.7709197142522],[-80.1927567866615,25.770898106703],[-80.1927483775321,25.7708749070994],[-80.192744353978,25.7708507650425],[-80.1927444240466,25.7708307551947],[-80.1927410562626,25.7708109783266],[-80.1927343341693,25.770791918202],[-80.1927244176669,25.7707740359339],[-80.1927115519953,25.7707577675573],[-80.192696039887,25.7707435013785],[-80.1927502756723,25.7707105730733],[-80.1928541056478,25.7708491940249],[-80.1928239123727,25.77080778937],[-80.1927352091284,25.7706902590291],[-80.1932000262024,25.770408058404],[-80.1933199818356,25.7705706721681],[-80.1930988938678,25.7707045923589],[-80.1932503444348,25.770614043513],[-80.1933375960017,25.7707323181815],[-80.1932512876658,25.7707839191131],[-80.1933489821479,25.7709163489434],[-80.1933322276696,25.7709950736839],[-80.1933138346641,25.7710440380759],[-80.1932882614246,25.7710902835087],[-80.1932559804649,25.7711329516714],[-80.1932175909612,25.7711712489717],[-80.1931738070743,25.7712044651411],[-80.1931397133143,25.771224712762],[-80.1931454472607,25.7712333792184],[-80.1930936135705,25.7712504872366],[-80.1930396706361,25.7712609140014],[-80.1929846524181,25.7712644621268],[-80.1929296216238,25.7712610636602],[-80.1928407818355,25.7712402093207],[-80.1928424410238,25.7711964426199],[-80.1927948976874,25.7711772887171],[-80.1927887568041,25.7710223124401],[-80.1928519568776,25.7709839422847]]]},"properties":{"OBJECTID":282272,"UNIQUEID":"D1_MDC_Building_325","SOURCE":"P","YEARUPDATE":2015,"TYPE":"L","HEIGHT":null,"GlobalID":"f82f0ed0-56ad-4ae7-879b-10797c4aee98","Shape__Area":5063.447265625,"Shape__Length":396.74437677031364}},{"type":"Feature","id":292338,"geometry":{"type":"MultiPolygon","coordinates":[[[[-80.1945407932051,25.7760043578825],[-80.1945381207171,25.7759403210491],[-80.1945705507971,25.7759392103824],[-80.1945696596684,25.775917865033],[-80.1945136488121,25.7759197813985],[-80.1945045632513,25.7759347240331],[-80.1944949036671,25.7759453615181],[-80.1944834456556,25.7759544183449],[-80.1944705000341,25.77596164698],[-80.1944564180437,25.7759668524706],[-80.1944415832651,25.7759698924447],[-80.1944263981435,25.7759706827733],[-80.194411275904,25.7759692056597],[-80.1943966261784,25.7759654975061],[-80.1943828496152,25.7759596610468],[-80.1943703199136,25.7759518556415],[-80.1943593757385,25.7759422916128],[-80.1943503153305,25.7759312286281],[-80.1943433866247,25.7759189700373],[-80.1943387755724,25.7759058450765],[-80.1943366079376,25.7758922056319],[-80.1943677812746,25.7758911386472],[-80.1943641008769,25.7758029526139],[-80.1943604204791,25.7757147657061],[-80.1943532546181,25.7757082440659],[-80.1943472736349,25.7757008026652],[-80.19434262126,25.7756926210877],[-80.1943394052913,25.775683891051],[-80.1943377038822,25.7756748172159],[-80.1943375565585,25.7756656074789],[-80.1943607133299,25.7756648163394],[-80.1943581782842,25.7756040789747],[-80.1943737640544,25.7755945052107],[-80.1943908985201,25.775587433487],[-80.1944090974894,25.7755830619934],[-80.194427849821,25.7755815136886],[-80.19444332959,25.775584331215],[-80.1944580871134,25.7755894129549],[-80.1944717244378,25.7755966181531],[-80.1944838696604,25.7756057518554],[-80.1944941895064,25.7756165641002],[-80.1945428162111,25.775614900118],[-80.1948524780659,25.775604304668],[-80.1948551415707,25.7756681289326],[-80.1948928771009,25.7756668378707],[-80.1948944832886,25.7757053286612],[-80.194935655773,25.7757039211129],[-80.1949372574692,25.7757423204816],[-80.1949770564295,25.7757409606609],[-80.1949786347695,25.7757788245026],[-80.1950198881023,25.7757774137193],[-80.1950216290373,25.7758191418321],[-80.1950633665621,25.7758177140617],[-80.1950689298286,25.7759037467005],[-80.1947339803985,25.7759152084925],[-80.1947344753702,25.7759312593676],[-80.1947309090585,25.7759351996864],[-80.1947253898095,25.7759361687897],[-80.1946936343642,25.7759372551883],[-80.1946815951427,25.7757621029993],[-80.1946889119207,25.7759374404343],[-80.1946949629724,25.7759685601304],[-80.1945897783375,25.7759721606957],[-80.194589440571,25.7759640656929],[-80.1945737487996,25.7759646028251],[-80.1945753585806,25.7760031744124],[-80.1945407932051,25.7760043578825]]],[[[-80.194583463181,25.7757648962534],[-80.1946440976661,25.7757606129403],[-80.1945833221455,25.7757613523073],[-80.1945703495745,25.7757653435947],[-80.194583463181,25.7757648962534]]],[[[-80.194681513396,25.7757601591275],[-80.1946815628033,25.7757613547341],[-80.1947358093684,25.7757594990362],[-80.194681513396,25.7757601591275]]],[[[-80.194548360613,25.775753069617],[-80.1945467310691,25.7757124748],[-80.1945466663904,25.7757124764179],[-80.194548360613,25.775753069617]]],[[[-80.1945693928688,25.7759114728334],[-80.1945703540661,25.7759084773492],[-80.194569294054,25.7759097942945],[-80.1945695195312,25.7759145192804],[-80.1945693928688,25.7759114728334]]],[[[-80.1945773070264,25.7759043800962],[-80.1945869288814,25.7759039732022],[-80.194577590894,25.7759042927313],[-80.1945773070264,25.7759043800962]]],[[[-80.194572285444,25.7759060756228],[-80.1945729888248,25.7759057075577],[-80.1945724471407,25.7759058750071],[-80.194572285444,25.7759060756228]]],[[[-80.1948228624076,25.775570274322],[-80.1948215275111,25.7755382792516],[-80.194795302993,25.7755391755538],[-80.1947933716152,25.7754929059688],[-80.1947918229196,25.7754558048641],[-80.1947908626206,25.775432794634],[-80.1947806083516,25.7751870771324],[-80.1947800217518,25.7751730129119],[-80.194983485672,25.7751660519877],[-80.1949840704753,25.7751801024571],[-80.1949877373983,25.7751840047807],[-80.1950045376907,25.7751834296248],[-80.1950039825319,25.7751701266159],[-80.1950915152715,25.7751671294951],[-80.1950942200988,25.7752319093519],[-80.1950927172173,25.7753103780317],[-80.1950929507793,25.77531600339],[-80.1951014506385,25.77531571379],[-80.195105258597,25.7754069668689],[-80.1950967605344,25.7754072572776],[-80.1948414198048,25.7754159938061],[-80.1948420468289,25.7754310254873],[-80.195066073186,25.7754233608024],[-80.1950675607961,25.7754590098745],[-80.1950967237035,25.7754580124545],[-80.1950997177884,25.7755297659988],[-80.1950704192354,25.7755307682717],[-80.1950716184863,25.7755595235522],[-80.195047527467,25.7755625878049],[-80.1948228624076,25.775570274322]]]]},"properties":{"OBJECTID":292338,"UNIQUEID":"D1_MDC_Building_168","SOURCE":"P","YEARUPDATE":2015,"TYPE":"L","HEIGHT":null,"GlobalID":"93d8de66-26b3-469e-8c1e-a2dff52fe545","Shape__Area":4406.150390625,"Shape__Length":593.2431787102796}},{"type":"Feature","id":313209,"geometry":{"type":"MultiPolygon","coordinates":[[[[-80.1936971457959,25.7732565802376],[-80.1936960750041,25.7732251629445],[-80.1936687455582,25.773225925787],[-80.1936653265702,25.773125591338],[-80.1936519156213,25.7731245170479],[-80.1936227760701,25.773125330046],[-80.1936190417735,25.7730157273246],[-80.1936408690383,25.7730150275793],[-80.1936365499384,25.7728882174748],[-80.1936546078722,25.7728877126868],[-80.1937146341978,25.7728192815431],[-80.193932136091,25.7728105027577],[-80.1939348499015,25.7728798820019],[-80.1939397609912,25.7730054438989],[-80.1939474002643,25.7730051987858],[-80.1939528350718,25.7731441406382],[-80.1939539534743,25.7731727233811],[-80.1939569484575,25.7732493215064],[-80.1936971457959,25.7732565802376]]],[[[-80.1937460626564,25.7727689636915],[-80.1938432891162,25.7727662480267],[-80.1938451297643,25.7728133114514],[-80.1937153223074,25.7728174719097],[-80.1937267147418,25.7727875874714],[-80.1937339479765,25.7727830298148],[-80.1937423409362,25.7727806183178],[-80.1937460626564,25.7727689636915]]]]},"properties":{"OBJECTID":313209,"UNIQUEID":"D1_MDC_Building_109","SOURCE":"P","YEARUPDATE":2015,"TYPE":"L","HEIGHT":null,"GlobalID":"b1ad02bf-23d4-48e5-9798-5b1e6edcea38","Shape__Area":1841.087890625,"Shape__Length":215.35206847947072}},{"type":"Feature","id":330109,"geometry":{"type":"Polygon","coordinates":[[[-80.1936483789541,25.7724034218707],[-80.1936435828488,25.7722861123381],[-80.1936715024878,25.7722851755634],[-80.193671693829,25.7722612886155],[-80.1936758727917,25.7722376945062],[-80.1936839378663,25.7722149546536],[-80.1936258456135,25.7722169018193],[-80.1936222325894,25.7721284986809],[-80.1937636929921,25.772123757365],[-80.1937648724801,25.7721526081195],[-80.1937411443802,25.7721628180037],[-80.193778283429,25.7721478708494],[-80.1937923258935,25.7721449699185],[-80.1941497601552,25.772132986792],[-80.1941529958868,25.7722121499905],[-80.1946059363345,25.7721969625813],[-80.1946082584796,25.7722537394071],[-80.1946084956348,25.7722595420724],[-80.1947527246452,25.7722547053046],[-80.1947535142644,25.7722739973655],[-80.194801773558,25.7722723794471],[-80.1948029314864,25.7723024913325],[-80.194802454481,25.7722895091574],[-80.1948627916237,25.7722874932313],[-80.1948762133524,25.7722973390724],[-80.1948768376815,25.7723126033198],[-80.1948814649036,25.7724257758142],[-80.1940658503211,25.7724531210244],[-80.1937135867622,25.7724642733188],[-80.193701140604,25.7724620648637],[-80.1936893008085,25.7724579440319],[-80.1936784249054,25.7724520362118],[-80.1936688380847,25.7724445177559],[-80.193660826909,25.7724356151722],[-80.1936546321268,25.7724255921807],[-80.193650441486,25.7724147537585],[-80.1936483789541,25.7724034218707]]]},"properties":{"OBJECTID":330109,"UNIQUEID":"D1_MDC_Building_282","SOURCE":"P","YEARUPDATE":2015,"TYPE":"L","HEIGHT":null,"GlobalID":"405f9f1b-6397-4ee0-8416-261ed77bc388","Shape__Area":4317.1171875,"Shape__Length":375.19508130139}},{"type":"Feature","id":333593,"geometry":{"type":"Polygon","coordinates":[[[-80.1937098874999,25.7750466637828],[-80.193705981625,25.7749123860864],[-80.193670560155,25.7749132306211],[-80.1936624869956,25.7746357618395],[-80.1936931042754,25.7746349189207],[-80.1936775328783,25.7746352902256],[-80.1936743160113,25.7745246809548],[-80.193810117926,25.7745204752556],[-80.1936832910793,25.7745234998968],[-80.1936758584186,25.774268029482],[-80.1938188127197,25.7742590582748],[-80.1938186591077,25.7742538834491],[-80.1939053860585,25.7742478390066],[-80.1941075339469,25.774239849858],[-80.1941152190342,25.7743324118287],[-80.1941111263097,25.774247504912],[-80.194357009576,25.7742377870461],[-80.194421729599,25.7742309554984],[-80.1944217385822,25.7742310007994],[-80.1944221697735,25.7742399299436],[-80.194592509216,25.7742331978964],[-80.1946033716444,25.7746064069081],[-80.1944327824702,25.7746104767019],[-80.1943936204154,25.7746122353446],[-80.1943949274642,25.774657129261],[-80.1943020317823,25.7746593449557],[-80.1943008612775,25.7746191065085],[-80.1943103537752,25.775032690147],[-80.194038845167,25.7750391665237],[-80.1940383609751,25.7750225161031],[-80.1940377806634,25.7750025692471],[-80.1940308286014,25.7747636953151],[-80.1939949714485,25.774764551176],[-80.1939909928102,25.7746277905138],[-80.1940249958403,25.7746264468592],[-80.1940859887531,25.7746240370174],[-80.1941185221395,25.7746227499888],[-80.1941291986166,25.7746223892001],[-80.1941152486786,25.7743329999318],[-80.1940821583367,25.7743343088051],[-80.1940953276388,25.774607465006],[-80.1940206695539,25.7746104152222],[-80.1939790335388,25.7746120606128],[-80.1939798069882,25.7746280752618],[-80.1939728495364,25.7746282419041],[-80.1939809262891,25.7749058053494],[-80.1939848339606,25.7750401048946],[-80.1937098874999,25.7750466637828]],[[-80.1939638457223,25.7745626471115],[-80.1939630659846,25.7745330357268],[-80.1939624200959,25.7745330608041],[-80.1939638457223,25.7745626471115]],[[-80.1938226467293,25.7743868748595],[-80.1938371006222,25.7743861678417],[-80.1938226242714,25.7743860893741],[-80.1938226467293,25.7743868748595]],[[-80.1941542454434,25.774671895705],[-80.1941542427484,25.7746719304895],[-80.1941543846822,25.7746719272538],[-80.1941542454434,25.774671895705]]]},"properties":{"OBJECTID":333593,"UNIQUEID":"D1_MDC_Building_332","SOURCE":"P","YEARUPDATE":2015,"TYPE":"L","HEIGHT":null,"GlobalID":"58e9dfef-9fb4-4320-821f-0e6c39ac4f80","Shape__Area":7978.751953125,"Shape__Length":683.4811147952827}},{"type":"Feature","id":341048,"geometry":{"type":"Polygon","coordinates":[[[-80.1923098685195,25.7741391344436],[-80.1923088570165,25.7741104257378],[-80.1924251178788,25.7741053334182],[-80.1923088058125,25.7741087261408],[-80.1923088570165,25.7741104257378],[-80.1921546881474,25.7741149331887],[-80.1919986382061,25.7741194843225],[-80.1919963124679,25.7740305923794],[-80.1919776948836,25.7740311368009],[-80.1919587521092,25.7734987520606],[-80.1919792238162,25.7734981542458],[-80.1919908974233,25.7738236837188],[-80.1919907941171,25.773819725533],[-80.1919792552572,25.7734954798543],[-80.1919801311146,25.7734889297787],[-80.1919820535093,25.7734825649526],[-80.1919855416676,25.7734755861323],[-80.1919902847723,25.7734692415293],[-80.1919961426862,25.7734637131576],[-80.1920029519161,25.7734591636165],[-80.1920105094426,25.7734557239562],[-80.1920186041616,25.7734534888241],[-80.1922825381752,25.7734457876087],[-80.1922982497095,25.7738127904157],[-80.192293233517,25.7736719264728],[-80.1922854244622,25.773452546396],[-80.1925910403051,25.7734436293268],[-80.1925953297605,25.7735641524842],[-80.1925974434964,25.7736235221496],[-80.1925979375698,25.7736374085848],[-80.192613870988,25.7740851380614],[-80.1926066557196,25.7738743651499],[-80.1926051456517,25.7738302256863],[-80.1926004968701,25.7736943845319],[-80.1926296175566,25.7736930902126],[-80.1926222127437,25.7735060722567],[-80.1926212183087,25.7734809244],[-80.1926193596944,25.7734339680218],[-80.1927479849683,25.7734307670014],[-80.1932732362032,25.7734176951561],[-80.1933250321641,25.7734164056876],[-80.1933931487172,25.7734147101254],[-80.1934761323882,25.7734126456813],[-80.1934755412967,25.7733960880618],[-80.1934751927504,25.7733863515204],[-80.1934751208851,25.7733843226696],[-80.1934751181902,25.7733842312581],[-80.1934750103924,25.7733811984983],[-80.1934750076974,25.7733811475344],[-80.1934749457137,25.7733794123331],[-80.1934749331372,25.7733790531585],[-80.1936896466598,25.7733727765022],[-80.1936897589492,25.773375897438],[-80.1936897742206,25.7733763237555],[-80.1936904829914,25.7733962401447],[-80.1938962268358,25.7733902247807],[-80.1939222725892,25.7733894627483],[-80.19408390017,25.7733847360439],[-80.1946355142635,25.773368607165],[-80.1946416883845,25.7735417073437],[-80.1946472884819,25.7736986962328],[-80.1946590627004,25.7740288029881],[-80.194586600098,25.774030920812],[-80.1945748276762,25.7737008334773],[-80.194435064191,25.7737049202901],[-80.1944385137217,25.7738016164065],[-80.1944405214564,25.7738579079044],[-80.1944435874064,25.7739438707768],[-80.1944471896507,25.7740448743421],[-80.1944475426886,25.7740547742368],[-80.1942522273863,25.774060485403],[-80.1942519632816,25.7740530916269],[-80.1941078869848,25.7740573038143],[-80.1941075815576,25.7740487500078],[-80.1939602560543,25.7740530576511],[-80.1936917505142,25.7740609068644],[-80.1936835650653,25.7740580326756],[-80.1936767782934,25.7740529880817],[-80.1936720720196,25.7740462794833],[-80.1936699115713,25.7740385734526],[-80.1936611826417,25.7737937032691],[-80.1936588012079,25.7737268929733],[-80.1936584939841,25.7737182857523],[-80.1935226857811,25.7737288368785],[-80.1935237035723,25.7737623168583],[-80.1935255442203,25.7738229532382],[-80.1935325169436,25.7740525941244],[-80.1935315045422,25.7740588270616],[-80.1935293135513,25.7740648059891],[-80.1935260131409,25.7740703529386],[-80.1935217030242,25.7740752988402],[-80.1935165116602,25.774079494039],[-80.1935105971523,25.7740828123391],[-80.1935041373671,25.7740851534314],[-80.1934973272389,25.7740864461285],[-80.1934903715837,25.7740866532189],[-80.193483485997,25.7740857658042],[-80.1934204179759,25.7740884482719],[-80.193194209611,25.7740980642227],[-80.1930823082727,25.7741028224475],[-80.1930799861276,25.7740263470243],[-80.1930779209008,25.7739583096858],[-80.1930720710717,25.7737656189884],[-80.1929129012814,25.7737693579508],[-80.1929140448368,25.7738070088591],[-80.1929149862712,25.7738380296133],[-80.192915444412,25.7738531496697],[-80.1929225348145,25.774086712272],[-80.1926143938074,25.7740998115477],[-80.1926154753791,25.7741302004381],[-80.1926160260463,25.7741457111785],[-80.1924945648367,25.7741492551728],[-80.1924805448301,25.7741496644997],[-80.1924797641942,25.7741496863413],[-80.1924791434583,25.774149704947],[-80.1924744803036,25.77414984085],[-80.192474227877,25.7741498481306],[-80.1924511232079,25.774150521174],[-80.1924475631845,25.7741506255281],[-80.1924464375954,25.7741506578859],[-80.1924462561357,25.7741506635486],[-80.1924448233228,25.7741507056138],[-80.1924443544023,25.7741507193659],[-80.1924441397049,25.7741507258374],[-80.192428058963,25.7741511950264],[-80.192310420085,25.774154627386],[-80.1923098685195,25.7741391344436]],[[-80.1923416527109,25.7737451744173],[-80.1923392515141,25.7736705844253],[-80.1923389999858,25.7736705925148],[-80.1923416527109,25.7737451744173]],[[-80.1921150365108,25.7741022052212],[-80.1921128769608,25.7740415892077],[-80.1921113040108,25.7740416345087],[-80.1921150365108,25.7741022052212]],[[-80.19315237417,25.7737455190297],[-80.1931516959419,25.7737231718064],[-80.1931432948974,25.7735920709778],[-80.1931466204606,25.7737015558692],[-80.193147279824,25.7737232834414],[-80.1931523328474,25.7737455206476],[-80.19315237417,25.7737455190297]],[[-80.1935163975742,25.7735217125107],[-80.193521288901,25.7736828084635],[-80.1936567862868,25.773670364391],[-80.1936494632207,25.7734649395275],[-80.1935147267078,25.7734667362078],[-80.1935163975742,25.7735217125107]]]},"properties":{"OBJECTID":341048,"UNIQUEID":"D1_MDC_Building_268","SOURCE":"P","YEARUPDATE":2015,"TYPE":"L","HEIGHT":null,"GlobalID":"575c8f32-afa7-4c56-998d-e50cd027bf98","Shape__Area":22314.783203125,"Shape__Length":1536.867592497154}},{"type":"Feature","id":343997,"geometry":{"type":"Polygon","coordinates":[[[-80.1977807190926,25.7735971155913],[-80.1979273600795,25.7735933256596],[-80.1979289995049,25.7736529032105],[-80.1977823576197,25.7736566939493],[-80.1977807190926,25.7735971155913]]]},"properties":{"OBJECTID":343997,"UNIQUEID":"D3_MDC_Building_28955","SOURCE":"P","YEARUPDATE":2015,"TYPE":"L","HEIGHT":null,"GlobalID":"76276920-3c81-4187-ab72-8c6f8914a123","Shape__Area":120.306640625,"Shape__Length":47.39576519787661}},{"type":"Feature","id":344697,"geometry":{"type":"Polygon","coordinates":[[[-80.1948537132495,25.7728608925887],[-80.1948519327886,25.7728129741169],[-80.1948820622832,25.7728120559524],[-80.1948823569306,25.7728199804807],[-80.1953222376708,25.7728066950039],[-80.1953240136401,25.772854905511],[-80.1954436656427,25.7728512910989],[-80.1954530197997,25.7731050916479],[-80.1954533674477,25.7731145377981],[-80.1954550230428,25.7731594703019],[-80.1948611692664,25.7731774072194],[-80.1948495145239,25.7728610187857],[-80.1948537132495,25.7728608925887]]]},"properties":{"OBJECTID":344697,"UNIQUEID":"D3_MDC_Building_7502","SOURCE":"P","YEARUPDATE":2015,"TYPE":"L","HEIGHT":null,"GlobalID":"98c59e43-c013-47b0-8e9d-33bbd556c620","Shape__Area":2837.142578125,"Shape__Length":222.4093078049774}},{"type":"Feature","id":355040,"geometry":{"type":"Polygon","coordinates":[[[-80.1956686765533,25.7729052783351],[-80.1958807166896,25.7729014972798],[-80.1961993652906,25.7729769128888],[-80.196207424077,25.7731239103328],[-80.1961748026558,25.7731761517243],[-80.1957098140035,25.7731908317946],[-80.1956784897495,25.7731445143746],[-80.1956686765533,25.7729052783351]]]},"properties":{"OBJECTID":355040,"UNIQUEID":"D3_MDC_Building_28534","SOURCE":"P","YEARUPDATE":2015,"TYPE":"L","HEIGHT":null,"GlobalID":"70393404-a654-48c9-8eb9-7599dd0d3b58","Shape__Area":1859.978515625,"Shape__Length":173.9791800171731}},{"type":"Feature","id":382985,"geometry":{"type":"Polygon","coordinates":[[[-80.1961719549963,25.7747529970534],[-80.1967231657462,25.7747310941293],[-80.1967320285248,25.7749139222658],[-80.1961808168766,25.7749358259651],[-80.1961719549963,25.7747529970534]]]},"properties":{"OBJECTID":382985,"UNIQUEID":"D3_MDC_Building_26805","SOURCE":"P","YEARUPDATE":2015,"TYPE":"L","HEIGHT":null,"GlobalID":"b201a75d-6532-4996-85c4-bf6c72776633","Shape__Area":1389.478515625,"Shape__Length":168.0854652803753}},{"type":"Feature","id":393040,"geometry":{"type":"Polygon","coordinates":[[[-80.1961585135047,25.7743188822197],[-80.1964984036689,25.7743096731863],[-80.1965078314878,25.7745948713759],[-80.1961679404253,25.7746040811961],[-80.1961585135047,25.7743188822197]]]},"properties":{"OBJECTID":393040,"UNIQUEID":"D3_MDC_Building_26473","SOURCE":"P","YEARUPDATE":2015,"TYPE":"L","HEIGHT":null,"GlobalID":"b7357dfa-b2d9-42b3-9b0d-3e12b2cae81a","Shape__Area":1335.146484375,"Shape__Length":146.24967865421596}},{"type":"Feature","id":421299,"geometry":{"type":"Polygon","coordinates":[[[-80.1981823917887,25.770455861355],[-80.1981539735847,25.7704315574184],[-80.1979366199135,25.7704313155359],[-80.197911394322,25.7704084992937],[-80.1979009217624,25.7702171942661],[-80.1979238943792,25.7701906817833],[-80.1980852353975,25.7701834269095],[-80.1981165318037,25.7702056882393],[-80.198138084184,25.7701808009816],[-80.1982876590686,25.7701794241088],[-80.1983228865025,25.7702044343306],[-80.1983539718046,25.7701762699211],[-80.1985033652296,25.7701748898122],[-80.1985416666984,25.7702095268176],[-80.1985453030786,25.7702737795036],[-80.1985967612731,25.7702720847054],[-80.1985986297689,25.7704371910977],[-80.1981823917887,25.770455861355]]]},"properties":{"OBJECTID":421299,"UNIQUEID":"D3_MDC_Building_1621","SOURCE":"P","YEARUPDATE":2015,"TYPE":"L","HEIGHT":null,"GlobalID":"40ff846c-0085-45e8-92b6-e997f832b661","Shape__Area":2369.556640625,"Shape__Length":216.41145666276785}},{"type":"Feature","id":453669,"geometry":{"type":"Polygon","coordinates":[[[-80.1982633380806,25.7708978001039],[-80.1982633273009,25.7708494075926],[-80.198211674172,25.770849423772],[-80.1982027691726,25.7706103885841],[-80.1981626135811,25.7706115551197],[-80.1981110071647,25.770567371567],[-80.1982010686618,25.7705647521194],[-80.1988854043469,25.7705448101769],[-80.1989581660883,25.7706331756645],[-80.1988322097091,25.7708788435413],[-80.1982633380806,25.7708978001039]]]},"properties":{"OBJECTID":453669,"UNIQUEID":"D3_MDC_Building_12103","SOURCE":"P","YEARUPDATE":2015,"TYPE":"L","HEIGHT":null,"GlobalID":"dab5304c-ac8c-4a85-9263-3312ad8f12ce","Shape__Area":3198.123046875,"Shape__Length":250.36364618172627}},{"type":"Feature","id":454160,"geometry":{"type":"Polygon","coordinates":[[[-80.1968838716556,25.7736667014667],[-80.1968830595786,25.7736497814731],[-80.1969169125901,25.7736479265511],[-80.1969147467519,25.773339691181],[-80.1972963160503,25.7733187886698],[-80.1972953189204,25.7732753754388],[-80.1974184069789,25.7732735051409],[-80.1975694991181,25.7732712077161],[-80.1975734112812,25.7734415818712],[-80.1975746383798,25.7734950357402],[-80.1975778516536,25.77363491621],[-80.1973036642693,25.7736378979994],[-80.1973043047681,25.7736657752192],[-80.1975990060803,25.7736625717783],[-80.1976007326422,25.7739080505614],[-80.1973101492074,25.77392114743],[-80.1968969753806,25.7739397694112],[-80.1968919457134,25.7738349855398],[-80.1968855020979,25.773700678159],[-80.1968845965961,25.7736818466224],[-80.1968838716556,25.7736667014667]]]},"properties":{"OBJECTID":454160,"UNIQUEID":"D3_MDC_Building_28905","SOURCE":"P","YEARUPDATE":2015,"TYPE":"L","HEIGHT":null,"GlobalID":"cae7d3cc-6659-4831-aa81-d062d5f4c6cf","Shape__Area":5687.60546875,"Shape__Length":376.7445391689612}},{"type":"Feature","id":474846,"geometry":{"type":"Polygon","coordinates":[[[-80.1936455816003,25.7720867514731],[-80.1934137515783,25.7720537078593],[-80.1934303506481,25.7720562512318],[-80.1934270062203,25.772075707544],[-80.1934028747768,25.7720723082916],[-80.1934062551372,25.7720526400312],[-80.1933676518345,25.7720471374802],[-80.1933825189525,25.7719606482178],[-80.1936605223801,25.7719998205469],[-80.1936455816003,25.7720867514731]]]},"properties":{"OBJECTID":474846,"UNIQUEID":"D1_MDC_Building_104","SOURCE":"P","YEARUPDATE":2015,"TYPE":"L","HEIGHT":null,"GlobalID":"7905dc84-4ac4-49ad-8d00-2d438b3c2eab","Shape__Area":346.412109375,"Shape__Length":92.98300435475137}},{"type":"Feature","id":478979,"geometry":{"type":"Polygon","coordinates":[[[-80.1978717965843,25.7717305340847],[-80.1982208819037,25.7717185978362],[-80.1982331322292,25.772012297153],[-80.1978840460115,25.7720242341809],[-80.1978717965843,25.7717305340847]]]},"properties":{"OBJECTID":478979,"UNIQUEID":"D3_MDC_Building_28512","SOURCE":"P","YEARUPDATE":2015,"TYPE":"L","HEIGHT":null,"GlobalID":"a2fc10dd-c034-4fe3-8d8d-de73688ec1a5","Shape__Area":1412.857421875,"Shape__Length":150.43880861161963}},{"type":"Feature","id":500463,"geometry":{"type":"MultiPolygon","coordinates":[[[[-80.198306986322,25.7758207184465],[-80.1982901357239,25.7753159928738],[-80.1982351983544,25.7753178259283],[-80.19823649642,25.7753567415247],[-80.1982377953838,25.7753956740959],[-80.1981060709222,25.7754000690556],[-80.1981062820262,25.7753221294809],[-80.1980189891368,25.7753250416592],[-80.1980146745285,25.7752385143391],[-80.198081060028,25.7752362986551],[-80.1981227409589,25.7752349080889],[-80.1982207866822,25.7752316351216],[-80.1982872449453,25.7752294178196],[-80.1982859908971,25.7751918312689],[-80.1982741358303,25.7751921564625],[-80.1982705174163,25.7750837472188],[-80.198813028881,25.7750688983141],[-80.1988380496567,25.7758322813633],[-80.1983078585861,25.7758467977002],[-80.198306986322,25.7758207184465]]],[[[-80.1980058333095,25.7752019915463],[-80.1980016184142,25.7750652524208],[-80.1980399782734,25.7750656997647],[-80.1980783210647,25.7750661462997],[-80.1980804824113,25.7751995008223],[-80.198043153818,25.7752007465888],[-80.1980058333095,25.7752019915463]]]]},"properties":{"OBJECTID":500463,"UNIQUEID":"D3_MDC_Building_4997","SOURCE":"P","YEARUPDATE":2015,"TYPE":"L","HEIGHT":null,"GlobalID":"c9625bdc-b60d-4fd6-9d04-af2d34538f7a","Shape__Area":6199.546875,"Shape__Length":440.0032587308799}},{"type":"Feature","id":511436,"geometry":{"type":"Polygon","coordinates":[[[-80.1959083425796,25.7714004007118],[-80.1958959458287,25.7710485893275],[-80.1959917906796,25.7710458453095],[-80.1959984175514,25.7712345384671],[-80.1962455306113,25.7712274001482],[-80.1962512995921,25.7713904908881],[-80.1959083425796,25.7714004007118]]]},"properties":{"OBJECTID":511436,"UNIQUEID":"D3_MDC_Building_16405","SOURCE":"P","YEARUPDATE":2015,"TYPE":"L","HEIGHT":null,"GlobalID":"ed42c49a-0f49-46e8-a849-32270607f4bd","Shape__Area":1019.552734375,"Shape__Length":163.41326566282567}},{"type":"Feature","id":513624,"geometry":{"type":"Polygon","coordinates":[[[-80.1921956845621,25.7751202951251],[-80.1921950000458,25.7751049155604],[-80.1921890460121,25.7751051331653],[-80.1920437057857,25.77511042525],[-80.1920405113765,25.7751003685091],[-80.192052234391,25.7750972087896],[-80.1920436671581,25.7750975210404],[-80.1920291683494,25.7750980492782],[-80.1920266377953,25.7750411079806],[-80.192028691344,25.7750410335581],[-80.192023827865,25.7749315482847],[-80.1920354466749,25.7749311260174],[-80.1920325999138,25.7748604868327],[-80.192031096134,25.7748266657893],[-80.1920249013518,25.7746872114193],[-80.1920527500239,25.774686197814],[-80.1920362515654,25.7743148480095],[-80.1920346813103,25.7742794995214],[-80.1923084294184,25.7742695292672],[-80.1923189181477,25.7743970853604],[-80.1923142747559,25.7742925437676],[-80.192774826629,25.7742757686645],[-80.1927749928174,25.7742795294524],[-80.1927779222235,25.7742756610747],[-80.1927774928288,25.7742659966017],[-80.1929265925047,25.7742605661495],[-80.1929259915318,25.7742470332966],[-80.1933799138381,25.7742304960171],[-80.1933807807123,25.7742500199243],[-80.1935055656885,25.7742356012745],[-80.193506054372,25.7742466118358],[-80.1935150447114,25.7742443937065],[-80.1935243485628,25.7742450521884],[-80.193532862795,25.7742485169031],[-80.1935395848883,25.7742543785239],[-80.1935437297151,25.7742619502555],[-80.1935448085917,25.7742703438754],[-80.1935426984491,25.7742785611446],[-80.1935515666176,25.7742782383753],[-80.1935556584437,25.774503262546],[-80.1935445381988,25.7745036662091],[-80.1935491276916,25.7746069375749],[-80.1935362197993,25.774607406762],[-80.1935408982253,25.7747126470039],[-80.1935566762349,25.7747121203823],[-80.1935595957596,25.7747778348156],[-80.1935418908637,25.7747784803515],[-80.1935450556284,25.7748497173929],[-80.1935588896838,25.7748492134223],[-80.1935680542963,25.7750554561547],[-80.193264867498,25.7750665006155],[-80.1930960399202,25.7750726509875],[-80.1930962914485,25.7750783006253],[-80.1930188306198,25.7750811230172],[-80.1930184632089,25.7750728572672],[-80.1927651598583,25.775082084847],[-80.1927654428276,25.7750884609124],[-80.1926871887866,25.7750913116171],[-80.1926806697126,25.7749445981217],[-80.1928454234307,25.7749385957793],[-80.1928397936888,25.77481186458],[-80.1926750390724,25.774817865311],[-80.1926685747956,25.7746724012943],[-80.1926683232673,25.7746667330315],[-80.1926394253629,25.7746677862751],[-80.1926356470489,25.7745827161918],[-80.192692646052,25.7745806396339],[-80.1926915950231,25.7745570112012],[-80.1926242618009,25.7745594647272],[-80.1926252373713,25.7745814550489],[-80.1926289177691,25.774664288406],[-80.1923312690845,25.7746751298585],[-80.1923275895851,25.7745922770944],[-80.1926237371848,25.7745814898335],[-80.1923274422614,25.7745885324953],[-80.1922710711807,25.7745905855937],[-80.1922731400008,25.7746371273354],[-80.1922744488461,25.7746665898486],[-80.1922836161536,25.7746662565641],[-80.1922843770267,25.7746833899736],[-80.1923038111795,25.7746826821487],[-80.1923048855646,25.7747068654911],[-80.1924721662435,25.774700772535],[-80.1924749743771,25.7747639218189],[-80.1926347316656,25.7747581039061],[-80.1926485872805,25.7750699701598],[-80.1926357009477,25.7750704393451],[-80.1926372011343,25.7751042142095],[-80.1924992441611,25.7751092385352],[-80.1921956845621,25.7751202951251]],[[-80.1929428475198,25.7746667718608],[-80.192792249454,25.7746678954824],[-80.1926695099418,25.7746723665097],[-80.1928957443579,25.7746684884376],[-80.1929428475198,25.7746667718608]],[[-80.193060145038,25.7747153723314],[-80.1928998182177,25.774722981245],[-80.1930602231915,25.7747171366352],[-80.193060145038,25.7747153723314]],[[-80.1932531902977,25.7742631677187],[-80.1933532141113,25.77426055806],[-80.1933855345969,25.7742597151386],[-80.1935011154346,25.774254913237],[-80.1932531902977,25.7742631677187]],[[-80.1932284893223,25.7747870502842],[-80.1932312848795,25.7748499455145],[-80.1932326089962,25.7748797655269],[-80.1932391837658,25.774987082078],[-80.1932284893223,25.7747870502842]],[[-80.1931696631459,25.7746508591438],[-80.1930872948209,25.7746538587045],[-80.1931697377061,25.7746525506437],[-80.1931696631459,25.7746508591438]],[[-80.1928344684758,25.7745059539027],[-80.1928097701954,25.7745025846509],[-80.1928333348019,25.7745062985129],[-80.1928342358121,25.7745265957249],[-80.1928344684758,25.7745059539027]],[[-80.1921844439429,25.7749681002825],[-80.1921834324399,25.7749313064113],[-80.1921828108057,25.7749313298706],[-80.1921844439429,25.7749681002825]],[[-80.1935033270869,25.7742600104038],[-80.1935076084575,25.7742603291284],[-80.1935066472602,25.7742601794734],[-80.1935033378667,25.7742548647002],[-80.1935033270869,25.7742600104038]],[[-80.1935238320316,25.7743286971523],[-80.1935365701423,25.7743280702198],[-80.1935238131669,25.7743282603219],[-80.1935238320316,25.7743286971523]],[[-80.1920925301197,25.7749496143648],[-80.1920917342124,25.7749296877201],[-80.1920918680613,25.7749347452199],[-80.1920925301197,25.7749496143648]],[[-80.1935114613318,25.7742609617239],[-80.1935135687795,25.7742614341482],[-80.1935128150929,25.774261184184],[-80.1935114613318,25.7742609617239]],[[-80.1935173372121,25.7742626839692],[-80.1935192479287,25.7742634209187],[-80.193518701753,25.7742631361698],[-80.1935173372121,25.7742626839692]],[[-80.1935241338655,25.7742659723333],[-80.1935228636477,25.7742653098068],[-80.1935244824119,25.7742662360496],[-80.1935241338655,25.7742659723333]],[[-80.1935289497338,25.7742696093528],[-80.1935279517055,25.7742688554155],[-80.193529118617,25.7742697897477],[-80.1935289497338,25.7742696093528]]]},"properties":{"OBJECTID":513624,"UNIQUEID":"D1_MDC_Building_234","SOURCE":"P","YEARUPDATE":2015,"TYPE":"L","HEIGHT":null,"GlobalID":"286f84a4-3af0-4abd-9401-723b0f652679","Shape__Area":16315.8515625,"Shape__Length":1197.1851681993705}},{"type":"Feature","id":526975,"geometry":{"type":"Polygon","coordinates":[[[-80.1982494330584,25.7739226318496],[-80.1982408694188,25.7737068836104],[-80.1983062532968,25.7737047560733],[-80.1983059685308,25.7736975628945],[-80.1983529998275,25.7736960339799],[-80.1983540769076,25.7737231734243],[-80.1983941714137,25.773721868589],[-80.1983888776417,25.773588523731],[-80.1983876343733,25.7735571647703],[-80.1984805947339,25.7735541409134],[-80.1984818389005,25.7735854845048],[-80.198527125669,25.7735840122153],[-80.1985283662424,25.7736152611518],[-80.1985371957833,25.7738376655864],[-80.1985401925631,25.7739131703937],[-80.1984019642987,25.7739176697626],[-80.1983153927565,25.7739204865195],[-80.1982494330584,25.7739226318496]]]},"properties":{"OBJECTID":526975,"UNIQUEID":"D3_MDC_Building_2742","SOURCE":"P","YEARUPDATE":2015,"TYPE":"L","HEIGHT":null,"GlobalID":"9cf9052f-cb90-4af9-9091-2d64520ab5c2","Shape__Area":1114.177734375,"Shape__Length":160.67623757868415}},{"type":"Feature","id":542944,"geometry":{"type":"Polygon","coordinates":[[[-80.1952424960197,25.7740205064248],[-80.1952410335624,25.7739843594178],[-80.1952373307068,25.7738923189472],[-80.1952372579433,25.7738923221829],[-80.1952410335624,25.7739843594178],[-80.1950765268811,25.773988611246],[-80.1950626092824,25.7735472227686],[-80.1951100529058,25.7735459980175],[-80.1951059682662,25.7734164631231],[-80.1952176540088,25.7734135767844],[-80.1952285532682,25.7736797425444],[-80.1952287634739,25.7736797352639],[-80.1952162068229,25.7733681549609],[-80.1954530341728,25.773362031196],[-80.195473611881,25.7740145323488],[-80.1952424960197,25.7740205064248]]]},"properties":{"OBJECTID":542944,"UNIQUEID":"D3_MDC_Building_14498","SOURCE":"P","YEARUPDATE":2015,"TYPE":"L","HEIGHT":null,"GlobalID":"6525b4bf-2fa5-438d-8371-ad191e071430","Shape__Area":3290.662109375,"Shape__Length":338.191894074622}},{"type":"Feature","id":595957,"geometry":{"type":"Polygon","coordinates":[[[-80.196778029454,25.7710803599066],[-80.1969501556456,25.7710752367162],[-80.1969513126757,25.7711052647728],[-80.1969621373748,25.7713858506633],[-80.1965571409121,25.7713979066721],[-80.1965463189079,25.7711173402253],[-80.1965451618778,25.7710872919476],[-80.1967158399852,25.7710822116328],[-80.196778029454,25.7710803599066]]]},"properties":{"OBJECTID":595957,"UNIQUEID":"D3_MDC_Building_8860","SOURCE":"P","YEARUPDATE":2015,"TYPE":"L","HEIGHT":null,"GlobalID":"815a804a-35d2-4f61-b33d-d88ae2a667a4","Shape__Area":1733.05078125,"Shape__Length":167.05615549653518}},{"type":"Feature","id":638275,"geometry":{"type":"Polygon","coordinates":[[[-80.192074315879,25.7756525108028],[-80.1920740913002,25.7756456558774],[-80.1920638343363,25.7756459317246],[-80.1920602159223,25.7755358475871],[-80.1920761340691,25.7755354196594],[-80.1920809903616,25.7755487258631],[-80.1920703830547,25.775226145661],[-80.1922951568102,25.7752200867071],[-80.1922949861303,25.7752148569155],[-80.1925005979224,25.7752093140642],[-80.1925008575355,25.7752172076927],[-80.1927254570178,25.7752111519741],[-80.1927259510912,25.7752261966242],[-80.1927336739077,25.7752259879179],[-80.1928076115438,25.775223993883],[-80.1928845513496,25.7752219197632],[-80.1929708857366,25.7752195924453],[-80.1929704707149,25.7752069689494],[-80.1932003226467,25.7751991683483],[-80.1932082754319,25.7754409123233],[-80.193199973202,25.7751875681586],[-80.1932930135126,25.7751850596376],[-80.1935813736171,25.7751772833032],[-80.1935912973061,25.7754089665633],[-80.1935945276478,25.7755071756214],[-80.1935996830792,25.7755070364842],[-80.1936021471581,25.7755819141122],[-80.1936024471954,25.7755910680392],[-80.1935769916352,25.7755917540174],[-80.1935794161882,25.7756654553989],[-80.1935889670763,25.7758042598531],[-80.1934664997536,25.7758075635442],[-80.1933864329123,25.775809723401],[-80.1933232849411,25.7758114254004],[-80.1935890640943,25.7758078402],[-80.1936155428356,25.7758071267192],[-80.1936223790149,25.7760149597682],[-80.1936208752351,25.7760217596648],[-80.1936170070895,25.7760277433469],[-80.1936110925817,25.7760323202933],[-80.1936038404824,25.7760348676251],[-80.1935628844919,25.776036281641],[-80.1935624299444,25.7760224496852],[-80.1935621865009,25.7760150560313],[-80.1935417040141,25.776015608533],[-80.193533019102,25.7760231696361],[-80.1935168709864,25.7760236056514],[-80.1935081501416,25.7760165137298],[-80.1934744929629,25.7760174221624],[-80.1934655897601,25.776024988119],[-80.1934479387631,25.7760254653898],[-80.1934394532769,25.776018366188],[-80.1934039922811,25.7760193231565],[-80.1933955023033,25.7760268794058],[-80.1933775548623,25.7760273623392],[-80.1933693622268,25.7760202574749],[-80.1933288149699,25.7760213503443],[-80.1933219141119,25.7758114618025],[-80.1933017379506,25.7758120062158],[-80.1932957470859,25.7756299075058],[-80.1932889755853,25.7756300895165],[-80.1932881437454,25.7756047932657],[-80.1932727708759,25.7756052074412],[-80.1932723729223,25.7755931000879],[-80.1934577411794,25.7755858261299],[-80.1933827776673,25.7755878484714],[-80.1933063516979,25.775589908833],[-80.1932132431153,25.7755924189633],[-80.1930692665314,25.7755985943851],[-80.1930694695507,25.7756047803227],[-80.1930122387823,25.7756063237735],[-80.1930126780584,25.775619684168],[-80.1930130697239,25.7756316070811],[-80.1931386973197,25.7756282192557],[-80.1932487274673,25.7756252520771],[-80.1932615661894,25.7760155543345],[-80.1926854783943,25.7760310890963],[-80.1926807523576,25.7758873762925],[-80.1926726154177,25.7756399989862],[-80.1927404948156,25.7756381691724],[-80.1927401283029,25.775627033355],[-80.1928207988121,25.7756248581251],[-80.1928201295672,25.7756044980039],[-80.1928198133602,25.7755948983539],[-80.1927458945887,25.7755968907647],[-80.1925745247786,25.7756015114102],[-80.1925753018213,25.7756252350895],[-80.1925203985878,25.7756267138251],[-80.1925172472978,25.7756030483896],[-80.1925014513218,25.7752351184131],[-80.1925020037857,25.7752520737739],[-80.1925109321413,25.7755235363746],[-80.1925180638663,25.775627109395],[-80.1923682257753,25.7757044428764],[-80.1923710518752,25.775790380143],[-80.1923742049618,25.7758862300322],[-80.1923758785232,25.7759371257588],[-80.1923795652091,25.7760492617883],[-80.1920876208266,25.7760571319018],[-80.1920785864698,25.7757823506515],[-80.1920779621407,25.7757633924424],[-80.192074315879,25.7756525108028]],[[-80.1929803710476,25.775507477355],[-80.1929834154381,25.7756000771657],[-80.192987916896,25.7755999566342],[-80.1929723993978,25.7752650370192],[-80.1929803710476,25.775507477355]],[[-80.1923593620985,25.7755305628017],[-80.1925099547744,25.7755235743946],[-80.1923592650804,25.7755276368765],[-80.1923593620985,25.7755305628017]],[[-80.1923058269991,25.7755001038924],[-80.192305684167,25.7754957590905],[-80.1922954307963,25.7755003821668],[-80.1923058269991,25.7755001038924]]]},"properties":{"OBJECTID":638275,"UNIQUEID":"D1_MDC_Building_273","SOURCE":"P","YEARUPDATE":2015,"TYPE":"L","HEIGHT":null,"GlobalID":"58af9007-67d3-45dd-824f-b198c3208c0f","Shape__Area":15041.28515625,"Shape__Length":1239.8311881818388}},{"type":"Feature","id":645844,"geometry":{"type":"Polygon","coordinates":[[[-80.1958970911807,25.7718998466671],[-80.196155596675,25.7718921906527],[-80.1961594720072,25.7719995390284],[-80.1959009692078,25.7720071901821],[-80.1958970911807,25.7718998466671]]]},"properties":{"OBJECTID":645844,"UNIQUEID":"D3_MDC_Building_23487","SOURCE":"P","YEARUPDATE":2015,"TYPE":"L","HEIGHT":null,"GlobalID":"6e2b8a3c-7b43-431d-a520-c6a41c45d7f9","Shape__Area":382.26171875,"Shape__Length":84.1374280067893}},{"type":"Feature","id":709032,"geometry":{"type":"Polygon","coordinates":[[[-80.1943869755774,25.7728880039106],[-80.1945391007792,25.7728834058102],[-80.1945506189778,25.7731957688345],[-80.1943984928777,25.7732003693497],[-80.1943869755774,25.7728880039106]]]},"properties":{"OBJECTID":709032,"UNIQUEID":"D1_MDC_Building_336","SOURCE":"P","YEARUPDATE":2015,"TYPE":"L","HEIGHT":null,"GlobalID":"ba68f0b3-6f57-427d-be9f-ae952b72fbab","Shape__Area":654.62890625,"Shape__Length":111.15744462067772}},{"type":"Feature","id":711064,"geometry":{"type":"Polygon","coordinates":[[[-80.1951369044479,25.770687645247],[-80.1950809232361,25.7706486140546],[-80.1950596924527,25.7706691068884],[-80.1950410407324,25.7706523231834],[-80.1950197551517,25.7706816637224],[-80.1949197996101,25.7706137255876],[-80.1949063805764,25.7706065597264],[-80.194928515065,25.7705732357966],[-80.1949717689459,25.7705318787747],[-80.1949501572768,25.7705131955859],[-80.1949586032371,25.7705013263596],[-80.1949663494098,25.7704904359875],[-80.195004529606,25.7704367720504],[-80.1954023395464,25.7700540428588],[-80.1954568053005,25.7700226239089],[-80.1954709250201,25.7700133983626],[-80.1954965045478,25.7700347294036],[-80.1955469611207,25.7699852735475],[-80.1955823736075,25.7699626287223],[-80.1956230097977,25.770012112093],[-80.1956474556515,25.7700418799288],[-80.1956238973332,25.7700645668056],[-80.1956283691466,25.7700686561705],[-80.1956619293074,25.7700993518854],[-80.1956314476731,25.7701306551317],[-80.1956636783272,25.7701563449017],[-80.1955870295756,25.7702279714071],[-80.1954341965014,25.7703743922232],[-80.1954270944207,25.7703682723486],[-80.1953536894856,25.7704381254601],[-80.1953580400265,25.770441874235],[-80.1952852154031,25.770500074072],[-80.1952731159945,25.7704896496673],[-80.195236413527,25.7705245745745],[-80.1952476972652,25.7705342975982],[-80.1951950497014,25.7706033117095],[-80.1951334414426,25.7706585490184],[-80.1951813602748,25.7706157569126],[-80.1951895259607,25.7706231047916],[-80.1951369044479,25.770687645247]],[[-80.1954540259129,25.7701612254396],[-80.1954882535219,25.770128760515],[-80.1954763786921,25.7701397932997],[-80.1954540259129,25.7701612254396]]]},"properties":{"OBJECTID":711064,"UNIQUEID":"D3_MDC_Building_50","SOURCE":"P","YEARUPDATE":2015,"TYPE":"L","HEIGHT":null,"GlobalID":"126ce10a-875f-487d-a4a7-5112e9a51ce2","Shape__Area":2859.0078125,"Shape__Length":304.59187323541835}},{"type":"Feature","id":759501,"geometry":{"type":"Polygon","coordinates":[[[-80.1965510153003,25.7739696681203],[-80.1965296353965,25.773345497029],[-80.1967946824228,25.7733380546712],[-80.1967961323036,25.7733804065346],[-80.1968048181141,25.7733801622312],[-80.1968125373374,25.773605497124],[-80.1968256302826,25.7736049624079],[-80.1968259671509,25.7736131918574],[-80.1968450949782,25.7736126547146],[-80.1968476866178,25.773688352195],[-80.1968290546605,25.7736888755854],[-80.1968178760251,25.7736893326419],[-80.1968272167074,25.7739619127389],[-80.1965510153003,25.7739696681203]]]},"properties":{"OBJECTID":759501,"UNIQUEID":"D3_MDC_Building_28138","SOURCE":"P","YEARUPDATE":2015,"TYPE":"L","HEIGHT":null,"GlobalID":"475132f9-bd9a-497f-be77-4f70b2d40cbb","Shape__Area":2392.75,"Shape__Length":222.5510910823594}},{"type":"Feature","id":773391,"geometry":{"type":"Polygon","coordinates":[[[-80.196305873144,25.7742068990636],[-80.1964113488331,25.7742036697509],[-80.1964136826562,25.7742662020738],[-80.1963082060688,25.7742694321937],[-80.196305873144,25.7742068990636]]]},"properties":{"OBJECTID":773391,"UNIQUEID":null,"SOURCE":null,"YEARUPDATE":2023,"TYPE":null,"HEIGHT":null,"GlobalID":"b0871e2e-7fb4-4912-bb31-820300288966","Shape__Area":90.87109375,"Shape__Length":38.96569755429238}},{"type":"Feature","id":773392,"geometry":{"type":"Polygon","coordinates":[[[-80.19673285228,25.7741938337754],[-80.1969541226059,25.7741870612782],[-80.196956456429,25.7742495887562],[-80.1967351861032,25.7742563628677],[-80.19673285228,25.7741938337754]]]},"properties":{"OBJECTID":773392,"UNIQUEID":null,"SOURCE":null,"YEARUPDATE":2023,"TYPE":null,"HEIGHT":null,"GlobalID":"b21ef07e-8e69-476d-9f83-e9a75d5bc849","Shape__Area":190.61328125,"Shape__Length":64.75978362655566}},{"type":"Feature","id":773393,"geometry":{"type":"Polygon","coordinates":[[[-80.1966253356186,25.7741971205235],[-80.19673285228,25.7741938337754],[-80.1967351861032,25.7742563628677],[-80.1966276703401,25.7742596512319],[-80.1966253356186,25.7741971205235]]]},"properties":{"OBJECTID":773393,"UNIQUEID":null,"SOURCE":null,"YEARUPDATE":2023,"TYPE":null,"HEIGHT":null,"GlobalID":"fc129941-7584-4d53-b806-a23ecbd9522b","Shape__Area":92.619140625,"Shape__Length":39.41942831050859}},{"type":"Feature","id":773394,"geometry":{"type":"Polygon","coordinates":[[[-80.1965202111708,25.7742003352752],[-80.1966253347203,25.7741971205235],[-80.1966276703401,25.7742596512319],[-80.1965225467906,25.7742628692178],[-80.1965202111708,25.7742003352752]]]},"properties":{"OBJECTID":773394,"UNIQUEID":null,"SOURCE":null,"YEARUPDATE":2023,"TYPE":null,"HEIGHT":null,"GlobalID":"33fed1af-5d60-417e-82e2-972bab1f030b","Shape__Area":90.5625,"Shape__Length":38.88704762190904}},{"type":"Feature","id":773395,"geometry":{"type":"Polygon","coordinates":[[[-80.1964113488331,25.7742036697509],[-80.1965202111708,25.7742003352752],[-80.1965225467906,25.7742628692178],[-80.1964136826562,25.7742662020738],[-80.1964113488331,25.7742036697509]]]},"properties":{"OBJECTID":773395,"UNIQUEID":null,"SOURCE":null,"YEARUPDATE":2023,"TYPE":null,"HEIGHT":null,"GlobalID":"c438f9ef-b159-47f4-8fa2-e38799d79cf4","Shape__Area":93.787109375,"Shape__Length":39.720345385122755}},{"type":"Feature","id":773396,"geometry":{"type":"Polygon","coordinates":[[[-80.196305873144,25.7742068990636],[-80.1963082060688,25.7742694321937],[-80.1962027294814,25.774272655033],[-80.1962003965566,25.7742101283761],[-80.196305873144,25.7742068990636]]]},"properties":{"OBJECTID":773396,"UNIQUEID":null,"SOURCE":null,"YEARUPDATE":2023,"TYPE":null,"HEIGHT":null,"GlobalID":"0529ef9a-5efd-46a2-a83d-2ed13f01f4f7","Shape__Area":90.861328125,"Shape__Length":38.965063978129955}},{"type":"Feature","id":773418,"geometry":{"type":"Polygon","coordinates":[[[-80.1971238520922,25.7713613519566],[-80.1971058229045,25.7708784164058],[-80.1974542398773,25.7708677517706],[-80.1974705550795,25.7713047178908],[-80.1974220748003,25.771353636044],[-80.1971238520922,25.7713613519566]]]},"properties":{"OBJECTID":773418,"UNIQUEID":null,"SOURCE":null,"YEARUPDATE":2023,"TYPE":null,"HEIGHT":null,"GlobalID":"13f79cdf-a80a-4fcb-a1d8-37701f7e1254","Shape__Area":2305.544921875,"Shape__Length":193.9020882245344}},{"type":"Feature","id":773419,"geometry":{"type":"Polygon","coordinates":[[[-80.1957039282418,25.771777860024],[-80.195302453175,25.7717899556321],[-80.1950607380916,25.7717003354951],[-80.1950572229839,25.7716185590025],[-80.1951853164552,25.7716147002456],[-80.1951856155942,25.7716228562175],[-80.1952041146008,25.7716222980325],[-80.1952038145635,25.7716141428696],[-80.195697361557,25.7715992724977],[-80.1957039282418,25.771777860024]]]},"properties":{"OBJECTID":773419,"UNIQUEID":null,"SOURCE":null,"YEARUPDATE":2023,"TYPE":null,"HEIGHT":null,"GlobalID":"80d59aa6-5339-4dc4-8b8d-3c628414d7d9","Shape__Area":1413.056640625,"Shape__Length":179.33781823024955}},{"type":"Feature","id":773420,"geometry":{"type":"Polygon","coordinates":[[[-80.1952038145635,25.7716141428696],[-80.1952041146008,25.7716222980325],[-80.1951856155942,25.7716228562175],[-80.1951853164552,25.7716147010546],[-80.1950572229839,25.7716185590025],[-80.1950584608623,25.7716473645778],[-80.1950392189489,25.7716479446046],[-80.1950389674207,25.7716410101694],[-80.1950501837853,25.7716406728316],[-80.1950491327564,25.7716120541253],[-80.1952676012369,25.7716054740142],[-80.1952678527652,25.7716122143001],[-80.1952038145635,25.7716141428696]]]},"properties":{"OBJECTID":773420,"UNIQUEID":null,"SOURCE":null,"YEARUPDATE":2023,"TYPE":null,"HEIGHT":null,"GlobalID":"ff9765bb-bc44-4ad0-a759-2a851168fbc4","Shape__Area":26.5859375,"Shape__Length":61.99803814914426}},{"type":"Feature","id":773421,"geometry":{"type":"Polygon","coordinates":[[[-80.195697361557,25.7715992749246],[-80.1953738099512,25.7716090221292],[-80.1953735665078,25.7716022810341],[-80.1957042660083,25.7715923186446],[-80.1957058245853,25.7716346962089],[-80.195698672199,25.7716349146291],[-80.195697361557,25.7715992749246]]]},"properties":{"OBJECTID":773421,"UNIQUEID":null,"SOURCE":null,"YEARUPDATE":2023,"TYPE":null,"HEIGHT":null,"GlobalID":"a5cc57e3-17cf-464d-ab13-cb7e679e6a1b","Shape__Area":34.21875,"Shape__Length":84.15142666728423}},{"type":"Feature","id":773422,"geometry":{"type":"Polygon","coordinates":[[[-80.195302453175,25.7717899556321],[-80.1957039282418,25.771777860024],[-80.195708564447,25.7719041074687],[-80.1956177160256,25.7719068433772],[-80.195302453175,25.7717899556321]]]},"properties":{"OBJECTID":773422,"UNIQUEID":null,"SOURCE":null,"YEARUPDATE":2023,"TYPE":null,"HEIGHT":null,"GlobalID":"92ae3fd3-e1e6-4443-9c58-9724e916a893","Shape__Area":428.1171875,"Shape__Length":108.40346675097219}},{"type":"Feature","id":773423,"geometry":{"type":"Polygon","coordinates":[[[-80.1955116609232,25.7716708657737],[-80.1955483220682,25.7716697607298],[-80.1955500216808,25.7717160075366],[-80.1955133605357,25.7717171125801],[-80.1955116609232,25.7716708657737]]]},"properties":{"OBJECTID":773423,"UNIQUEID":null,"SOURCE":null,"YEARUPDATE":2023,"TYPE":null,"HEIGHT":null,"GlobalID":"99c416de-677c-4353-913c-7aa77198abce","Shape__Area":23.35546875,"Shape__Length":19.606630852358236}},{"type":"Feature","id":773424,"geometry":{"type":"Polygon","coordinates":[[[-80.19510702199,25.7716459019718],[-80.1951081098498,25.7716755067962],[-80.1950403077071,25.7716775494285],[-80.1950392189489,25.7716479446046],[-80.19510702199,25.7716459019718]]]},"properties":{"OBJECTID":773424,"UNIQUEID":null,"SOURCE":null,"YEARUPDATE":2023,"TYPE":null,"HEIGHT":null,"GlobalID":"c4664b1e-61be-484a-bb91-1cd16f791506","Shape__Area":27.65234375,"Shape__Length":22.427154232885727}},{"type":"Feature","id":808372,"geometry":{"type":"Polygon","coordinates":[[[-80.1987031155145,25.7744599476307],[-80.1987145870007,25.7747736517757],[-80.1984753404877,25.7747808230479],[-80.1984638698999,25.7744671197307],[-80.1987031155145,25.7744599476307]]]},"properties":{"OBJECTID":808372,"UNIQUEID":null,"SOURCE":null,"YEARUPDATE":2023,"TYPE":null,"HEIGHT":null,"GlobalID":"5b94c984-2e8a-4510-80f1-2598d817292c","Shape__Area":1033.935546875,"Shape__Length":130.8959399562211}},{"type":"Feature","id":808373,"geometry":{"type":"Polygon","coordinates":[[[-80.1984649173355,25.7744957725331],[-80.1984364587072,25.7744966235423],[-80.1984354103733,25.7744679731669],[-80.1984638698999,25.7744671197307],[-80.1984649173355,25.7744957725331]]]},"properties":{"OBJECTID":808373,"UNIQUEID":null,"SOURCE":null,"YEARUPDATE":2023,"TYPE":null,"HEIGHT":null,"GlobalID":"88654244-905f-4594-a3d8-c9e981c0ba48","Shape__Area":11.232421875,"Shape__Length":13.42714314123512}},{"type":"Feature","id":836106,"geometry":{"type":"Polygon","coordinates":[[[-80.197426798142,25.7722901255842],[-80.1973004653686,25.7722908326145],[-80.1973001311954,25.772241808874],[-80.197426464867,25.7722411018434],[-80.197426798142,25.7722901255842]]]},"properties":{"OBJECTID":836106,"UNIQUEID":null,"SOURCE":null,"YEARUPDATE":2023,"TYPE":null,"HEIGHT":null,"GlobalID":"b6230cf3-f901-4d63-ab6b-7dc07dc18582","Shape__Area":85.23046875,"Shape__Length":40.24767090074983}},{"type":"Feature","id":836160,"geometry":{"type":"Polygon","coordinates":[[[-80.1949223014181,25.7751571334294],[-80.1948269030299,25.775156870524],[-80.1948270207092,25.7751218539521],[-80.1949224190974,25.7751221168575],[-80.1949223014181,25.7751571334294]]]},"properties":{"OBJECTID":836160,"UNIQUEID":null,"SOURCE":null,"YEARUPDATE":2023,"TYPE":null,"HEIGHT":null,"GlobalID":"a80fd06c-bd3b-48bb-85c1-c3cbe68e7251","Shape__Area":45.96875,"Shape__Length":29.89693910550705}},{"type":"Feature","id":836163,"geometry":{"type":"Polygon","coordinates":[[[-80.1982892122558,25.771890679512],[-80.1982598490241,25.7718678910552],[-80.1983068318118,25.7718182620361],[-80.1983361950435,25.7718410513114],[-80.1982892122558,25.771890679512]]]},"properties":{"OBJECTID":836163,"UNIQUEID":null,"SOURCE":null,"YEARUPDATE":2023,"TYPE":null,"HEIGHT":null,"GlobalID":"8da16986-4252-4801-abe2-493308fd2335","Shape__Area":34.78515625,"Shape__Length":24.75353519411413}},{"type":"Feature","id":836318,"geometry":{"type":"Polygon","coordinates":[[[-80.1959100242258,25.7710046777508],[-80.1958405709796,25.7710089304948],[-80.1958271753021,25.7708295846164],[-80.1959197799298,25.7708239137432],[-80.1959347422692,25.7710242224129],[-80.1959115899894,25.7710256397244],[-80.1959100242258,25.7710046777508]]]},"properties":{"OBJECTID":836318,"UNIQUEID":null,"SOURCE":null,"YEARUPDATE":2023,"TYPE":null,"HEIGHT":null,"GlobalID":"8f7400be-b688-49ca-9f12-991c188deb3f","Shape__Area":236.296875,"Shape__Length":70.29891367336145}},{"type":"Feature","id":836384,"geometry":{"type":"Polygon","coordinates":[[[-80.1966985321445,25.7705154291554],[-80.1966418161108,25.7705160617709],[-80.1966412438839,25.7704740437994],[-80.196697960816,25.7704734119927],[-80.1966985321445,25.7705154291554]]]},"properties":{"OBJECTID":836384,"UNIQUEID":null,"SOURCE":null,"YEARUPDATE":2023,"TYPE":null,"HEIGHT":null,"GlobalID":"ea8e774e-dbb3-495a-911d-b6fca4627e39","Shape__Area":32.798828125,"Shape__Length":23.01694727810283}},{"type":"Feature","id":836407,"geometry":{"type":"Polygon","coordinates":[[[-80.1978391850445,25.7704537596467],[-80.197792778077,25.7704535040116],[-80.1977938605469,25.7702924263263],[-80.1978402675145,25.7702926819616],[-80.1978391850445,25.7704537596467]]]},"properties":{"OBJECTID":836407,"UNIQUEID":null,"SOURCE":null,"YEARUPDATE":2023,"TYPE":null,"HEIGHT":null,"GlobalID":"2d168147-2e0f-4142-8f96-0621492c55c4","Shape__Area":102.8671875,"Shape__Length":50.15572252792474}},{"type":"Feature","id":862822,"geometry":{"type":"Polygon","coordinates":[[[-80.1969556677081,25.7762047006809],[-80.1969277399843,25.7762057102286],[-80.1969266233784,25.7761804173362],[-80.1969003701142,25.7761813662141],[-80.1968990244379,25.776150894529],[-80.196623986349,25.776160841975],[-80.196626576192,25.7762195170862],[-80.1966172572506,25.7762306038507],[-80.196604742639,25.7762387486415],[-80.1965885909302,25.7762393334995],[-80.1965874024591,25.7762123839208],[-80.1965979046631,25.7762120037226],[-80.1965956975024,25.7761619542575],[-80.1964928772333,25.7761656704943],[-80.1964937665654,25.7761858339487],[-80.1965528828976,25.7761836959399],[-80.1965540686738,25.7762105767659],[-80.1964949514433,25.7762127139652],[-80.1964959494716,25.7762353406102],[-80.1965256720294,25.7762342663482],[-80.1965271991653,25.7762688983492],[-80.1964974766075,25.7762699734198],[-80.1964979149854,25.7762799257094],[-80.1962802747516,25.7762877966166],[-80.196205879873,25.7764014628122],[-80.1961832333447,25.7764022814505],[-80.1962003740987,25.7767908007003],[-80.1961675900824,25.7767919857804],[-80.1961707305926,25.7768631997719],[-80.1961500271202,25.7768639480302],[-80.1961504654981,25.7768738654861],[-80.1961005272531,25.776875671822],[-80.1961000888753,25.7768657551752],[-80.1960767569324,25.7768665980781],[-80.1960736164222,25.7767953840886],[-80.196044391531,25.776796441358],[-80.1960213892698,25.7762749839443],[-80.1959276195272,25.7762783749869],[-80.1959236516686,25.7761884346668],[-80.196015905055,25.776185098629],[-80.1960152708445,25.7761707247056],[-80.1960062302462,25.7761712973431],[-80.195998004172,25.7761678720688],[-80.1959926330984,25.7761612985213],[-80.1959914493197,25.7761532072678],[-80.1959191978214,25.7761558201206],[-80.1959153629135,25.7760688840861],[-80.1960054917843,25.7760656265114],[-80.1960006345935,25.7759554820932],[-80.1959120337571,25.7759586846634],[-80.1959082024424,25.7758718204795],[-80.1959797361867,25.7758692343153],[-80.1959818837557,25.7758613635368],[-80.1959875887552,25.7758550948379],[-80.1959957370141,25.775851652479],[-80.1960047371994,25.7758517087437],[-80.1959772990574,25.775229651603],[-80.1959938415333,25.7752290521792],[-80.1959896472993,25.7751340398206],[-80.1960991168981,25.7751300776338],[-80.1961000933668,25.775152185146],[-80.1961064687104,25.7751519545982],[-80.1961096882723,25.7752248634926],[-80.1961380435943,25.7752238385667],[-80.1961451052507,25.7753839582472],[-80.1962634933237,25.7753796773472],[-80.1962730208556,25.7755956870671],[-80.1962443394452,25.7755967241237],[-80.1962841285241,25.7756434863104],[-80.1963576403588,25.7756408281459],[-80.1963680715958,25.7756565482032],[-80.1963777284851,25.7756512949717],[-80.1963593821921,25.7756236479563],[-80.1963735953365,25.7756159161422],[-80.1963724230351,25.7755893393416],[-80.1963575136963,25.7755808940431],[-80.1964592137662,25.7754337014531],[-80.196698721689,25.7754251728229],[-80.1966970310596,25.7753868801313],[-80.1966706080139,25.775387836296],[-80.1965796239469,25.7753117855847],[-80.1965747236371,25.7752007053329],[-80.1966602127094,25.7751168611756],[-80.1967859741542,25.7751123116978],[-80.1968757077663,25.7751873173874],[-80.1968806790431,25.7752999993501],[-80.1967957352481,25.7753833102879],[-80.1967692430321,25.7753842688794],[-80.1967709264749,25.7754224159631],[-80.1969000952296,25.7754177443475],[-80.1970134967545,25.7755598705861],[-80.1969983879897,25.7755697533667],[-80.1970000022623,25.7755963026678],[-80.1970144013579,25.7756043936511],[-80.1969127138644,25.7757527419981],[-80.1969053755269,25.7757530081379],[-80.1969057052086,25.7757604802749],[-80.1969200800498,25.7757599609383],[-80.196925479823,25.7758824053894],[-80.1969841335228,25.7758802851718],[-80.196981914684,25.7758299920774],[-80.1969861921934,25.7758197739873],[-80.1969949186961,25.775812191462],[-80.1970080018903,25.7758086400588],[-80.1970213588099,25.7758112369185],[-80.1970307251429,25.7758181653723],[-80.1970358881613,25.7758280409262],[-80.1970369490716,25.7758520962234],[-80.1970161009705,25.7758528493417],[-80.1970172346444,25.7758785758929],[-80.1970592740031,25.7758770567137],[-80.197060823597,25.77591218146],[-80.1971175728684,25.7759101275755],[-80.1971291800002,25.7761731693001],[-80.1969545555938,25.776179484637],[-80.1969556677081,25.7762047006809]]]},"properties":{"OBJECTID":862822,"UNIQUEID":null,"SOURCE":null,"YEARUPDATE":2023,"TYPE":null,"HEIGHT":null,"GlobalID":"2f57253f-3507-4f10-a0f6-88077da1cc50","Shape__Area":14135.405140817165,"Shape__Length":973.6635759517192}},{"type":"Feature","id":863081,"geometry":{"type":"Polygon","coordinates":[[[-80.1978533945957,25.7747251297963],[-80.1978344697877,25.7742074709884],[-80.197635819939,25.7742132921639],[-80.1976347563337,25.7741835221387],[-80.1978333756396,25.7741775691034],[-80.1978326704621,25.7741582813967],[-80.1981531857623,25.7741486759671],[-80.1981535729361,25.7741592707381],[-80.1981545467099,25.7741858794079],[-80.1981762625836,25.7741852273972],[-80.1981754163706,25.774162107713],[-80.1982548049838,25.7741597286018],[-80.1982563015771,25.7742006410569],[-80.1984099916441,25.7741960332999],[-80.1984202234552,25.7744758676537],[-80.1984356825629,25.7744754041287],[-80.1984364587072,25.7744966235423],[-80.1984649173355,25.7744957725331],[-80.1984751123156,25.7747745812503],[-80.1984304795207,25.7747759192406],[-80.1984317739931,25.7748113128816],[-80.1983236069514,25.7748145551208],[-80.1983251322907,25.7748562673933],[-80.1982510724838,25.774858487938],[-80.1982501885415,25.774834311907],[-80.1982270775842,25.7748350043612],[-80.1982284547015,25.774872659785],[-80.1980232767957,25.7748788093581],[-80.1980013519978,25.7748749206642],[-80.1979800503423,25.7748688407786],[-80.1979596409729,25.7748606465197],[-80.1979403817594,25.7748504414203],[-80.1979225160395,25.7748383544201],[-80.1979062695441,25.7748245382363],[-80.1978918475456,25.7748091674339],[-80.1978794322642,25.7747924362205],[-80.1978701659679,25.7747765678098],[-80.1978626915944,25.774759950576],[-80.1978570827303,25.7747427481179],[-80.1978533945957,25.7747251297963]]]},"properties":{"OBJECTID":863081,"UNIQUEID":null,"SOURCE":null,"YEARUPDATE":2023,"TYPE":null,"HEIGHT":null,"GlobalID":"22647eab-cb0a-4406-a5fe-cc23dc0b6b8e","Shape__Area":5655.587779276073,"Shape__Length":364.2129221592429}}]}
